{
  "type": "FeatureCollection",
  "generator": "overpass-turbo",
  "copyright": "The data included in this document is from www.openstreetmap.org. The data is made available under ODbL.",
  "timestamp": "2026-06-27T23:29:30Z",
  "features": [
    {
      "type": "Feature",
      "properties": {
        "@id": "relation/14761694",
        "boundary": "protected_area",
        "leisure": "nature_reserve",
        "name": "Chestnut Hills Preserve",
        "protect_class": "1",
        "type": "multipolygon",
        "@geometry": "center"
      },
      "geometry": {
        "type": "Point",
        "coordinates": [
          -82.3463617,
          35.4722639
        ]
      },
      "id": "relation/14761694"
    },
    {
      "type": "Feature",
      "properties": {
        "@id": "relation/14761706",
        "access": "no",
        "boundary": "protected_area",
        "leisure": "nature_reserve",
        "name": "Wildcat Rock Preserve",
        "protect_class": "1",
        "type": "multipolygon",
        "@geometry": "center"
      },
      "geometry": {
        "type": "Point",
        "coordinates": [
          -82.3425497,
          35.4680352
        ]
      },
      "id": "relation/14761706"
    },
    {
      "type": "Feature",
      "properties": {
        "@id": "way/33172124",
        "access": "no",
        "alt_name:1": "Florence Preserve",
        "boundary": "protected_area",
        "damage:event": "2024HurricaneHelene",
        "leisure": "nature_reserve",
        "name": "Florence Nature Preserve",
        "protect_class": "1",
        "website": "https://conservingcarolina.org/florence-nature-preserve/",
        "@geometry": "center"
      },
      "geometry": {
        "type": "Point",
        "coordinates": [
          -82.3368979,
          35.4846298
        ]
      },
      "id": "way/33172124"
    }
  ]
}