{
  "type": "FeatureCollection",
  "generator": "overpass-turbo",
  "copyright": "The data included in this document is from www.openstreetmap.org. The data is made available under ODbL.",
  "timestamp": "2026-06-27T23:05:04Z",
  "features": [
    {
      "type": "Feature",
      "properties": {
        "@id": "node/525155148",
        "amenity": "parking",
        "fee": "yes",
        "layer": "-1",
        "parking": "underground"
      },
      "geometry": {
        "type": "Point",
        "coordinates": [
          -84.5145126,
          39.1016821
        ]
      },
      "id": "node/525155148"
    },
    {
      "type": "Feature",
      "properties": {
        "@id": "node/1573403819",
        "amenity": "parking",
        "fee": "yes",
        "park_ride": "no",
        "parking": "multi-storey",
        "supervised": "yes"
      },
      "geometry": {
        "type": "Point",
        "coordinates": [
          -84.4986855,
          38.0472488
        ]
      },
      "id": "node/1573403819"
    },
    {
      "type": "Feature",
      "properties": {
        "@id": "node/3447799963",
        "amenity": "parking",
        "parking": "multi-storey"
      },
      "geometry": {
        "type": "Point",
        "coordinates": [
          -85.6370733,
          38.2371371
        ]
      },
      "id": "node/3447799963"
    },
    {
      "type": "Feature",
      "properties": {
        "@id": "node/3453183885",
        "amenity": "parking",
        "parking": "multi-storey"
      },
      "geometry": {
        "type": "Point",
        "coordinates": [
          -85.7417301,
          38.2488527
        ]
      },
      "id": "node/3453183885"
    },
    {
      "type": "Feature",
      "properties": {
        "@id": "node/3516264334",
        "amenity": "parking",
        "parking": "multi-storey"
      },
      "geometry": {
        "type": "Point",
        "coordinates": [
          -85.75776,
          38.2544934
        ]
      },
      "id": "node/3516264334"
    },
    {
      "type": "Feature",
      "properties": {
        "@id": "node/3516264336",
        "amenity": "parking",
        "name": "Glassworks Parking Garage",
        "parking": "multi-storey"
      },
      "geometry": {
        "type": "Point",
        "coordinates": [
          -85.7642992,
          38.2556646
        ]
      },
      "id": "node/3516264336"
    },
    {
      "type": "Feature",
      "properties": {
        "@id": "node/3516268374",
        "amenity": "parking",
        "parking": "multi-storey"
      },
      "geometry": {
        "type": "Point",
        "coordinates": [
          -85.7594971,
          38.2552339
        ]
      },
      "id": "node/3516268374"
    },
    {
      "type": "Feature",
      "properties": {
        "@id": "node/3516268422",
        "amenity": "parking",
        "parking": "multi-storey"
      },
      "geometry": {
        "type": "Point",
        "coordinates": [
          -85.7624895,
          38.2554719
        ]
      },
      "id": "node/3516268422"
    },
    {
      "type": "Feature",
      "properties": {
        "@id": "node/3516268481",
        "amenity": "parking",
        "parking": "multi-storey"
      },
      "geometry": {
        "type": "Point",
        "coordinates": [
          -85.7572443,
          38.2556743
        ]
      },
      "id": "node/3516268481"
    },
    {
      "type": "Feature",
      "properties": {
        "@id": "node/3516283493",
        "amenity": "parking",
        "name": "8th & Main Garage",
        "parking": "multi-storey"
      },
      "geometry": {
        "type": "Point",
        "coordinates": [
          -85.7639061,
          38.2566765
        ]
      },
      "id": "node/3516283493"
    },
    {
      "type": "Feature",
      "properties": {
        "@id": "node/3516420043",
        "amenity": "parking",
        "name": "Cowger Garage",
        "parking": "multi-storey"
      },
      "geometry": {
        "type": "Point",
        "coordinates": [
          -85.7562484,
          38.2556288
        ]
      },
      "id": "node/3516420043"
    },
    {
      "type": "Feature",
      "properties": {
        "@id": "node/3561604026",
        "addr:city": "Louisville",
        "addr:housenumber": "630",
        "addr:postcode": "40202",
        "addr:state": "KY",
        "addr:street": "South 4th Street",
        "amenity": "parking",
        "fee": "yes",
        "name": "5th Street Garage",
        "operator": "Parking Authority of River City",
        "operator:type": "private",
        "parking": "multi-storey"
      },
      "geometry": {
        "type": "Point",
        "coordinates": [
          -85.7585116,
          38.2480408
        ]
      },
      "id": "node/3561604026"
    },
    {
      "type": "Feature",
      "properties": {
        "@id": "node/3644922560",
        "amenity": "parking",
        "capacity": "150",
        "name": "Ashland Skytower Parking Garage",
        "parking": "multi-storey"
      },
      "geometry": {
        "type": "Point",
        "coordinates": [
          -82.6486803,
          38.4806511
        ]
      },
      "id": "node/3644922560"
    },
    {
      "type": "Feature",
      "properties": {
        "@id": "node/4005013489",
        "addr:city": "Lexington",
        "addr:housenumber": "120",
        "addr:postcode": "40507",
        "addr:state": "KY",
        "addr:street": "East Main Street",
        "amenity": "parking",
        "charge:conditional": "2 USD @ stay < 1 hour; 4 USD @ stay >= 1 hour AND stay < 2 hours; 6 USD @ stay >= 2 hours AND stay < 4 hours; 8 USD @ stay >= 4 hours AND stay < 8 hours; 10 USD @ stay >= 8 AND stay < 12 hours; 12 USD/day @ stay >= 12 hours",
        "fee": "yes",
        "name": "Library Parking",
        "operator": "Lexington Public Library",
        "parking": "multi-storey",
        "supervised": "yes",
        "website": "https://lexpublib.org/parking",
        "wheelchair": "yes"
      },
      "geometry": {
        "type": "Point",
        "coordinates": [
          -84.4970762,
          38.0452899
        ]
      },
      "id": "node/4005013489"
    },
    {
      "type": "Feature",
      "properties": {
        "@id": "node/4074509553",
        "access": "private",
        "amenity": "parking",
        "layer": "-1",
        "parking": "underground"
      },
      "geometry": {
        "type": "Point",
        "coordinates": [
          -84.4948263,
          38.0424054
        ]
      },
      "id": "node/4074509553"
    },
    {
      "type": "Feature",
      "properties": {
        "@id": "node/4700405515",
        "access": "customers",
        "amenity": "parking",
        "fee": "yes",
        "parking": "multi-storey",
        "supervised": "yes"
      },
      "geometry": {
        "type": "Point",
        "coordinates": [
          -84.4998815,
          38.0481835
        ]
      },
      "id": "node/4700405515"
    },
    {
      "type": "Feature",
      "properties": {
        "@id": "node/6722702160",
        "access": "yes",
        "amenity": "parking",
        "capacity": "560",
        "fee": "yes",
        "max_level": "7",
        "min_level": "2",
        "name": "Court & Walnut Garage",
        "note": "Parking garage is located inside the building.",
        "operator": "3CDC",
        "operator:type": "private_non_profit",
        "operator:wikidata": "Q5120228",
        "parking": "multi-storey",
        "surface": "concrete"
      },
      "geometry": {
        "type": "Point",
        "coordinates": [
          -84.5120625,
          39.1073168
        ]
      },
      "id": "node/6722702160"
    },
    {
      "type": "Feature",
      "properties": {
        "@id": "node/11122375512",
        "amenity": "parking",
        "name": "Rivercenter Parking Entrance",
        "parking": "multi-storey"
      },
      "geometry": {
        "type": "Point",
        "coordinates": [
          -84.5095627,
          39.0900682
        ]
      },
      "id": "node/11122375512"
    },
    {
      "type": "Feature",
      "properties": {
        "@id": "node/11122479699",
        "amenity": "parking",
        "name": "Rivercenter Parking Entrance",
        "parking": "multi-storey"
      },
      "geometry": {
        "type": "Point",
        "coordinates": [
          -84.511732,
          39.0899243
        ]
      },
      "id": "node/11122479699"
    },
    {
      "type": "Feature",
      "properties": {
        "@id": "node/11905239527",
        "amenity": "parking",
        "construction": "yes",
        "fixme": "draw me!",
        "parking": "multi-storey"
      },
      "geometry": {
        "type": "Point",
        "coordinates": [
          -87.1164405,
          37.7737447
        ]
      },
      "id": "node/11905239527"
    },
    {
      "type": "Feature",
      "properties": {
        "@id": "node/13353571435",
        "access": "private",
        "amenity": "parking",
        "layer": "-1",
        "parking": "underground"
      },
      "geometry": {
        "type": "Point",
        "coordinates": [
          -84.438331,
          39.117825
        ]
      },
      "id": "node/13353571435"
    },
    {
      "type": "Feature",
      "properties": {
        "@id": "node/13825608758",
        "amenity": "parking",
        "name": "Central Riverfront Garage",
        "parking": "multi-storey"
      },
      "geometry": {
        "type": "Point",
        "coordinates": [
          -84.5099903,
          39.0978248
        ]
      },
      "id": "node/13825608758"
    }
  ]
}