{
  "type": "FeatureCollection",
  "features": [
    {
      "type": "Feature",
      "geometry": {
        "type": "Point",
        "coordinates": [-86.1457741, 37.1840779]
      },
      "properties": {
        "id": "mammoth_cave_np",
        "name": "Mammoth Cave National Park",
        "category": "national-parks",
        "source": "curated",
        "type": "National Park",
        "start_date": "1941",
        "fee": "Free for surface trails; cave tours $8–$30",
        "duration": "1–3 hours",
        "best_time": "April–October",
        "description": "The world’s longest cave system with easy hiking trails, scenic overlooks, and guided cave tours.",
        "website": "https://www.nps.gov/maca/",
        "image": "https://www.nps.gov/common/uploads/structured_data/95EAA431-F26B-66EB-E9E6B108F47F70B0.jpg?width=990&height=742&mode=crop&quality=78&format=webp"
      }
    },
    {
      "type": "Feature",
      "geometry": {
        "type": "Point",
        "coordinates": [-83.6062152, 36.6186928]
      },
      "properties": {
        "id": "cumberland_gap_nhp",
        "name": "Cumberland Gap National Historical Park",
        "category": "national-parks",
        "source": "curated",
        "type": "National Historical Park",
        "start_date": "1940",
        "fee": "Free",
        "duration": "1–3 hours",
        "best_time": "Spring and fall",
        "description": "A historic mountain pass with short hikes, scenic overlooks, and access to Sand Cave and Gap Cave.",
        "website": "https://www.nps.gov/cuga",
        "image": "https://www.nps.gov/common/uploads/structured_data/3C87BB9F-1DD8-B71B-0B03EA00319ED876.jpg?width=990&height=742&mode=crop&quality=78&format=webp"
      }
    },
    {
      "type": "Feature",
      "geometry": {
        "type": "Point",
        "coordinates": [-87.3044479, 36.5565965]
      },
      "properties": {
        "id": "dunbar_cave_sp",
        "name": "Dunbar Cave State Park",
        "category": "nature-reserves",
        "source": "curated",
        "type": "State Park",
        "start_date": "1973",
        "fee": "Free for hiking; cave tours $10–$18",
        "duration": "1–2 hours",
        "best_time": "May–September",
        "description": "A small cave with guided tours and short forest trails, located near Clarksville.",
        "website": "https://tnstateparks.com/parks/dunbar-cave",
        "image": "https://upload.wikimedia.org/wikipedia/commons/thumb/9/99/Dunbar_Cave.jpg/250px-Dunbar_Cave.jpg"
      }
    },
    {
      "type": "Feature",
      "geometry": {
        "type": "Point",
        "coordinates": [-88.1281175, 37.4787376]
      },
      "properties": {
        "id": "cave_in_rock_sp",
        "name": "Cave-In-Rock State Park",
        "category": "nature-reserves",
        "source": "curated",
        "type": "State Park",
        "start_date": "1929",
        "fee": "Free",
        "duration": "1–2 hours",
        "best_time": "Spring–Fall",
        "description": "A dramatic riverside cave carved into limestone cliffs, with short trails and scenic views over the Ohio River.",
        "website": "http://dnr.state.il.us/lands/landmgt/parks/r5/caverock.htm",
        "image": ""
      }
    },
    {
      "type": "Feature",
      "geometry": {
        "type": "Point",
        "coordinates": [-82.7389729, 36.7008427]
      },
      "properties": {
        "id": "natural_tunnel_sp",
        "name": "Natural Tunnel State Park",
        "category": "nature-reserves",
        "source": "curated",
        "type": "State Park",
        "start_date": "1967",
        "fee": "Free",
        "duration": "1–3 hours",
        "best_time": "Spring–Fall",
        "description": "A massive naturally formed tunnel through limestone, with short trails and a scenic chairlift to the tunnel floor.",
        "website": "https://www.dcr.virginia.gov/state-parks/natural-tunnel",
        "image": ""
      }
    },
    {
      "type": "Feature",
      "geometry": {
        "type": "Point",
        "coordinates": [-88.0496442, 36.7456492]
      },
      "properties": {
        "id": "lbl_nra",
        "name": "Land Between the Lakes National Recreation Area",
        "category": "nature-reserves",
        "source": "curated",
        "type": "National Recreation Area",
        "start_date": "1963",
        "fee": "Free",
        "duration": "1–3 hours",
        "best_time": "Spring–Fall",
        "description": "A large recreation area between two lakes with scenic overlooks, short trails, and family-friendly nature stops.",
        "website": "https://landbetweenthelakes.us/",
        "image": "https://commons.wikimedia.org/wiki/File:20151208-FS-LandBetweenTheLakes-019_(22988881393).jpg"
      }
    },
    {
      "type": "Feature",
      "geometry": {
        "type": "Point",
        "coordinates": [-82.630793, 36.9185632]
      },
      "properties": {
        "id": "flag_rock_ra",
        "name": "Flag Rock Recreation Area",
        "category": "nature-reserves",
        "source": "curated",
        "type": "Recreation Area",
        "start_date": "1970",
        "fee": "Free",
        "duration": "1–2 hours",
        "best_time": "Spring–Fall",
        "description": "A scenic overlook above Norton, VA with short trails and dramatic rock formations.",
        "website": "http://www.nortonva.gov/439/Flag-Rock-Recreation-Area",
        "image": ""
      }
    },
    {
      "type": "Feature",
      "geometry": { "type": "Point", "coordinates": [-79.9004209, 38.529414] },
      "properties": {
        "id": "canaan_mountain_nf",
        "name": "Canaan Mountain – Monongahela National Forest",
        "category": "nature-reserves",
        "source": "curated",
        "type": "National Forest Scenic Area",
        "fee": "Free",
        "duration": "1–3 hours",
        "best_time": "Spring–Fall",
        "description": "A high‑elevation natural area within Monongahela National Forest, featuring rugged terrain, spruce forests, and scenic overlooks near Canaan Valley.",
        "website": "https://www.fs.usda.gov/mnf/"
      }
    },
        {
      "type": "Feature",
      "geometry": { "type": "Point", "coordinates": [-85.1813195, 35.370686] },
      "properties": {
        "id": "possum_creek_rma",
        "name": "Possum Creek Resource Management Area",
        "category": "nature-reserves",
        "source": "curated",
        "type": "Resource Management Area",
        "fee": "Free",
        "duration": "1–2 hours",
        "best_time": "Spring–Fall",
        "description": "A forested natural area near Soddy-Daisy with quiet trails and protected wildlife habitat.",
        "website": ""
      }
    },
    {
      "type": "Feature",
      "geometry": { "type": "Point", "coordinates": [-86.4615826, 36.3145814] },
      "properties": {
        "id": "boxwell_reservation",
        "name": "Boxwell Reservation",
        "category": "nature-reserves",
        "source": "curated",
        "type": "Recreation Area",
        "fee": "Free",
        "duration": "1–2 hours",
        "best_time": "Spring–Fall",
        "description": "A large wooded recreation area on Old Hickory Lake, used for hiking, camping, and outdoor programs.",
        "website": ""
      }
    },
    {
      "type": "Feature",
      "geometry": { "type": "Point", "coordinates": [-84.8565426, 36.5241317] },
      "properties": {
        "id": "pogue_creek_canyon_sna",
        "name": "Pogue Creek Canyon State Natural Area",
        "category": "nature-reserves",
        "source": "curated",
        "type": "State Natural Area",
        "fee": "Free",
        "duration": "1–3 hours",
        "best_time": "Spring–Fall",
        "description": "A dramatic canyon landscape with sandstone cliffs, overlooks, and protected forest habitat.",
        "website": "https://www.tn.gov/environment/article/na-na-pogue-creek-canyon"
      }
    },
    {
  "type": "Feature",
  "geometry": { "type": "Point", "coordinates": [-84.7398, 37.8169] },
  "properties": {
    "id": "shaker_village_np",
    "name": "Shaker Village Nature Preserve",
    "category": "nature-reserves",
    "source": "curated",
    "type": "Nature Preserve",
    "fee": "Free",
    "duration": "1–3 hours",
    "best_time": "Spring–Fall",
    "description": "A massive restored prairie and savanna ecosystem with quiet trails and wildlife viewing.",
    "website": "https://shakervillageky.org/"
  }
},
{
  "type": "Feature",
  "geometry": { "type": "Point", "coordinates": [-84.6364, 37.7778] },
  "properties": {
    "id": "tom_dorman_snp",
    "name": "Tom Dorman State Nature Preserve",
    "category": "nature-reserves",
    "source": "curated",
    "type": "State Nature Preserve",
    "fee": "Free",
    "duration": "1–2 hours",
    "best_time": "Spring",
    "description": "A large palisades preserve with cliffs, wildflowers, and scenic river overlooks.",
    "website": "https://naturepreserves.ky.gov"
  }
},
{
  "type": "Feature",
  "geometry": { "type": "Point", "coordinates": [-85.2573, 35.8609] },
  "properties": {
    "id": "virgin_falls_sna",
    "name": "Virgin Falls State Natural Area",
    "category": "nature-reserves",
    "source": "curated",
    "type": "State Natural Area",
    "fee": "Free",
    "duration": "3–6 hours",
    "best_time": "Spring",
    "description": "A dramatic natural area featuring a waterfall that disappears into a cave.",
    "website": "https://www.tn.gov/environment"
  }
},
{
  "type": "Feature",
  "geometry": { "type": "Point", "coordinates": [-85.0302, 35.2017] },
  "properties": {
    "id": "walls_of_jericho_sna",
    "name": "Walls of Jericho State Natural Area",
    "category": "nature-reserves",
    "source": "curated",
    "type": "State Natural Area",
    "fee": "Free",
    "duration": "4–6 hours",
    "best_time": "Morning",
    "description": "A rugged gorge with waterfalls, cliffs, and a legendary amphitheater-like rock formation.",
    "website": "https://www.tn.gov/environment"
  }
},
{
  "type": "Feature",
  "geometry": { "type": "Point", "coordinates": [-85.3021, 35.7434] },
  "properties": {
    "id": "savage_gulf_sna",
    "name": "Savage Gulf State Natural Area",
    "category": "nature-reserves",
    "source": "curated",
    "type": "State Natural Area",
    "fee": "Free",
    "duration": "2–6 hours",
    "best_time": "Spring–Fall",
    "description": "A massive gorge system with waterfalls, overlooks, and deep wilderness.",
    "website": "https://www.tn.gov/environment"
  }
},
{
  "type": "Feature",
  "geometry": { "type": "Point", "coordinates": [-86.9936, 35.2774] },
  "properties": {
    "id": "stillhouse_hollow_sna",
    "name": "Stillhouse Hollow Falls State Natural Area",
    "category": "nature-reserves",
    "source": "curated",
    "type": "State Natural Area",
    "fee": "Free",
    "duration": "45–90 minutes",
    "best_time": "Spring",
    "description": "A protected forest gorge with a beautiful waterfall and short scenic trail.",
    "website": "https://www.tn.gov/environment"
  }
},
{
  "type": "Feature",
  "geometry": { "type": "Point", "coordinates": [-84.9597, 36.3784] },
  "properties": {
    "id": "colditz_cove_sna",
    "name": "Colditz Cove State Natural Area",
    "category": "nature-reserves",
    "source": "curated",
    "type": "State Natural Area",
    "fee": "Free",
    "duration": "1–2 hours",
    "best_time": "Spring–Fall",
    "description": "A protected gorge featuring Northrup Falls and lush forest trails.",
    "website": "https://www.tn.gov/environment"
  }
},
{
  "type": "Feature",
  "geometry": { "type": "Point", "coordinates": [-79.4867, 39.4212] },
  "properties": {
    "id": "cranesville_swamp",
    "name": "Cranesville Swamp Preserve",
    "category": "nature-reserves",
    "source": "curated",
    "type": "Nature Conservancy Preserve",
    "fee": "Free",
    "duration": "45–90 minutes",
    "best_time": "Spring",
    "description": "A rare boreal bog ecosystem with boardwalks and unique plant life.",
    "website": "https://www.nature.org"
  }
},
{
  "type": "Feature",
  "geometry": { "type": "Point", "coordinates": [-81.6764, 38.2667] },
  "properties": {
    "id": "kanawha_sf",
    "name": "Kanawha State Forest (Nature Preserve Area)",
    "category": "nature-reserves",
    "source": "curated",
    "type": "State Forest Preserve",
    "fee": "Free",
    "duration": "1–3 hours",
    "best_time": "Morning",
    "description": "A large forest with protected natural areas, trails, and diverse wildlife.",
    "website": "https://wvstateparks.com"
  }
},
{
  "type": "Feature",
  "geometry": { "type": "Point", "coordinates": [-80.5164, 38.0039] },
  "properties": {
    "id": "greenbrier_corridor",
    "name": "Greenbrier River Trail Nature Corridor",
    "category": "nature-reserves",
    "source": "curated",
    "type": "Protected River Corridor",
    "fee": "Free",
    "duration": "1–3 hours",
    "best_time": "Summer",
    "description": "A long protected river corridor with quiet forests, wetlands, and scenic river views.",
    "website": "https://wvstateparks.com"
  }
}
  ]
}
