{
  "type": "FeatureCollection",
  "generator": "overpass-turbo",
  "copyright": "The data included in this document is from www.openstreetmap.org. The data is made available under ODbL.",
  "timestamp": "2026-06-27T23:35:38Z",
  "features": [
    {
      "type": "Feature",
      "properties": {
        "@id": "node/1440957148",
        "amenity": "parking",
        "layer": "-1",
        "name": "Public Square Parking (underground)",
        "parking": "underground"
      },
      "geometry": {
        "type": "Point",
        "coordinates": [
          -86.7775249,
          36.1673151
        ]
      },
      "id": "node/1440957148"
    },
    {
      "type": "Feature",
      "properties": {
        "@id": "node/6671671505",
        "amenity": "parking",
        "layer": "-1",
        "parking": "underground"
      },
      "geometry": {
        "type": "Point",
        "coordinates": [
          -86.817355,
          36.1093247
        ]
      },
      "id": "node/6671671505"
    },
    {
      "type": "Feature",
      "properties": {
        "@id": "node/7321026415",
        "access": "private",
        "amenity": "parking",
        "fee": "no",
        "parking": "multi-storey",
        "surface": "concrete"
      },
      "geometry": {
        "type": "Point",
        "coordinates": [
          -86.7638013,
          36.1743354
        ]
      },
      "id": "node/7321026415"
    }
  ]
}