{
  "type": "FeatureCollection",
  "generator": "overpass-turbo",
  "copyright": "The data included in this document is from www.openstreetmap.org. The data is made available under ODbL.",
  "timestamp": "2026-06-27T23:49:44Z",
  "features": [
    {
      "type": "Feature",
      "properties": {
        "@id": "way/96779474",
        "alt_name": "Devil's Marbleyard",
        "climbing:boulder": "yes",
        "climbing:deepwater": "no",
        "climbing:ice": "no",
        "climbing:sport": "no",
        "climbing:toprope": "yes",
        "climbing:trad": "yes",
        "ele": "649",
        "gnis:feature_id": "1482991",
        "name": "Devils Marbleyard",
        "natural": "scree",
        "sport": "climbing",
        "tourism": "attraction",
        "@geometry": "center"
      },
      "geometry": {
        "type": "Point",
        "coordinates": [
          -79.4718447,
          37.5810671
        ]
      },
      "id": "way/96779474"
    },
    {
      "type": "Feature",
      "properties": {
        "@id": "way/240435800",
        "addr:city": "Charlottesville",
        "addr:housenumber": "2200",
        "addr:postcode": "22903",
        "addr:state": "VA",
        "addr:street": "Old Ivy Road",
        "building": "office",
        "leisure": "sports_centre",
        "name": "Rock Revolution",
        "sport": "climbing",
        "@geometry": "center"
      },
      "geometry": {
        "type": "Point",
        "coordinates": [
          -78.5157598,
          38.0454599
        ]
      },
      "id": "way/240435800"
    },
    {
      "type": "Feature",
      "properties": {
        "@id": "way/396518862",
        "addr:city": "Charlottesville",
        "addr:housenumber": "1729",
        "addr:postcode": "22903",
        "addr:state": "VA",
        "addr:street": "Allied Street",
        "building": "commercial",
        "leisure": "sports_centre",
        "name": "Rocky Top Climbing",
        "sport": "climbing",
        "website": "https://www.rockytopclimbing.com",
        "@geometry": "center"
      },
      "geometry": {
        "type": "Point",
        "coordinates": [
          -78.4784461,
          38.0412248
        ]
      },
      "id": "way/396518862"
    },
    {
      "type": "Feature",
      "properties": {
        "@id": "way/457599132",
        "building": "yes",
        "name": "Climbing Tower",
        "sport": "climbing",
        "@geometry": "center"
      },
      "geometry": {
        "type": "Point",
        "coordinates": [
          -78.553223,
          38.2688029
        ]
      },
      "id": "way/457599132"
    },
    {
      "type": "Feature",
      "properties": {
        "@id": "way/533654915",
        "addr:city": "Pittsburgh",
        "addr:housenumber": "7443",
        "addr:postcode": "15208",
        "addr:state": "PA",
        "addr:street": "Thomas Boulevard",
        "branch": "Point Breeze",
        "building": "warehouse",
        "check_date": "2022-09-27",
        "fee": "yes",
        "leisure": "sports_centre",
        "name": "ASCEND",
        "opening_date": "2022-10-15",
        "opening_hours": "Mo-Fr 06:00-23:00; Sa-Su 08:00-20:00",
        "phone": "+1 412 745 7443",
        "sport": "climbing",
        "@geometry": "center"
      },
      "geometry": {
        "type": "Point",
        "coordinates": [
          -79.8958672,
          40.4507129
        ]
      },
      "id": "way/533654915"
    },
    {
      "type": "Feature",
      "properties": {
        "@id": "way/614961787",
        "leisure": "sports_centre",
        "name": "COPE Area",
        "sport": "climbing",
        "@geometry": "center"
      },
      "geometry": {
        "type": "Point",
        "coordinates": [
          -77.8655091,
          37.6774691
        ]
      },
      "id": "way/614961787"
    },
    {
      "type": "Feature",
      "properties": {
        "@id": "way/799165133",
        "climbing": "crag",
        "name": "The Coliseum",
        "natural": "cliff",
        "sport": "climbing",
        "@geometry": "center"
      },
      "geometry": {
        "type": "Point",
        "coordinates": [
          -80.8458453,
          38.2415386
        ]
      },
      "id": "way/799165133"
    },
    {
      "type": "Feature",
      "properties": {
        "@id": "way/799165134",
        "climbing": "crag",
        "name": "Gun Wall",
        "natural": "cliff",
        "sport": "climbing",
        "@geometry": "center"
      },
      "geometry": {
        "type": "Point",
        "coordinates": [
          -80.8450325,
          38.2420199
        ]
      },
      "id": "way/799165134"
    },
    {
      "type": "Feature",
      "properties": {
        "@id": "way/799165135",
        "climbing": "crag",
        "name": "D.C. Memorial Boulder",
        "natural": "cliff",
        "sport": "climbing",
        "@geometry": "center"
      },
      "geometry": {
        "type": "Point",
        "coordinates": [
          -80.8443285,
          38.2417155
        ]
      },
      "id": "way/799165135"
    },
    {
      "type": "Feature",
      "properties": {
        "@id": "way/799165136",
        "climbing": "crag",
        "name": "Long Wall",
        "natural": "cliff",
        "sport": "climbing",
        "@geometry": "center"
      },
      "geometry": {
        "type": "Point",
        "coordinates": [
          -80.8437116,
          38.2414037
        ]
      },
      "id": "way/799165136"
    },
    {
      "type": "Feature",
      "properties": {
        "@id": "way/800130577",
        "climbing": "crag",
        "name": "Satisfaction Wall",
        "natural": "cliff",
        "sport": "climbing",
        "@geometry": "center"
      },
      "geometry": {
        "type": "Point",
        "coordinates": [
          -80.8422766,
          38.2416902
        ]
      },
      "id": "way/800130577"
    },
    {
      "type": "Feature",
      "properties": {
        "@id": "way/800130579",
        "climbing": "crag",
        "name": "Narcissus Cave",
        "natural": "cliff",
        "sport": "climbing",
        "@geometry": "center"
      },
      "geometry": {
        "type": "Point",
        "coordinates": [
          -80.840568,
          38.2420294
        ]
      },
      "id": "way/800130579"
    },
    {
      "type": "Feature",
      "properties": {
        "@id": "way/800130582",
        "climbing": "crag",
        "name": "Orange Oswald Wall",
        "natural": "cliff",
        "sport": "climbing",
        "@geometry": "center"
      },
      "geometry": {
        "type": "Point",
        "coordinates": [
          -80.8394415,
          38.2422506
        ]
      },
      "id": "way/800130582"
    },
    {
      "type": "Feature",
      "properties": {
        "@id": "way/800130583",
        "climbing": "crag",
        "name": "Circus Wall",
        "natural": "cliff",
        "sport": "climbing",
        "@geometry": "center"
      },
      "geometry": {
        "type": "Point",
        "coordinates": [
          -80.8370194,
          38.2428467
        ]
      },
      "id": "way/800130583"
    },
    {
      "type": "Feature",
      "properties": {
        "@id": "way/834077572",
        "building": "yes",
        "height": "15",
        "leisure": "sports_centre",
        "name": "Boulder Cove",
        "sport": "climbing",
        "@geometry": "center"
      },
      "geometry": {
        "type": "Point",
        "coordinates": [
          -81.1331361,
          37.9139208
        ]
      },
      "id": "way/834077572"
    },
    {
      "type": "Feature",
      "properties": {
        "@id": "way/898016439",
        "leisure": "sports_centre",
        "name": "The Rocks",
        "sport": "climbing",
        "@geometry": "center"
      },
      "geometry": {
        "type": "Point",
        "coordinates": [
          -81.1201533,
          37.9047385
        ]
      },
      "id": "way/898016439"
    },
    {
      "type": "Feature",
      "properties": {
        "@id": "way/1075911778",
        "building": "yes",
        "fee": "yes",
        "leisure": "sports_centre",
        "name": "Energy Rock Climbing Gym",
        "sport": "climbing",
        "@geometry": "center"
      },
      "geometry": {
        "type": "Point",
        "coordinates": [
          -81.6173416,
          38.3848326
        ]
      },
      "id": "way/1075911778"
    },
    {
      "type": "Feature",
      "properties": {
        "@id": "way/1277859878",
        "building": "yes",
        "leisure": "sports_centre",
        "sport": "climbing",
        "@geometry": "center"
      },
      "geometry": {
        "type": "Point",
        "coordinates": [
          -79.9248829,
          39.6203561
        ]
      },
      "id": "way/1277859878"
    },
    {
      "type": "Feature",
      "properties": {
        "@id": "way/1306619956",
        "climbing": "crag",
        "name": "Hay's Wall",
        "natural": "cliff",
        "sport": "climbing",
        "@geometry": "center"
      },
      "geometry": {
        "type": "Point",
        "coordinates": [
          -79.9443306,
          40.3908618
        ]
      },
      "id": "way/1306619956"
    },
    {
      "type": "Feature",
      "properties": {
        "@id": "node/6558906165",
        "leisure": "sports_centre",
        "sport": "climbing"
      },
      "geometry": {
        "type": "Point",
        "coordinates": [
          -82.3035293,
          38.3974455
        ]
      },
      "id": "node/6558906165"
    },
    {
      "type": "Feature",
      "properties": {
        "@id": "node/7925882619",
        "access": "permit",
        "access:note": "Permit Required: c3pa.org/donation_rocks",
        "alt_name": "Donation Rock",
        "name": "Donation Rocks",
        "natural": "cliff",
        "sport": "climbing"
      },
      "geometry": {
        "type": "Point",
        "coordinates": [
          -77.9434137,
          40.572527
        ]
      },
      "id": "node/7925882619"
    },
    {
      "type": "Feature",
      "properties": {
        "@id": "node/7925909664",
        "alt_name": "Hunter's Rocks;Hunters Rock;Hunter Rocks;Hunters Rocks",
        "fixme": "move node to exact location and ideally add gps coordinates to the \"note=\" field",
        "name": "Hunter Rock",
        "natural": "cliff",
        "sport": "climbing"
      },
      "geometry": {
        "type": "Point",
        "coordinates": [
          -77.8643754,
          40.5487183
        ]
      },
      "id": "node/7925909664"
    },
    {
      "type": "Feature",
      "properties": {
        "@id": "node/7925909665",
        "fixme": "move node to exact location and ideally add gps coordinates to the \"note=\" field",
        "natural": "cliff",
        "sport": "climbing"
      },
      "geometry": {
        "type": "Point",
        "coordinates": [
          -77.8625854,
          40.5532504
        ]
      },
      "id": "node/7925909665"
    },
    {
      "type": "Feature",
      "properties": {
        "@id": "node/7925909666",
        "fixme": "move node to exact location and ideally add gps coordinates to the \"note=\" field",
        "natural": "cliff",
        "sport": "climbing"
      },
      "geometry": {
        "type": "Point",
        "coordinates": [
          -77.8598856,
          40.5562272
        ]
      },
      "id": "node/7925909666"
    },
    {
      "type": "Feature",
      "properties": {
        "@id": "node/7925909667",
        "fixme": "move node to exact location and ideally add gps coordinates to the \"note=\" field",
        "natural": "cliff",
        "sport": "climbing"
      },
      "geometry": {
        "type": "Point",
        "coordinates": [
          -77.856748,
          40.559803
        ]
      },
      "id": "node/7925909667"
    },
    {
      "type": "Feature",
      "properties": {
        "@id": "node/7925909668",
        "fixme": "move node to exact location and ideally add gps coordinates to the \"note=\" field",
        "natural": "cliff",
        "sport": "climbing"
      },
      "geometry": {
        "type": "Point",
        "coordinates": [
          -77.8520415,
          40.561598
        ]
      },
      "id": "node/7925909668"
    },
    {
      "type": "Feature",
      "properties": {
        "@id": "node/7925909669",
        "fixme": "move node to exact location and ideally add gps coordinates to the \"note=\" field",
        "natural": "cliff",
        "sport": "climbing"
      },
      "geometry": {
        "type": "Point",
        "coordinates": [
          -77.8492629,
          40.5667673
        ]
      },
      "id": "node/7925909669"
    },
    {
      "type": "Feature",
      "properties": {
        "@id": "node/7925909670",
        "fixme": "move node to exact location and ideally add gps coordinates to the \"note=\" field",
        "natural": "cliff",
        "sport": "climbing"
      },
      "geometry": {
        "type": "Point",
        "coordinates": [
          -77.84828,
          40.5688062
        ]
      },
      "id": "node/7925909670"
    },
    {
      "type": "Feature",
      "properties": {
        "@id": "node/7925909671",
        "fixme": "move node to exact location and ideally add gps coordinates to the \"note=\" field",
        "natural": "cliff",
        "sport": "climbing"
      },
      "geometry": {
        "type": "Point",
        "coordinates": [
          -77.8453125,
          40.5730819
        ]
      },
      "id": "node/7925909671"
    },
    {
      "type": "Feature",
      "properties": {
        "@id": "node/7925909672",
        "fixme": "move node to exact location and ideally add gps coordinates to the \"note=\" field",
        "natural": "cliff",
        "sport": "climbing"
      },
      "geometry": {
        "type": "Point",
        "coordinates": [
          -77.8662249,
          40.5412207
        ]
      },
      "id": "node/7925909672"
    },
    {
      "type": "Feature",
      "properties": {
        "@id": "node/7925909673",
        "fixme": "move node to exact location and ideally add gps coordinates to the \"note=\" field",
        "natural": "cliff",
        "sport": "climbing"
      },
      "geometry": {
        "type": "Point",
        "coordinates": [
          -77.8720191,
          40.5325699
        ]
      },
      "id": "node/7925909673"
    },
    {
      "type": "Feature",
      "properties": {
        "@id": "node/7925909674",
        "fixme": "move node to exact location and ideally add gps coordinates to the \"note=\" field",
        "natural": "cliff",
        "sport": "climbing"
      },
      "geometry": {
        "type": "Point",
        "coordinates": [
          -77.8748009,
          40.5241554
        ]
      },
      "id": "node/7925909674"
    },
    {
      "type": "Feature",
      "properties": {
        "@id": "node/7925909675",
        "fixme": "move node to exact location and ideally add gps coordinates to the \"note=\" field",
        "natural": "cliff",
        "sport": "climbing"
      },
      "geometry": {
        "type": "Point",
        "coordinates": [
          -77.8767846,
          40.5211082
        ]
      },
      "id": "node/7925909675"
    },
    {
      "type": "Feature",
      "properties": {
        "@id": "node/7925909676",
        "fixme": "move node to exact location and ideally add gps coordinates to the \"note=\" field",
        "natural": "cliff",
        "sport": "climbing"
      },
      "geometry": {
        "type": "Point",
        "coordinates": [
          -77.8777726,
          40.5166922
        ]
      },
      "id": "node/7925909676"
    },
    {
      "type": "Feature",
      "properties": {
        "@id": "node/7925909677",
        "fixme": "move node to exact location and ideally add gps coordinates to the \"note=\" field",
        "natural": "cliff",
        "sport": "climbing"
      },
      "geometry": {
        "type": "Point",
        "coordinates": [
          -77.8793058,
          40.5139467
        ]
      },
      "id": "node/7925909677"
    },
    {
      "type": "Feature",
      "properties": {
        "@id": "node/7925909678",
        "fixme": "move node to exact location and ideally add gps coordinates to the \"note=\" field",
        "natural": "cliff",
        "sport": "climbing"
      },
      "geometry": {
        "type": "Point",
        "coordinates": [
          -77.8807878,
          40.5108902
        ]
      },
      "id": "node/7925909678"
    },
    {
      "type": "Feature",
      "properties": {
        "@id": "node/7925909679",
        "fixme": "move node to exact location and ideally add gps coordinates to the \"note=\" field",
        "natural": "cliff",
        "sport": "climbing"
      },
      "geometry": {
        "type": "Point",
        "coordinates": [
          -77.8816907,
          40.5056965
        ]
      },
      "id": "node/7925909679"
    },
    {
      "type": "Feature",
      "properties": {
        "@id": "node/8032544291",
        "climbing:sport": "yes",
        "natural": "cliff",
        "note": "GPS Coordinates: 40.522067, -78.022637",
        "sport": "climbing"
      },
      "geometry": {
        "type": "Point",
        "coordinates": [
          -78.0226963,
          40.5220613
        ]
      },
      "id": "node/8032544291"
    },
    {
      "type": "Feature",
      "properties": {
        "@id": "node/8032544292",
        "climbing:sport": "yes",
        "natural": "cliff",
        "note": "GPS Coordinates: 40.5237528,-78.0226667",
        "sport": "climbing"
      },
      "geometry": {
        "type": "Point",
        "coordinates": [
          -78.0228655,
          40.5241187
        ]
      },
      "id": "node/8032544292"
    },
    {
      "type": "Feature",
      "properties": {
        "@id": "node/8032544293",
        "climbing:sport": "yes",
        "climbing:toprope": "yes",
        "natural": "cliff",
        "note": "GPS Coordinates: 40.525756, -78.022453",
        "sport": "climbing"
      },
      "geometry": {
        "type": "Point",
        "coordinates": [
          -78.0225251,
          40.5258816
        ]
      },
      "id": "node/8032544293"
    },
    {
      "type": "Feature",
      "properties": {
        "@id": "node/9072339853",
        "leisure": "sports_centre",
        "name": "The Rope Adventure Park at Luray Caverns",
        "sport": "climbing"
      },
      "geometry": {
        "type": "Point",
        "coordinates": [
          -78.4841578,
          38.6652706
        ]
      },
      "id": "node/9072339853"
    },
    {
      "type": "Feature",
      "properties": {
        "@id": "node/10277405860",
        "climbing": "area",
        "name": "Party Buttress Area",
        "natural": "cliff",
        "sport": "climbing"
      },
      "geometry": {
        "type": "Point",
        "coordinates": [
          -81.0625082,
          38.0556792
        ]
      },
      "id": "node/10277405860"
    },
    {
      "type": "Feature",
      "properties": {
        "@id": "node/10277405890",
        "climbing": "area",
        "name": "Fern Point Area",
        "natural": "cliff",
        "sport": "climbing"
      },
      "geometry": {
        "type": "Point",
        "coordinates": [
          -81.0631722,
          38.0560363
        ]
      },
      "id": "node/10277405890"
    },
    {
      "type": "Feature",
      "properties": {
        "@id": "node/10277405931",
        "climbing": "area",
        "name": "Honeymooner Area",
        "natural": "cliff",
        "sport": "climbing"
      },
      "geometry": {
        "type": "Point",
        "coordinates": [
          -81.0582128,
          38.0543
        ]
      },
      "id": "node/10277405931"
    },
    {
      "type": "Feature",
      "properties": {
        "@id": "node/10603021936",
        "access": "private",
        "leisure": "sports_centre",
        "name": "Trees Climbing Wall",
        "opening_hours": "Mo-Th 16:00-21:00; Fr 14:00-19:00; Sa 12:00-17:00; Su off",
        "operator": "University of Pittsburgh",
        "private": "students",
        "sport": "climbing"
      },
      "geometry": {
        "type": "Point",
        "coordinates": [
          -79.9652408,
          40.4446257
        ]
      },
      "id": "node/10603021936"
    },
    {
      "type": "Feature",
      "properties": {
        "@id": "node/11522828857",
        "leisure": "sports_centre",
        "name": "Talking Headwall",
        "sport": "climbing"
      },
      "geometry": {
        "type": "Point",
        "coordinates": [
          -78.3030505,
          38.9463671
        ]
      },
      "id": "node/11522828857"
    },
    {
      "type": "Feature",
      "properties": {
        "@id": "node/11608828727",
        "leisure": "sports_centre",
        "name": "State Climb",
        "sport": "climbing"
      },
      "geometry": {
        "type": "Point",
        "coordinates": [
          -77.9960213,
          38.4715524
        ]
      },
      "id": "node/11608828727"
    },
    {
      "type": "Feature",
      "properties": {
        "@id": "node/12851748920",
        "check_date": "2025-05-20",
        "leisure": "sports_centre",
        "name": "Outside-In",
        "sport": "climbing"
      },
      "geometry": {
        "type": "Point",
        "coordinates": [
          -81.2075517,
          37.7906439
        ]
      },
      "id": "node/12851748920"
    },
    {
      "type": "Feature",
      "properties": {
        "@id": "node/13618115545",
        "leisure": "sports_centre",
        "name": "Tango Tower",
        "sport": "climbing"
      },
      "geometry": {
        "type": "Point",
        "coordinates": [
          -80.4709467,
          39.1017159
        ]
      },
      "id": "node/13618115545"
    },
    {
      "type": "Feature",
      "properties": {
        "@id": "node/13899760024",
        "leisure": "sports_centre",
        "name": "Iron City Ninja",
        "sport": "climbing"
      },
      "geometry": {
        "type": "Point",
        "coordinates": [
          -79.9709631,
          40.3479546
        ]
      },
      "id": "node/13899760024"
    }
  ]
}