{
  "type": "FeatureCollection",
  "generator": "overpass-turbo",
  "copyright": "The data included in this document is from www.openstreetmap.org. The data is made available under ODbL.",
  "timestamp": "2026-06-28T01:00:55Z",
  "features": [
    {
      "type": "Feature",
      "properties": {
        "@id": "way/557056991",
        "name": "Crow Hollow",
        "natural": "valley",
        "@geometry": "center"
      },
      "geometry": {
        "type": "Point",
        "coordinates": [
          -82.5550811,
          37.3888869
        ]
      },
      "id": "way/557056991"
    },
    {
      "type": "Feature",
      "properties": {
        "@id": "way/616841064",
        "name": "Varner Hollow",
        "natural": "valley",
        "@geometry": "center"
      },
      "geometry": {
        "type": "Point",
        "coordinates": [
          -79.3418281,
          38.4501999
        ]
      },
      "id": "way/616841064"
    },
    {
      "type": "Feature",
      "properties": {
        "@id": "way/617409419",
        "name": "Sweedlin Valley",
        "natural": "valley",
        "@geometry": "center"
      },
      "geometry": {
        "type": "Point",
        "coordinates": [
          -79.1246295,
          38.7608204
        ]
      },
      "id": "way/617409419"
    },
    {
      "type": "Feature",
      "properties": {
        "@id": "way/626371642",
        "name": "Greenawalt Gap",
        "natural": "valley",
        "@geometry": "center"
      },
      "geometry": {
        "type": "Point",
        "coordinates": [
          -79.2096448,
          38.7739682
        ]
      },
      "id": "way/626371642"
    },
    {
      "type": "Feature",
      "properties": {
        "@id": "way/626371643",
        "name": "Deep Hollow",
        "natural": "valley",
        "@geometry": "center"
      },
      "geometry": {
        "type": "Point",
        "coordinates": [
          -79.1908693,
          38.7596552
        ]
      },
      "id": "way/626371643"
    },
    {
      "type": "Feature",
      "properties": {
        "@id": "way/626372512",
        "name": "Troublesome Valley",
        "natural": "valley",
        "wikidata": "Q20020356",
        "@geometry": "center"
      },
      "geometry": {
        "type": "Point",
        "coordinates": [
          -79.2434971,
          38.6873438
        ]
      },
      "id": "way/626372512"
    },
    {
      "type": "Feature",
      "properties": {
        "@id": "way/626372513",
        "name": "Dean Gap",
        "natural": "valley",
        "@geometry": "center"
      },
      "geometry": {
        "type": "Point",
        "coordinates": [
          -79.2152239,
          38.6876369
        ]
      },
      "id": "way/626372513"
    },
    {
      "type": "Feature",
      "properties": {
        "@id": "way/857943436",
        "natural": "valley",
        "valley": "ravine",
        "@geometry": "center"
      },
      "geometry": {
        "type": "Point",
        "coordinates": [
          -76.5265641,
          37.2349423
        ]
      },
      "id": "way/857943436"
    },
    {
      "type": "Feature",
      "properties": {
        "@id": "way/857943437",
        "natural": "valley",
        "valley": "ravine",
        "@geometry": "center"
      },
      "geometry": {
        "type": "Point",
        "coordinates": [
          -76.5264787,
          37.2340882
        ]
      },
      "id": "way/857943437"
    },
    {
      "type": "Feature",
      "properties": {
        "@id": "way/857943438",
        "natural": "valley",
        "valley": "ravine",
        "@geometry": "center"
      },
      "geometry": {
        "type": "Point",
        "coordinates": [
          -76.5277296,
          37.2317779
        ]
      },
      "id": "way/857943438"
    },
    {
      "type": "Feature",
      "properties": {
        "@id": "way/857943439",
        "natural": "valley",
        "valley": "ravine",
        "@geometry": "center"
      },
      "geometry": {
        "type": "Point",
        "coordinates": [
          -76.5293482,
          37.2321131
        ]
      },
      "id": "way/857943439"
    },
    {
      "type": "Feature",
      "properties": {
        "@id": "way/857943447",
        "natural": "valley",
        "valley": "ravine",
        "waterway": "stream",
        "@geometry": "center"
      },
      "geometry": {
        "type": "Point",
        "coordinates": [
          -76.5258063,
          37.2349131
        ]
      },
      "id": "way/857943447"
    },
    {
      "type": "Feature",
      "properties": {
        "@id": "way/879811284",
        "gnis:feature_id": "1469301",
        "name": "Lefthand Hollow",
        "natural": "valley",
        "waterway": "stream",
        "wikidata": "Q49931799",
        "@geometry": "center"
      },
      "geometry": {
        "type": "Point",
        "coordinates": [
          -78.7836783,
          38.2023403
        ]
      },
      "id": "way/879811284"
    },
    {
      "type": "Feature",
      "properties": {
        "@id": "way/879811285",
        "gnis:feature_id": "1469301",
        "intermittent": "yes",
        "name": "Lefthand Hollow",
        "natural": "valley",
        "waterway": "stream",
        "wikidata": "Q49931799",
        "@geometry": "center"
      },
      "geometry": {
        "type": "Point",
        "coordinates": [
          -78.7756886,
          38.2096807
        ]
      },
      "id": "way/879811285"
    },
    {
      "type": "Feature",
      "properties": {
        "@id": "way/938231749",
        "name": "Marshall Hollow",
        "natural": "valley",
        "@geometry": "center"
      },
      "geometry": {
        "type": "Point",
        "coordinates": [
          -80.6964684,
          38.9111716
        ]
      },
      "id": "way/938231749"
    },
    {
      "type": "Feature",
      "properties": {
        "@id": "way/938231750",
        "name": "Big Hollow",
        "natural": "valley",
        "wikidata": "Q35339793",
        "@geometry": "center"
      },
      "geometry": {
        "type": "Point",
        "coordinates": [
          -80.8010263,
          38.9040922
        ]
      },
      "id": "way/938231750"
    },
    {
      "type": "Feature",
      "properties": {
        "@id": "way/938231751",
        "name": "Brake Hollow",
        "natural": "valley",
        "wikidata": "Q34710924",
        "@geometry": "center"
      },
      "geometry": {
        "type": "Point",
        "coordinates": [
          -80.8470261,
          39.0740936
        ]
      },
      "id": "way/938231751"
    },
    {
      "type": "Feature",
      "properties": {
        "@id": "way/938654642",
        "name": "Happy Hollow",
        "natural": "valley",
        "wikidata": "Q49808984",
        "@geometry": "center"
      },
      "geometry": {
        "type": "Point",
        "coordinates": [
          -80.7223707,
          39.0197232
        ]
      },
      "id": "way/938654642"
    },
    {
      "type": "Feature",
      "properties": {
        "@id": "way/966141447",
        "name": "Allman Hollow",
        "natural": "valley",
        "@geometry": "center"
      },
      "geometry": {
        "type": "Point",
        "coordinates": [
          -80.7896162,
          39.0416112
        ]
      },
      "id": "way/966141447"
    },
    {
      "type": "Feature",
      "properties": {
        "@id": "way/978615995",
        "intermittent": "yes",
        "name": "Biddle Hollow",
        "natural": "valley",
        "waterway": "stream",
        "@geometry": "center"
      },
      "geometry": {
        "type": "Point",
        "coordinates": [
          -83.4706264,
          38.1283389
        ]
      },
      "id": "way/978615995"
    },
    {
      "type": "Feature",
      "properties": {
        "@id": "way/987834791",
        "name": "Loudoun Valley",
        "natural": "valley",
        "wikidata": "Q1417193",
        "wikipedia": "en:Loudoun Valley",
        "@geometry": "center"
      },
      "geometry": {
        "type": "Point",
        "coordinates": [
          -77.7264271,
          39.2743357
        ]
      },
      "id": "way/987834791"
    },
    {
      "type": "Feature",
      "properties": {
        "@id": "way/1089922394",
        "natural": "valley",
        "waterway": "stream",
        "@geometry": "center"
      },
      "geometry": {
        "type": "Point",
        "coordinates": [
          -79.4034002,
          38.0851926
        ]
      },
      "id": "way/1089922394"
    },
    {
      "type": "Feature",
      "properties": {
        "@id": "way/1122812519",
        "name": "Hite Hollow",
        "natural": "valley",
        "@geometry": "center"
      },
      "geometry": {
        "type": "Point",
        "coordinates": [
          -79.3445555,
          38.1148455
        ]
      },
      "id": "way/1122812519"
    },
    {
      "type": "Feature",
      "properties": {
        "@id": "way/1122812520",
        "name": "Estaline Valley",
        "natural": "valley",
        "@geometry": "center"
      },
      "geometry": {
        "type": "Point",
        "coordinates": [
          -79.3636506,
          38.0653197
        ]
      },
      "id": "way/1122812520"
    },
    {
      "type": "Feature",
      "properties": {
        "@id": "way/1122812521",
        "name": "Sulpher Spring Hollow",
        "natural": "valley",
        "@geometry": "center"
      },
      "geometry": {
        "type": "Point",
        "coordinates": [
          -79.3962009,
          38.0861268
        ]
      },
      "id": "way/1122812521"
    },
    {
      "type": "Feature",
      "properties": {
        "@id": "way/1122812522",
        "name": "Staples Hollow",
        "natural": "valley",
        "@geometry": "center"
      },
      "geometry": {
        "type": "Point",
        "coordinates": [
          -79.3933085,
          38.0916038
        ]
      },
      "id": "way/1122812522"
    },
    {
      "type": "Feature",
      "properties": {
        "@id": "way/1122812523",
        "name": "Taylor Hollow",
        "natural": "valley",
        "@geometry": "center"
      },
      "geometry": {
        "type": "Point",
        "coordinates": [
          -79.386714,
          38.0979176
        ]
      },
      "id": "way/1122812523"
    },
    {
      "type": "Feature",
      "properties": {
        "@id": "way/1123673288",
        "name": "Gum Lick Hollow",
        "natural": "valley",
        "@geometry": "center"
      },
      "geometry": {
        "type": "Point",
        "coordinates": [
          -79.3595723,
          38.1058835
        ]
      },
      "id": "way/1123673288"
    },
    {
      "type": "Feature",
      "properties": {
        "@id": "way/1123673289",
        "name": "Kennedy Draft",
        "natural": "valley",
        "@geometry": "center"
      },
      "geometry": {
        "type": "Point",
        "coordinates": [
          -79.3688286,
          38.1033928
        ]
      },
      "id": "way/1123673289"
    },
    {
      "type": "Feature",
      "properties": {
        "@id": "way/1123673290",
        "gnis:feature_id": "1487756",
        "name": "Sweet Spring Hollow",
        "natural": "valley",
        "@geometry": "center"
      },
      "geometry": {
        "type": "Point",
        "coordinates": [
          -79.373002,
          38.097116
        ]
      },
      "id": "way/1123673290"
    },
    {
      "type": "Feature",
      "properties": {
        "@id": "way/1123673291",
        "name": "Stuples Hollow",
        "natural": "valley",
        "@geometry": "center"
      },
      "geometry": {
        "type": "Point",
        "coordinates": [
          -79.4050759,
          38.0875766
        ]
      },
      "id": "way/1123673291"
    },
    {
      "type": "Feature",
      "properties": {
        "@id": "way/1123732150",
        "name": "Chapin Draft",
        "natural": "valley",
        "wikidata": "Q49787070",
        "@geometry": "center"
      },
      "geometry": {
        "type": "Point",
        "coordinates": [
          -79.2913717,
          38.1532058
        ]
      },
      "id": "way/1123732150"
    },
    {
      "type": "Feature",
      "properties": {
        "@id": "way/1152774097",
        "intermittent": "yes",
        "name": "Slip Hollow",
        "natural": "valley",
        "waterway": "stream",
        "@geometry": "center"
      },
      "geometry": {
        "type": "Point",
        "coordinates": [
          -79.661386,
          39.0770972
        ]
      },
      "id": "way/1152774097"
    },
    {
      "type": "Feature",
      "properties": {
        "@id": "way/1152774098",
        "name": "Slip Hollow",
        "natural": "valley",
        "waterway": "stream",
        "@geometry": "center"
      },
      "geometry": {
        "type": "Point",
        "coordinates": [
          -79.6550188,
          39.0771733
        ]
      },
      "id": "way/1152774098"
    },
    {
      "type": "Feature",
      "properties": {
        "@id": "way/1153035349",
        "name": "Fishing Trough Hollow",
        "natural": "valley",
        "waterway": "stream",
        "@geometry": "center"
      },
      "geometry": {
        "type": "Point",
        "coordinates": [
          -79.6491015,
          39.0736004
        ]
      },
      "id": "way/1153035349"
    },
    {
      "type": "Feature",
      "properties": {
        "@id": "way/1153035350",
        "intermittent": "yes",
        "name": "Fishing Trough Hollow",
        "natural": "valley",
        "waterway": "stream",
        "@geometry": "center"
      },
      "geometry": {
        "type": "Point",
        "coordinates": [
          -79.6470307,
          39.0680684
        ]
      },
      "id": "way/1153035350"
    },
    {
      "type": "Feature",
      "properties": {
        "@id": "way/1153035361",
        "name": "Camp Hollow",
        "natural": "valley",
        "waterway": "stream",
        "@geometry": "center"
      },
      "geometry": {
        "type": "Point",
        "coordinates": [
          -79.6824129,
          39.0529632
        ]
      },
      "id": "way/1153035361"
    },
    {
      "type": "Feature",
      "properties": {
        "@id": "way/1153035368",
        "name": "Camp Hollow",
        "natural": "valley",
        "waterway": "stream",
        "@geometry": "center"
      },
      "geometry": {
        "type": "Point",
        "coordinates": [
          -79.6726032,
          39.0495466
        ]
      },
      "id": "way/1153035368"
    },
    {
      "type": "Feature",
      "properties": {
        "@id": "way/1153035369",
        "layer": "-1",
        "name": "Camp Hollow",
        "natural": "valley",
        "tunnel": "culvert",
        "waterway": "stream",
        "@geometry": "center"
      },
      "geometry": {
        "type": "Point",
        "coordinates": [
          -79.673278,
          39.0497743
        ]
      },
      "id": "way/1153035369"
    },
    {
      "type": "Feature",
      "properties": {
        "@id": "way/1153035370",
        "name": "Camp Hollow",
        "natural": "valley",
        "waterway": "stream",
        "@geometry": "center"
      },
      "geometry": {
        "type": "Point",
        "coordinates": [
          -79.6753743,
          39.050742
        ]
      },
      "id": "way/1153035370"
    },
    {
      "type": "Feature",
      "properties": {
        "@id": "way/1153035371",
        "layer": "-1",
        "name": "Camp Hollow",
        "natural": "valley",
        "tunnel": "culvert",
        "waterway": "stream",
        "@geometry": "center"
      },
      "geometry": {
        "type": "Point",
        "coordinates": [
          -79.6774119,
          39.051775
        ]
      },
      "id": "way/1153035371"
    },
    {
      "type": "Feature",
      "properties": {
        "@id": "way/1153035372",
        "name": "Camp Hollow",
        "natural": "valley",
        "waterway": "stream",
        "@geometry": "center"
      },
      "geometry": {
        "type": "Point",
        "coordinates": [
          -79.6788984,
          39.0524281
        ]
      },
      "id": "way/1153035372"
    },
    {
      "type": "Feature",
      "properties": {
        "@id": "way/1153035373",
        "layer": "-1",
        "name": "Camp Hollow",
        "natural": "valley",
        "tunnel": "culvert",
        "waterway": "stream",
        "@geometry": "center"
      },
      "geometry": {
        "type": "Point",
        "coordinates": [
          -79.680397,
          39.0529296
        ]
      },
      "id": "way/1153035373"
    },
    {
      "type": "Feature",
      "properties": {
        "@id": "way/1154127179",
        "name": "Wilson Hollow",
        "natural": "valley",
        "waterway": "stream",
        "@geometry": "center"
      },
      "geometry": {
        "type": "Point",
        "coordinates": [
          -79.6743051,
          39.0623521
        ]
      },
      "id": "way/1154127179"
    },
    {
      "type": "Feature",
      "properties": {
        "@id": "way/1154127183",
        "name": "Wilson Hollow",
        "natural": "valley",
        "waterway": "stream",
        "@geometry": "center"
      },
      "geometry": {
        "type": "Point",
        "coordinates": [
          -79.6690837,
          39.0606763
        ]
      },
      "id": "way/1154127183"
    },
    {
      "type": "Feature",
      "properties": {
        "@id": "way/1154127184",
        "layer": "-1",
        "name": "Wilson Hollow",
        "natural": "valley",
        "tunnel": "culvert",
        "waterway": "stream",
        "@geometry": "center"
      },
      "geometry": {
        "type": "Point",
        "coordinates": [
          -79.6692485,
          39.0607302
        ]
      },
      "id": "way/1154127184"
    },
    {
      "type": "Feature",
      "properties": {
        "@id": "way/1154127185",
        "name": "Wilson Hollow",
        "natural": "valley",
        "waterway": "stream",
        "@geometry": "center"
      },
      "geometry": {
        "type": "Point",
        "coordinates": [
          -79.6804565,
          39.0639285
        ]
      },
      "id": "way/1154127185"
    },
    {
      "type": "Feature",
      "properties": {
        "@id": "way/1154127186",
        "layer": "-1",
        "name": "Wilson Hollow",
        "natural": "valley",
        "tunnel": "culvert",
        "waterway": "stream",
        "@geometry": "center"
      },
      "geometry": {
        "type": "Point",
        "coordinates": [
          -79.6793591,
          39.0639104
        ]
      },
      "id": "way/1154127186"
    },
    {
      "type": "Feature",
      "properties": {
        "@id": "way/1154127187",
        "name": "Hickman Slide Hollow",
        "natural": "valley",
        "waterway": "stream",
        "@geometry": "center"
      },
      "geometry": {
        "type": "Point",
        "coordinates": [
          -79.659057,
          39.0619891
        ]
      },
      "id": "way/1154127187"
    },
    {
      "type": "Feature",
      "properties": {
        "@id": "way/1154127194",
        "name": "Hickman Slide Hollow",
        "natural": "valley",
        "waterway": "stream",
        "@geometry": "center"
      },
      "geometry": {
        "type": "Point",
        "coordinates": [
          -79.6514691,
          39.0593044
        ]
      },
      "id": "way/1154127194"
    },
    {
      "type": "Feature",
      "properties": {
        "@id": "way/1154127195",
        "layer": "-1",
        "name": "Hickman Slide Hollow",
        "natural": "valley",
        "tunnel": "culvert",
        "waterway": "stream",
        "@geometry": "center"
      },
      "geometry": {
        "type": "Point",
        "coordinates": [
          -79.6541302,
          39.0604072
        ]
      },
      "id": "way/1154127195"
    },
    {
      "type": "Feature",
      "properties": {
        "@id": "way/1154127196",
        "name": "Hickman Slide Hollow",
        "natural": "valley",
        "waterway": "stream",
        "@geometry": "center"
      },
      "geometry": {
        "type": "Point",
        "coordinates": [
          -79.65456,
          39.0607049
        ]
      },
      "id": "way/1154127196"
    },
    {
      "type": "Feature",
      "properties": {
        "@id": "way/1154127197",
        "layer": "-1",
        "name": "Hickman Slide Hollow",
        "natural": "valley",
        "tunnel": "culvert",
        "waterway": "stream",
        "@geometry": "center"
      },
      "geometry": {
        "type": "Point",
        "coordinates": [
          -79.655008,
          39.0609874
        ]
      },
      "id": "way/1154127197"
    },
    {
      "type": "Feature",
      "properties": {
        "@id": "way/1154127198",
        "name": "Hickman Slide Hollow",
        "natural": "valley",
        "waterway": "stream",
        "@geometry": "center"
      },
      "geometry": {
        "type": "Point",
        "coordinates": [
          -79.6643307,
          39.0629699
        ]
      },
      "id": "way/1154127198"
    },
    {
      "type": "Feature",
      "properties": {
        "@id": "way/1154127199",
        "layer": "-1",
        "name": "Hickman Slide Hollow",
        "natural": "valley",
        "tunnel": "culvert",
        "waterway": "stream",
        "@geometry": "center"
      },
      "geometry": {
        "type": "Point",
        "coordinates": [
          -79.6631115,
          39.0628188
        ]
      },
      "id": "way/1154127199"
    },
    {
      "type": "Feature",
      "properties": {
        "@id": "way/1154127202",
        "name": "John B Hollow",
        "natural": "valley",
        "waterway": "stream",
        "@geometry": "center"
      },
      "geometry": {
        "type": "Point",
        "coordinates": [
          -79.665888,
          39.0721835
        ]
      },
      "id": "way/1154127202"
    },
    {
      "type": "Feature",
      "properties": {
        "@id": "way/1154127203",
        "name": "John B Hollow",
        "natural": "valley",
        "waterway": "stream",
        "@geometry": "center"
      },
      "geometry": {
        "type": "Point",
        "coordinates": [
          -79.6596591,
          39.0715096
        ]
      },
      "id": "way/1154127203"
    },
    {
      "type": "Feature",
      "properties": {
        "@id": "way/1154127204",
        "layer": "-1",
        "name": "John B Hollow",
        "natural": "valley",
        "tunnel": "culvert",
        "waterway": "stream",
        "@geometry": "center"
      },
      "geometry": {
        "type": "Point",
        "coordinates": [
          -79.6597606,
          39.0715796
        ]
      },
      "id": "way/1154127204"
    },
    {
      "type": "Feature",
      "properties": {
        "@id": "way/1154127205",
        "name": "John B Hollow",
        "natural": "valley",
        "waterway": "stream",
        "@geometry": "center"
      },
      "geometry": {
        "type": "Point",
        "coordinates": [
          -79.6732041,
          39.0734753
        ]
      },
      "id": "way/1154127205"
    },
    {
      "type": "Feature",
      "properties": {
        "@id": "way/1154127206",
        "layer": "-1",
        "name": "John B Hollow",
        "natural": "valley",
        "tunnel": "culvert",
        "waterway": "stream",
        "@geometry": "center"
      },
      "geometry": {
        "type": "Point",
        "coordinates": [
          -79.6720221,
          39.0730643
        ]
      },
      "id": "way/1154127206"
    },
    {
      "type": "Feature",
      "properties": {
        "@id": "way/1157697665",
        "name": "Kline Gap",
        "natural": "valley",
        "@geometry": "center"
      },
      "geometry": {
        "type": "Point",
        "coordinates": [
          -79.2171859,
          39.0734469
        ]
      },
      "id": "way/1157697665"
    },
    {
      "type": "Feature",
      "properties": {
        "@id": "way/1159217308",
        "name": "Tram Road Hollow",
        "natural": "valley",
        "@geometry": "center"
      },
      "geometry": {
        "type": "Point",
        "coordinates": [
          -83.5490298,
          38.0530247
        ]
      },
      "id": "way/1159217308"
    },
    {
      "type": "Feature",
      "properties": {
        "@id": "way/1159217309",
        "name": "Grubbs Hollow",
        "natural": "valley",
        "@geometry": "center"
      },
      "geometry": {
        "type": "Point",
        "coordinates": [
          -83.5296321,
          38.047491
        ]
      },
      "id": "way/1159217309"
    },
    {
      "type": "Feature",
      "properties": {
        "@id": "way/1159217310",
        "name": "Knob Hollow",
        "natural": "valley",
        "@geometry": "center"
      },
      "geometry": {
        "type": "Point",
        "coordinates": [
          -83.5415733,
          38.0488345
        ]
      },
      "id": "way/1159217310"
    },
    {
      "type": "Feature",
      "properties": {
        "@id": "way/1159217311",
        "name": "Fletchum Hollow",
        "natural": "valley",
        "@geometry": "center"
      },
      "geometry": {
        "type": "Point",
        "coordinates": [
          -83.5344065,
          38.0471447
        ]
      },
      "id": "way/1159217311"
    },
    {
      "type": "Feature",
      "properties": {
        "@id": "way/1159217334",
        "name": "Old House Hollow",
        "natural": "valley",
        "@geometry": "center"
      },
      "geometry": {
        "type": "Point",
        "coordinates": [
          -83.4489278,
          38.0783514
        ]
      },
      "id": "way/1159217334"
    },
    {
      "type": "Feature",
      "properties": {
        "@id": "way/1159217358",
        "name": "Big Hollow",
        "natural": "valley",
        "@geometry": "center"
      },
      "geometry": {
        "type": "Point",
        "coordinates": [
          -83.4630865,
          38.102106
        ]
      },
      "id": "way/1159217358"
    },
    {
      "type": "Feature",
      "properties": {
        "@id": "way/1159217368",
        "name": "Shrout Hollow",
        "natural": "valley",
        "@geometry": "center"
      },
      "geometry": {
        "type": "Point",
        "coordinates": [
          -83.4705163,
          38.0930337
        ]
      },
      "id": "way/1159217368"
    },
    {
      "type": "Feature",
      "properties": {
        "@id": "way/1159217369",
        "name": "Cassidy Ford Hollow",
        "natural": "valley",
        "@geometry": "center"
      },
      "geometry": {
        "type": "Point",
        "coordinates": [
          -83.4784931,
          38.0921007
        ]
      },
      "id": "way/1159217369"
    },
    {
      "type": "Feature",
      "properties": {
        "@id": "way/1159217421",
        "name": "Reynolds Hollow",
        "natural": "valley",
        "@geometry": "center"
      },
      "geometry": {
        "type": "Point",
        "coordinates": [
          -83.5392065,
          38.0831216
        ]
      },
      "id": "way/1159217421"
    },
    {
      "type": "Feature",
      "properties": {
        "@id": "way/1159217426",
        "name": "Hickory Hollow",
        "natural": "valley",
        "@geometry": "center"
      },
      "geometry": {
        "type": "Point",
        "coordinates": [
          -83.5656458,
          38.1016272
        ]
      },
      "id": "way/1159217426"
    },
    {
      "type": "Feature",
      "properties": {
        "@id": "way/1159217438",
        "name": "Hog Hollow",
        "natural": "valley",
        "@geometry": "center"
      },
      "geometry": {
        "type": "Point",
        "coordinates": [
          -83.5391915,
          38.1108562
        ]
      },
      "id": "way/1159217438"
    },
    {
      "type": "Feature",
      "properties": {
        "@id": "way/1164020627",
        "name": "Robinson Hollow",
        "natural": "valley",
        "@geometry": "center"
      },
      "geometry": {
        "type": "Point",
        "coordinates": [
          -78.9159322,
          38.0009304
        ]
      },
      "id": "way/1164020627"
    },
    {
      "type": "Feature",
      "properties": {
        "@id": "way/1164020630",
        "name": "Cellar Hollow",
        "natural": "valley",
        "@geometry": "center"
      },
      "geometry": {
        "type": "Point",
        "coordinates": [
          -79.1326332,
          37.934433
        ]
      },
      "id": "way/1164020630"
    },
    {
      "type": "Feature",
      "properties": {
        "@id": "way/1164020632",
        "natural": "valley",
        "@geometry": "center"
      },
      "geometry": {
        "type": "Point",
        "coordinates": [
          -79.1646267,
          37.9027275
        ]
      },
      "id": "way/1164020632"
    },
    {
      "type": "Feature",
      "properties": {
        "@id": "way/1170963850",
        "name": "Ramseys Draft",
        "natural": "valley",
        "@geometry": "center"
      },
      "geometry": {
        "type": "Point",
        "coordinates": [
          -79.3464536,
          38.2749683
        ]
      },
      "id": "way/1170963850"
    },
    {
      "type": "Feature",
      "properties": {
        "@id": "way/1170963851",
        "gnis:feature_id": "1483864",
        "name": "Gum Corner Hollow",
        "natural": "valley",
        "@geometry": "center"
      },
      "geometry": {
        "type": "Point",
        "coordinates": [
          -79.3519414,
          38.2587135
        ]
      },
      "id": "way/1170963851"
    },
    {
      "type": "Feature",
      "properties": {
        "@id": "way/1170963853",
        "name": "Baker Draft",
        "natural": "valley",
        "@geometry": "center"
      },
      "geometry": {
        "type": "Point",
        "coordinates": [
          -79.3486798,
          38.2433919
        ]
      },
      "id": "way/1170963853"
    },
    {
      "type": "Feature",
      "properties": {
        "@id": "way/1170963854",
        "name": "Hodges Draft",
        "natural": "valley",
        "wikidata": "Q49812275",
        "@geometry": "center"
      },
      "geometry": {
        "type": "Point",
        "coordinates": [
          -79.3674338,
          38.2542672
        ]
      },
      "id": "way/1170963854"
    },
    {
      "type": "Feature",
      "properties": {
        "@id": "way/1170963855",
        "name": "Reuben's Draft",
        "natural": "valley",
        "@geometry": "center"
      },
      "geometry": {
        "type": "Point",
        "coordinates": [
          -79.3750191,
          38.2436896
        ]
      },
      "id": "way/1170963855"
    },
    {
      "type": "Feature",
      "properties": {
        "@id": "way/1170963856",
        "name": "Right Fork Tims Draft",
        "natural": "valley",
        "@geometry": "center"
      },
      "geometry": {
        "type": "Point",
        "coordinates": [
          -79.3829585,
          38.2441789
        ]
      },
      "id": "way/1170963856"
    },
    {
      "type": "Feature",
      "properties": {
        "@id": "way/1170963857",
        "name": "Left Fork Tims Draft",
        "natural": "valley",
        "@geometry": "center"
      },
      "geometry": {
        "type": "Point",
        "coordinates": [
          -79.3800188,
          38.2382812
        ]
      },
      "id": "way/1170963857"
    },
    {
      "type": "Feature",
      "properties": {
        "@id": "way/1170963860",
        "gnis:feature_id": "1487925",
        "name": "Tims Draft",
        "natural": "valley",
        "waterway": "stream",
        "@geometry": "center"
      },
      "geometry": {
        "type": "Point",
        "coordinates": [
          -79.3741051,
          38.2145752
        ]
      },
      "id": "way/1170963860"
    },
    {
      "type": "Feature",
      "properties": {
        "@id": "way/1170963863",
        "name": "Alier Hollow",
        "natural": "valley",
        "@geometry": "center"
      },
      "geometry": {
        "type": "Point",
        "coordinates": [
          -79.3830228,
          38.231177
        ]
      },
      "id": "way/1170963863"
    },
    {
      "type": "Feature",
      "properties": {
        "@id": "way/1170963865",
        "name": "Left Fork Draft",
        "natural": "valley",
        "@geometry": "center"
      },
      "geometry": {
        "type": "Point",
        "coordinates": [
          -79.4088311,
          38.2227529
        ]
      },
      "id": "way/1170963865"
    },
    {
      "type": "Feature",
      "properties": {
        "@id": "way/1170963867",
        "name": "Broad Hollow",
        "natural": "valley",
        "@geometry": "center"
      },
      "geometry": {
        "type": "Point",
        "coordinates": [
          -79.4435013,
          38.1944904
        ]
      },
      "id": "way/1170963867"
    },
    {
      "type": "Feature",
      "properties": {
        "@id": "way/1170963868",
        "name": "Guy Hollow",
        "natural": "valley",
        "wikidata": "Q49807902",
        "@geometry": "center"
      },
      "geometry": {
        "type": "Point",
        "coordinates": [
          -79.4199622,
          38.2071538
        ]
      },
      "id": "way/1170963868"
    },
    {
      "type": "Feature",
      "properties": {
        "@id": "way/1170963869",
        "name": "Harris Hollow",
        "natural": "valley",
        "@geometry": "center"
      },
      "geometry": {
        "type": "Point",
        "coordinates": [
          -79.4251228,
          38.2021629
        ]
      },
      "id": "way/1170963869"
    },
    {
      "type": "Feature",
      "properties": {
        "@id": "way/1170965485",
        "name": "Chestnut Lick Hollow",
        "natural": "valley",
        "@geometry": "center"
      },
      "geometry": {
        "type": "Point",
        "coordinates": [
          -79.3573594,
          38.2884375
        ]
      },
      "id": "way/1170965485"
    },
    {
      "type": "Feature",
      "properties": {
        "@id": "way/1170965486",
        "name": "Leslie Lick Hollow",
        "natural": "valley",
        "@geometry": "center"
      },
      "geometry": {
        "type": "Point",
        "coordinates": [
          -79.3530464,
          38.2809425
        ]
      },
      "id": "way/1170965486"
    },
    {
      "type": "Feature",
      "properties": {
        "@id": "way/1170965488",
        "name": "Jonas Draft",
        "natural": "valley",
        "@geometry": "center"
      },
      "geometry": {
        "type": "Point",
        "coordinates": [
          -79.34169,
          38.2714208
        ]
      },
      "id": "way/1170965488"
    },
    {
      "type": "Feature",
      "properties": {
        "@id": "way/1173784616",
        "gnis:feature_id": "1488292",
        "name": "White Oak Draft",
        "natural": "valley",
        "@geometry": "center"
      },
      "geometry": {
        "type": "Point",
        "coordinates": [
          -79.2368961,
          38.2921257
        ]
      },
      "id": "way/1173784616"
    },
    {
      "type": "Feature",
      "properties": {
        "@id": "way/1173784618",
        "gnis:feature_id": "1488419",
        "name": "Wilson Hollow",
        "natural": "valley",
        "@geometry": "center"
      },
      "geometry": {
        "type": "Point",
        "coordinates": [
          -79.2140549,
          38.260526
        ]
      },
      "id": "way/1173784618"
    },
    {
      "type": "Feature",
      "properties": {
        "@id": "way/1173784619",
        "name": "Johnson Draft",
        "natural": "valley",
        "@geometry": "center"
      },
      "geometry": {
        "type": "Point",
        "coordinates": [
          -79.3098574,
          38.2952592
        ]
      },
      "id": "way/1173784619"
    },
    {
      "type": "Feature",
      "properties": {
        "@id": "way/1173784623",
        "name": "Stillhouse Hollow",
        "natural": "valley",
        "@geometry": "center"
      },
      "geometry": {
        "type": "Point",
        "coordinates": [
          -79.2692328,
          38.3494649
        ]
      },
      "id": "way/1173784623"
    },
    {
      "type": "Feature",
      "properties": {
        "@id": "way/1173784625",
        "name": "Tunnel Hollow",
        "natural": "valley",
        "@geometry": "center"
      },
      "geometry": {
        "type": "Point",
        "coordinates": [
          -79.187019,
          38.3110151
        ]
      },
      "id": "way/1173784625"
    },
    {
      "type": "Feature",
      "properties": {
        "@id": "way/1173784626",
        "name": "Haywood Hollow",
        "natural": "valley",
        "@geometry": "center"
      },
      "geometry": {
        "type": "Point",
        "coordinates": [
          -79.2080543,
          38.30352
        ]
      },
      "id": "way/1173784626"
    },
    {
      "type": "Feature",
      "properties": {
        "@id": "way/1173784627",
        "gnis:feature_id": "1481515",
        "name": "Bear Draft",
        "natural": "valley",
        "@geometry": "center"
      },
      "geometry": {
        "type": "Point",
        "coordinates": [
          -79.1763318,
          38.3168615
        ]
      },
      "id": "way/1173784627"
    },
    {
      "type": "Feature",
      "properties": {
        "@id": "way/1173784628",
        "name": "Muddy Hollow",
        "natural": "valley",
        "@geometry": "center"
      },
      "geometry": {
        "type": "Point",
        "coordinates": [
          -79.1631756,
          38.3247234
        ]
      },
      "id": "way/1173784628"
    },
    {
      "type": "Feature",
      "properties": {
        "@id": "way/1173784629",
        "name": "Shaffer Hollow",
        "natural": "valley",
        "@geometry": "center"
      },
      "geometry": {
        "type": "Point",
        "coordinates": [
          -79.1560006,
          38.3375875
        ]
      },
      "id": "way/1173784629"
    },
    {
      "type": "Feature",
      "properties": {
        "@id": "way/1173784630",
        "name": "Horse Trough Hollow",
        "natural": "valley",
        "wikidata": "Q49814210",
        "@geometry": "center"
      },
      "geometry": {
        "type": "Point",
        "coordinates": [
          -79.2702628,
          38.376969
        ]
      },
      "id": "way/1173784630"
    },
    {
      "type": "Feature",
      "properties": {
        "@id": "way/1173784633",
        "name": "Daggy Camp Hollow",
        "natural": "valley",
        "@geometry": "center"
      },
      "geometry": {
        "type": "Point",
        "coordinates": [
          -79.2226804,
          38.3777212
        ]
      },
      "id": "way/1173784633"
    },
    {
      "type": "Feature",
      "properties": {
        "@id": "way/1173807109",
        "name": "Deerfield Valley",
        "natural": "valley",
        "@geometry": "center"
      },
      "geometry": {
        "type": "Point",
        "coordinates": [
          -79.3777228,
          38.2114345
        ]
      },
      "id": "way/1173807109"
    },
    {
      "type": "Feature",
      "properties": {
        "@id": "way/1173807110",
        "name": "Madison Hollow",
        "natural": "valley",
        "@geometry": "center"
      },
      "geometry": {
        "type": "Point",
        "coordinates": [
          -79.3240571,
          38.2271313
        ]
      },
      "id": "way/1173807110"
    },
    {
      "type": "Feature",
      "properties": {
        "@id": "way/1173807112",
        "gnis:feature_id": "1484460",
        "name": "John Hollow",
        "natural": "valley",
        "@geometry": "center"
      },
      "geometry": {
        "type": "Point",
        "coordinates": [
          -79.3060166,
          38.2469516
        ]
      },
      "id": "way/1173807112"
    },
    {
      "type": "Feature",
      "properties": {
        "@id": "way/1173807113",
        "gnis:feature_id": "1484408",
        "name": "Jehu Hollow",
        "natural": "valley",
        "@geometry": "center"
      },
      "geometry": {
        "type": "Point",
        "coordinates": [
          -79.2998676,
          38.2477518
        ]
      },
      "id": "way/1173807113"
    },
    {
      "type": "Feature",
      "properties": {
        "@id": "way/1173807114",
        "name": "Chair Draft",
        "natural": "valley",
        "@geometry": "center"
      },
      "geometry": {
        "type": "Point",
        "coordinates": [
          -79.2976213,
          38.2525965
        ]
      },
      "id": "way/1173807114"
    },
    {
      "type": "Feature",
      "properties": {
        "@id": "way/1173807115",
        "gnis:feature_id": "1483064",
        "name": "Dorsey Hollow",
        "natural": "valley",
        "wikidata": "Q49797002",
        "@geometry": "center"
      },
      "geometry": {
        "type": "Point",
        "coordinates": [
          -79.2993164,
          38.2642481
        ]
      },
      "id": "way/1173807115"
    },
    {
      "type": "Feature",
      "properties": {
        "@id": "way/1173807116",
        "name": "Chimney Hollow",
        "natural": "valley",
        "wikidata": "Q49787550",
        "@geometry": "center"
      },
      "geometry": {
        "type": "Point",
        "coordinates": [
          -79.2934665,
          38.266794
        ]
      },
      "id": "way/1173807116"
    },
    {
      "type": "Feature",
      "properties": {
        "@id": "way/1173807117",
        "gnis:feature_id": "1483610",
        "name": "Georgia Camp Hollow",
        "natural": "valley",
        "wikidata": "Q49804169",
        "@geometry": "center"
      },
      "geometry": {
        "type": "Point",
        "coordinates": [
          -79.3547631,
          38.2924881
        ]
      },
      "id": "way/1173807117"
    },
    {
      "type": "Feature",
      "properties": {
        "@id": "way/1173807119",
        "gnis:feature_id": "1483197",
        "name": "East Branch Dowells Draft",
        "natural": "valley",
        "wikidata": "Q49799159",
        "@geometry": "center"
      },
      "geometry": {
        "type": "Point",
        "coordinates": [
          -79.2808414,
          38.2834775
        ]
      },
      "id": "way/1173807119"
    },
    {
      "type": "Feature",
      "properties": {
        "@id": "way/1173807120",
        "gnis:feature_id": "1502786",
        "name": "Dowells Draft",
        "natural": "valley",
        "wikidata": "Q49797160",
        "@geometry": "center"
      },
      "geometry": {
        "type": "Point",
        "coordinates": [
          -79.2821503,
          38.2926053
        ]
      },
      "id": "way/1173807120"
    },
    {
      "type": "Feature",
      "properties": {
        "@id": "way/1173807121",
        "name": "Sulfer Spring Hollow",
        "natural": "valley",
        "@geometry": "center"
      },
      "geometry": {
        "type": "Point",
        "coordinates": [
          -79.3039352,
          38.2829763
        ]
      },
      "id": "way/1173807121"
    },
    {
      "type": "Feature",
      "properties": {
        "@id": "way/1173807122",
        "name": "Broad Draft",
        "natural": "valley",
        "@geometry": "center"
      },
      "geometry": {
        "type": "Point",
        "coordinates": [
          -79.3226892,
          38.2878094
        ]
      },
      "id": "way/1173807122"
    },
    {
      "type": "Feature",
      "properties": {
        "@id": "way/1173807124",
        "gnis:feature_id": "1481988",
        "name": "Bridge Hollow",
        "natural": "valley",
        "wikidata": "Q49781065",
        "@geometry": "center"
      },
      "geometry": {
        "type": "Point",
        "coordinates": [
          -79.3490016,
          38.3028152
        ]
      },
      "id": "way/1173807124"
    },
    {
      "type": "Feature",
      "properties": {
        "@id": "way/1173807125",
        "name": "Road Hollow",
        "natural": "valley",
        "@geometry": "center"
      },
      "geometry": {
        "type": "Point",
        "coordinates": [
          -79.3718487,
          38.3174461
        ]
      },
      "id": "way/1173807125"
    },
    {
      "type": "Feature",
      "properties": {
        "@id": "way/1276225380",
        "intermittent": "yes",
        "name": "Ellis Hollow",
        "natural": "valley",
        "waterway": "stream",
        "@geometry": "center"
      },
      "geometry": {
        "type": "Point",
        "coordinates": [
          -78.699616,
          39.022284
        ]
      },
      "id": "way/1276225380"
    },
    {
      "type": "Feature",
      "properties": {
        "@id": "way/1276225382",
        "intermittent": "no",
        "name": "Ellis Hollow",
        "natural": "valley",
        "waterway": "stream",
        "@geometry": "center"
      },
      "geometry": {
        "type": "Point",
        "coordinates": [
          -78.6931182,
          39.0329138
        ]
      },
      "id": "way/1276225382"
    },
    {
      "type": "Feature",
      "properties": {
        "@id": "way/1282545545",
        "intermittent": "yes",
        "name": "Britton Hollow",
        "natural": "valley",
        "waterway": "stream",
        "@geometry": "center"
      },
      "geometry": {
        "type": "Point",
        "coordinates": [
          -78.3764353,
          38.6833374
        ]
      },
      "id": "way/1282545545"
    },
    {
      "type": "Feature",
      "properties": {
        "@id": "way/1282545547",
        "intermittent": "yes",
        "name": "Britton Hollow",
        "natural": "valley",
        "waterway": "stream",
        "@geometry": "center"
      },
      "geometry": {
        "type": "Point",
        "coordinates": [
          -78.3826108,
          38.6763966
        ]
      },
      "id": "way/1282545547"
    },
    {
      "type": "Feature",
      "properties": {
        "@id": "way/1282545548",
        "intermittent": "yes",
        "layer": "-1",
        "name": "Britton Hollow",
        "natural": "valley",
        "tunnel": "culvert",
        "waterway": "stream",
        "@geometry": "center"
      },
      "geometry": {
        "type": "Point",
        "coordinates": [
          -78.3816597,
          38.6767457
        ]
      },
      "id": "way/1282545548"
    },
    {
      "type": "Feature",
      "properties": {
        "@id": "way/1282545549",
        "intermittent": "yes",
        "name": "Britton Hollow",
        "natural": "valley",
        "waterway": "stream",
        "@geometry": "center"
      },
      "geometry": {
        "type": "Point",
        "coordinates": [
          -78.3840414,
          38.6758693
        ]
      },
      "id": "way/1282545549"
    },
    {
      "type": "Feature",
      "properties": {
        "@id": "way/1282545550",
        "intermittent": "yes",
        "layer": "-1",
        "name": "Britton Hollow",
        "natural": "valley",
        "tunnel": "culvert",
        "waterway": "stream",
        "@geometry": "center"
      },
      "geometry": {
        "type": "Point",
        "coordinates": [
          -78.383592,
          38.6760307
        ]
      },
      "id": "way/1282545550"
    },
    {
      "type": "Feature",
      "properties": {
        "@id": "way/1285998056",
        "name": "Fisher Valley",
        "natural": "valley",
        "@geometry": "center"
      },
      "geometry": {
        "type": "Point",
        "coordinates": [
          -82.9818418,
          36.5858519
        ]
      },
      "id": "way/1285998056"
    },
    {
      "type": "Feature",
      "properties": {
        "@id": "way/1285998059",
        "name": "England Valley",
        "natural": "valley",
        "@geometry": "center"
      },
      "geometry": {
        "type": "Point",
        "coordinates": [
          -82.9593694,
          36.5953116
        ]
      },
      "id": "way/1285998059"
    },
    {
      "type": "Feature",
      "properties": {
        "@id": "way/1286042766",
        "name": "Pumpkin Valley",
        "natural": "valley",
        "@geometry": "center"
      },
      "geometry": {
        "type": "Point",
        "coordinates": [
          -83.0414055,
          36.5296456
        ]
      },
      "id": "way/1286042766"
    },
    {
      "type": "Feature",
      "properties": {
        "@id": "way/1286046917",
        "name": "Gravely Valley",
        "natural": "valley",
        "@geometry": "center"
      },
      "geometry": {
        "type": "Point",
        "coordinates": [
          -83.0639393,
          36.5366907
        ]
      },
      "id": "way/1286046917"
    },
    {
      "type": "Feature",
      "properties": {
        "@id": "way/1286046918",
        "name": "Kyle Valley",
        "natural": "valley",
        "@geometry": "center"
      },
      "geometry": {
        "type": "Point",
        "coordinates": [
          -83.0030103,
          36.5582992
        ]
      },
      "id": "way/1286046918"
    },
    {
      "type": "Feature",
      "properties": {
        "@id": "way/1317994967",
        "name": "Mudlick Draft",
        "natural": "valley",
        "@geometry": "center"
      },
      "geometry": {
        "type": "Point",
        "coordinates": [
          -79.3844283,
          38.3580544
        ]
      },
      "id": "way/1317994967"
    },
    {
      "type": "Feature",
      "properties": {
        "@id": "way/1317994968",
        "name": "Stamping Ground Hollow",
        "natural": "valley",
        "@geometry": "center"
      },
      "geometry": {
        "type": "Point",
        "coordinates": [
          -79.3779963,
          38.3015983
        ]
      },
      "id": "way/1317994968"
    },
    {
      "type": "Feature",
      "properties": {
        "@id": "way/1317994969",
        "name": "Devrick Hollow",
        "natural": "valley",
        "@geometry": "center"
      },
      "geometry": {
        "type": "Point",
        "coordinates": [
          -79.3978286,
          38.3060769
        ]
      },
      "id": "way/1317994969"
    },
    {
      "type": "Feature",
      "properties": {
        "@id": "way/1317994970",
        "name": "Salthouse Hollow",
        "natural": "valley",
        "@geometry": "center"
      },
      "geometry": {
        "type": "Point",
        "coordinates": [
          -79.3934164,
          38.3143363
        ]
      },
      "id": "way/1317994970"
    },
    {
      "type": "Feature",
      "properties": {
        "@id": "way/1317994971",
        "name": "Mortons Draft",
        "natural": "valley",
        "@geometry": "center"
      },
      "geometry": {
        "type": "Point",
        "coordinates": [
          -79.4019162,
          38.3396196
        ]
      },
      "id": "way/1317994971"
    },
    {
      "type": "Feature",
      "properties": {
        "@id": "way/1317994972",
        "name": "Sites Hollow",
        "natural": "valley",
        "@geometry": "center"
      },
      "geometry": {
        "type": "Point",
        "coordinates": [
          -79.417355,
          38.3441637
        ]
      },
      "id": "way/1317994972"
    },
    {
      "type": "Feature",
      "properties": {
        "@id": "way/1317994973",
        "name": "Mill Hollow",
        "natural": "valley",
        "@geometry": "center"
      },
      "geometry": {
        "type": "Point",
        "coordinates": [
          -79.4241249,
          38.3347725
        ]
      },
      "id": "way/1317994973"
    },
    {
      "type": "Feature",
      "properties": {
        "@id": "way/1317994974",
        "name": "Philips Hollow",
        "natural": "valley",
        "@geometry": "center"
      },
      "geometry": {
        "type": "Point",
        "coordinates": [
          -79.4100059,
          38.3068184
        ]
      },
      "id": "way/1317994974"
    },
    {
      "type": "Feature",
      "properties": {
        "@id": "way/1317994975",
        "name": "Church Hollow",
        "natural": "valley",
        "@geometry": "center"
      },
      "geometry": {
        "type": "Point",
        "coordinates": [
          -79.4196832,
          38.3032487
        ]
      },
      "id": "way/1317994975"
    },
    {
      "type": "Feature",
      "properties": {
        "@id": "way/1317994976",
        "name": "Wilson Hollow",
        "natural": "valley",
        "@geometry": "center"
      },
      "geometry": {
        "type": "Point",
        "coordinates": [
          -79.4245112,
          38.2967655
        ]
      },
      "id": "way/1317994976"
    },
    {
      "type": "Feature",
      "properties": {
        "@id": "way/1317994977",
        "name": "Hoop Hole Hollow",
        "natural": "valley",
        "@geometry": "center"
      },
      "geometry": {
        "type": "Point",
        "coordinates": [
          -79.4234062,
          38.2849005
        ]
      },
      "id": "way/1317994977"
    },
    {
      "type": "Feature",
      "properties": {
        "@id": "way/1317994978",
        "name": "Wide Draft",
        "natural": "valley",
        "@geometry": "center"
      },
      "geometry": {
        "type": "Point",
        "coordinates": [
          -79.3797398,
          38.3416983
        ]
      },
      "id": "way/1317994978"
    },
    {
      "type": "Feature",
      "properties": {
        "@id": "way/1330515743",
        "name": "Thackers Hollow",
        "natural": "valley",
        "@geometry": "center"
      },
      "geometry": {
        "type": "Point",
        "coordinates": [
          -79.0263004,
          38.2267682
        ]
      },
      "id": "way/1330515743"
    },
    {
      "type": "Feature",
      "properties": {
        "@id": "way/1364436148",
        "name": "Railroad Hollow",
        "natural": "valley",
        "@geometry": "center"
      },
      "geometry": {
        "type": "Point",
        "coordinates": [
          -79.1581743,
          38.5754421
        ]
      },
      "id": "way/1364436148"
    },
    {
      "type": "Feature",
      "properties": {
        "@id": "way/1364436149",
        "name": "Dunkle Hollow",
        "natural": "valley",
        "@geometry": "center"
      },
      "geometry": {
        "type": "Point",
        "coordinates": [
          -79.1635412,
          38.5300402
        ]
      },
      "id": "way/1364436149"
    },
    {
      "type": "Feature",
      "properties": {
        "@id": "way/1364436157",
        "name": "Hopkins Hollow",
        "natural": "valley",
        "@geometry": "center"
      },
      "geometry": {
        "type": "Point",
        "coordinates": [
          -79.0813771,
          38.5791852
        ]
      },
      "id": "way/1364436157"
    },
    {
      "type": "Feature",
      "properties": {
        "@id": "way/1364436158",
        "name": "Timber Hollow",
        "natural": "valley",
        "@geometry": "center"
      },
      "geometry": {
        "type": "Point",
        "coordinates": [
          -79.1473662,
          38.5475399
        ]
      },
      "id": "way/1364436158"
    },
    {
      "type": "Feature",
      "properties": {
        "@id": "way/1364436161",
        "name": "Block Hollow",
        "natural": "valley",
        "@geometry": "center"
      },
      "geometry": {
        "type": "Point",
        "coordinates": [
          -79.1722992,
          38.5254704
        ]
      },
      "id": "way/1364436161"
    },
    {
      "type": "Feature",
      "properties": {
        "@id": "way/1422921491",
        "name": "Goat Hollow",
        "natural": "valley",
        "@geometry": "center"
      },
      "geometry": {
        "type": "Point",
        "coordinates": [
          -78.7683712,
          38.1321753
        ]
      },
      "id": "way/1422921491"
    },
    {
      "type": "Feature",
      "properties": {
        "@id": "way/1422932469",
        "name": "Turkey Hollow",
        "natural": "valley",
        "@geometry": "center"
      },
      "geometry": {
        "type": "Point",
        "coordinates": [
          -79.1828352,
          37.8839926
        ]
      },
      "id": "way/1422932469"
    },
    {
      "type": "Feature",
      "properties": {
        "@id": "way/1422944082",
        "name": "Stillhouse Hollow",
        "natural": "valley",
        "@geometry": "center"
      },
      "geometry": {
        "type": "Point",
        "coordinates": [
          -79.2053786,
          37.8884381
        ]
      },
      "id": "way/1422944082"
    },
    {
      "type": "Feature",
      "properties": {
        "@id": "way/1422948510",
        "name": "Cabin Hollow",
        "natural": "valley",
        "@geometry": "center"
      },
      "geometry": {
        "type": "Point",
        "coordinates": [
          -79.4795953,
          38.2407087
        ]
      },
      "id": "way/1422948510"
    },
    {
      "type": "Feature",
      "properties": {
        "@id": "way/1422948514",
        "name": "Horsehole Hollow",
        "natural": "valley",
        "@geometry": "center"
      },
      "geometry": {
        "type": "Point",
        "coordinates": [
          -79.4707291,
          38.2345314
        ]
      },
      "id": "way/1422948514"
    },
    {
      "type": "Feature",
      "properties": {
        "@id": "way/1422948515",
        "name": "Hickory Log Hollow",
        "natural": "valley",
        "@geometry": "center"
      },
      "geometry": {
        "type": "Point",
        "coordinates": [
          -79.4640127,
          38.2439063
        ]
      },
      "id": "way/1422948515"
    },
    {
      "type": "Feature",
      "properties": {
        "@id": "way/1422948521",
        "name": "Wallowhole Hollow",
        "natural": "valley",
        "@geometry": "center"
      },
      "geometry": {
        "type": "Point",
        "coordinates": [
          -79.4543025,
          38.238048
        ]
      },
      "id": "way/1422948521"
    },
    {
      "type": "Feature",
      "properties": {
        "@id": "way/1422948522",
        "name": "Locust Hollow",
        "natural": "valley",
        "@geometry": "center"
      },
      "geometry": {
        "type": "Point",
        "coordinates": [
          -79.4525634,
          38.2286129
        ]
      },
      "id": "way/1422948522"
    },
    {
      "type": "Feature",
      "properties": {
        "@id": "way/1422948530",
        "name": "Fish Hollow",
        "natural": "valley",
        "@geometry": "center"
      },
      "geometry": {
        "type": "Point",
        "coordinates": [
          -79.3607964,
          38.3218291
        ]
      },
      "id": "way/1422948530"
    },
    {
      "type": "Feature",
      "properties": {
        "@id": "way/1422948540",
        "gnis:feature_id": "1487529",
        "intermittent": "yes",
        "name": "Starey Draft",
        "natural": "valley",
        "waterway": "stream",
        "@geometry": "center"
      },
      "geometry": {
        "type": "Point",
        "coordinates": [
          -79.3404149,
          38.2771353
        ]
      },
      "id": "way/1422948540"
    },
    {
      "type": "Feature",
      "properties": {
        "@id": "way/1422948553",
        "gnis:feature_id": "1487529",
        "intermittent": "yes",
        "name": "Starey Draft",
        "natural": "valley",
        "waterway": "stream",
        "@geometry": "center"
      },
      "geometry": {
        "type": "Point",
        "coordinates": [
          -79.3464501,
          38.2777002
        ]
      },
      "id": "way/1422948553"
    },
    {
      "type": "Feature",
      "properties": {
        "@id": "way/1422948554",
        "gnis:feature_id": "1487529",
        "intermittent": "yes",
        "layer": "-1",
        "natural": "valley",
        "tunnel": "culvert",
        "waterway": "stream",
        "@geometry": "center"
      },
      "geometry": {
        "type": "Point",
        "coordinates": [
          -79.3435757,
          38.2780118
        ]
      },
      "id": "way/1422948554"
    },
    {
      "type": "Feature",
      "properties": {
        "@id": "way/1422950022",
        "gnis:feature_id": "1488467",
        "intermittent": "yes",
        "name": "Wolfpen Draft",
        "natural": "valley",
        "waterway": "stream",
        "@geometry": "center"
      },
      "geometry": {
        "type": "Point",
        "coordinates": [
          -79.3441207,
          38.2483825
        ]
      },
      "id": "way/1422950022"
    },
    {
      "type": "Feature",
      "properties": {
        "@id": "way/1422950024",
        "gnis:feature_id": "1488467",
        "natural": "valley",
        "waterway": "flowline",
        "@geometry": "center"
      },
      "geometry": {
        "type": "Point",
        "coordinates": [
          -79.3378226,
          38.2454661
        ]
      },
      "id": "way/1422950024"
    },
    {
      "type": "Feature",
      "properties": {
        "@id": "way/1422950026",
        "gnis:feature_id": "1488467",
        "intermittent": "yes",
        "name": "Wolfpen Draft",
        "natural": "valley",
        "waterway": "stream",
        "@geometry": "center"
      },
      "geometry": {
        "type": "Point",
        "coordinates": [
          -79.3369211,
          38.2453513
        ]
      },
      "id": "way/1422950026"
    },
    {
      "type": "Feature",
      "properties": {
        "@id": "way/1422950027",
        "gnis:feature_id": "1488467",
        "intermittent": "yes",
        "name": "Wolfpen Draft",
        "natural": "valley",
        "waterway": "stream",
        "@geometry": "center"
      },
      "geometry": {
        "type": "Point",
        "coordinates": [
          -79.3358238,
          38.2451492
        ]
      },
      "id": "way/1422950027"
    },
    {
      "type": "Feature",
      "properties": {
        "@id": "way/1422950028",
        "gnis:feature_id": "1488467",
        "intermittent": "yes",
        "layer": "-1",
        "name": "Wolfpen Draft",
        "natural": "valley",
        "tunnel": "culvert",
        "waterway": "stream",
        "@geometry": "center"
      },
      "geometry": {
        "type": "Point",
        "coordinates": [
          -79.336108,
          38.2452213
        ]
      },
      "id": "way/1422950028"
    },
    {
      "type": "Feature",
      "properties": {
        "@id": "way/1457334288",
        "gnis:feature_id": "1488471",
        "name": "Wood Draft",
        "natural": "valley",
        "waterway": "stream",
        "@geometry": "center"
      },
      "geometry": {
        "type": "Point",
        "coordinates": [
          -79.3247894,
          38.2476996
        ]
      },
      "id": "way/1457334288"
    },
    {
      "type": "Feature",
      "properties": {
        "@id": "way/1457334289",
        "gnis:feature_id": "1488471",
        "name": "Wood Draft",
        "natural": "valley",
        "waterway": "stream",
        "@geometry": "center"
      },
      "geometry": {
        "type": "Point",
        "coordinates": [
          -79.3265313,
          38.2480441
        ]
      },
      "id": "way/1457334289"
    },
    {
      "type": "Feature",
      "properties": {
        "@id": "way/1457334290",
        "gnis:feature_id": "1488471",
        "layer": "-1",
        "name": "Wood Draft",
        "natural": "valley",
        "tunnel": "culvert",
        "waterway": "stream",
        "@geometry": "center"
      },
      "geometry": {
        "type": "Point",
        "coordinates": [
          -79.3262251,
          38.24785
        ]
      },
      "id": "way/1457334290"
    },
    {
      "type": "Feature",
      "properties": {
        "@id": "way/1457334292",
        "gnis:feature_id": "1488471",
        "name": "Wood Draft",
        "natural": "valley",
        "waterway": "stream",
        "@geometry": "center"
      },
      "geometry": {
        "type": "Point",
        "coordinates": [
          -79.3174209,
          38.2460726
        ]
      },
      "id": "way/1457334292"
    },
    {
      "type": "Feature",
      "properties": {
        "@id": "way/1457334293",
        "gnis:feature_id": "1488471",
        "layer": "-1",
        "name": "Wood Draft",
        "natural": "valley",
        "tunnel": "culvert",
        "waterway": "stream",
        "@geometry": "center"
      },
      "geometry": {
        "type": "Point",
        "coordinates": [
          -79.3190666,
          38.2482785
        ]
      },
      "id": "way/1457334293"
    },
    {
      "type": "Feature",
      "properties": {
        "@id": "way/1457334294",
        "gnis:feature_id": "1488471",
        "name": "Wood Draft",
        "natural": "valley",
        "waterway": "stream",
        "@geometry": "center"
      },
      "geometry": {
        "type": "Point",
        "coordinates": [
          -79.3200092,
          38.2482255
        ]
      },
      "id": "way/1457334294"
    },
    {
      "type": "Feature",
      "properties": {
        "@id": "way/1457334295",
        "gnis:feature_id": "1488471",
        "layer": "-1",
        "name": "Wood Draft",
        "natural": "valley",
        "tunnel": "culvert",
        "waterway": "stream",
        "@geometry": "center"
      },
      "geometry": {
        "type": "Point",
        "coordinates": [
          -79.3209624,
          38.2482632
        ]
      },
      "id": "way/1457334295"
    },
    {
      "type": "Feature",
      "properties": {
        "@id": "way/1457334296",
        "gnis:feature_id": "1488471",
        "name": "Wood Draft",
        "natural": "valley",
        "waterway": "stream",
        "@geometry": "center"
      },
      "geometry": {
        "type": "Point",
        "coordinates": [
          -79.3218011,
          38.2481506
        ]
      },
      "id": "way/1457334296"
    },
    {
      "type": "Feature",
      "properties": {
        "@id": "way/1457334297",
        "gnis:feature_id": "1488471",
        "layer": "-1",
        "name": "Wood Draft",
        "natural": "valley",
        "tunnel": "culvert",
        "waterway": "stream",
        "@geometry": "center"
      },
      "geometry": {
        "type": "Point",
        "coordinates": [
          -79.3226126,
          38.2480081
        ]
      },
      "id": "way/1457334297"
    },
    {
      "type": "Feature",
      "properties": {
        "@id": "way/1457334298",
        "gnis:feature_id": "1488471",
        "name": "Wood Draft",
        "natural": "valley",
        "waterway": "stream",
        "@geometry": "center"
      },
      "geometry": {
        "type": "Point",
        "coordinates": [
          -79.3229891,
          38.247808
        ]
      },
      "id": "way/1457334298"
    },
    {
      "type": "Feature",
      "properties": {
        "@id": "way/1457334299",
        "gnis:feature_id": "1488471",
        "layer": "-1",
        "name": "Wood Draft",
        "natural": "valley",
        "tunnel": "culvert",
        "waterway": "stream",
        "@geometry": "center"
      },
      "geometry": {
        "type": "Point",
        "coordinates": [
          -79.3233742,
          38.2477475
        ]
      },
      "id": "way/1457334299"
    },
    {
      "type": "Feature",
      "properties": {
        "@id": "way/1457385182",
        "name": "Holloway Draft",
        "natural": "valley",
        "waterway": "stream",
        "@geometry": "center"
      },
      "geometry": {
        "type": "Point",
        "coordinates": [
          -79.3961029,
          38.2243259
        ]
      },
      "id": "way/1457385182"
    },
    {
      "type": "Feature",
      "properties": {
        "@id": "way/1457385183",
        "layer": "-1",
        "name": "Holloway Draft",
        "natural": "valley",
        "tunnel": "culvert",
        "waterway": "stream",
        "@geometry": "center"
      },
      "geometry": {
        "type": "Point",
        "coordinates": [
          -79.3886584,
          38.2188759
        ]
      },
      "id": "way/1457385183"
    },
    {
      "type": "Feature",
      "properties": {
        "@id": "way/1457631840",
        "gnis:feature_id": "1487942",
        "intermittent": "yes",
        "name": "Tom Lee Draft",
        "natural": "valley",
        "waterway": "stream",
        "@geometry": "center"
      },
      "geometry": {
        "type": "Point",
        "coordinates": [
          -79.4682957,
          38.1746306
        ]
      },
      "id": "way/1457631840"
    },
    {
      "type": "Feature",
      "properties": {
        "@id": "way/1457631845",
        "gnis:feature_id": "1487942",
        "intermittent": "yes",
        "name": "Tom Lee Draft",
        "natural": "valley",
        "waterway": "stream",
        "@geometry": "center"
      },
      "geometry": {
        "type": "Point",
        "coordinates": [
          -79.4832177,
          38.17921
        ]
      },
      "id": "way/1457631845"
    },
    {
      "type": "Feature",
      "properties": {
        "@id": "way/1457631846",
        "gnis:feature_id": "1487942",
        "intermittent": "yes",
        "layer": "-1",
        "name": "Tom Lee Draft",
        "natural": "valley",
        "tunnel": "culvert",
        "waterway": "stream",
        "@geometry": "center"
      },
      "geometry": {
        "type": "Point",
        "coordinates": [
          -79.4756592,
          38.1772656
        ]
      },
      "id": "way/1457631846"
    },
    {
      "type": "Feature",
      "properties": {
        "@id": "way/1461358502",
        "name": "Holloway Draft",
        "natural": "valley",
        "waterway": "stream",
        "@geometry": "center"
      },
      "geometry": {
        "type": "Point",
        "coordinates": [
          -79.3856325,
          38.2158819
        ]
      },
      "id": "way/1461358502"
    },
    {
      "type": "Feature",
      "properties": {
        "@id": "way/1461358503",
        "ele": "485",
        "gnis:feature_id": "1484449",
        "name": "Jim Hollow",
        "natural": "valley",
        "@geometry": "center"
      },
      "geometry": {
        "type": "Point",
        "coordinates": [
          -79.4184834,
          38.1196665
        ]
      },
      "id": "way/1461358503"
    },
    {
      "type": "Feature",
      "properties": {
        "@id": "way/1461360865",
        "gnis:feature_id": "1483367",
        "name": "Falls Hollow",
        "natural": "valley",
        "wikidata": "Q49800768",
        "@geometry": "center"
      },
      "geometry": {
        "type": "Point",
        "coordinates": [
          -79.2751872,
          38.1762489
        ]
      },
      "id": "way/1461360865"
    },
    {
      "type": "Feature",
      "properties": {
        "@id": "way/1461360866",
        "gnis:feature_id": "1484622",
        "name": "Kiser Hollow",
        "natural": "valley",
        "wikidata": "Q49825690",
        "@geometry": "center"
      },
      "geometry": {
        "type": "Point",
        "coordinates": [
          -79.4001674,
          38.1345978
        ]
      },
      "id": "way/1461360866"
    },
    {
      "type": "Feature",
      "properties": {
        "@id": "way/1461360867",
        "gnis:feature_id": "1485244",
        "name": "Mays Hollow",
        "natural": "valley",
        "@geometry": "center"
      },
      "geometry": {
        "type": "Point",
        "coordinates": [
          -79.4132676,
          38.1248983
        ]
      },
      "id": "way/1461360867"
    },
    {
      "type": "Feature",
      "properties": {
        "@id": "way/1461364074",
        "intermittent": "yes",
        "name": "Polecat Draft",
        "natural": "valley",
        "waterway": "stream",
        "@geometry": "center"
      },
      "geometry": {
        "type": "Point",
        "coordinates": [
          -78.8799647,
          38.2242358
        ]
      },
      "id": "way/1461364074"
    },
    {
      "type": "Feature",
      "properties": {
        "@id": "way/1461364075",
        "intermittent": "yes",
        "layer": "-1",
        "name": "Polecat Draft",
        "natural": "valley",
        "tunnel": "culvert",
        "waterway": "stream",
        "@geometry": "center"
      },
      "geometry": {
        "type": "Point",
        "coordinates": [
          -78.8751491,
          38.2190246
        ]
      },
      "id": "way/1461364075"
    },
    {
      "type": "Feature",
      "properties": {
        "@id": "way/1461364080",
        "intermittent": "yes",
        "layer": "-1",
        "name": "Polecat Draft",
        "natural": "valley",
        "tunnel": "culvert",
        "waterway": "stream",
        "@geometry": "center"
      },
      "geometry": {
        "type": "Point",
        "coordinates": [
          -78.8853333,
          38.203126
        ]
      },
      "id": "way/1461364080"
    },
    {
      "type": "Feature",
      "properties": {
        "@id": "way/1461364081",
        "intermittent": "yes",
        "name": "Polecat Draft",
        "natural": "valley",
        "waterway": "stream",
        "@geometry": "center"
      },
      "geometry": {
        "type": "Point",
        "coordinates": [
          -78.886081,
          38.1990107
        ]
      },
      "id": "way/1461364081"
    },
    {
      "type": "Feature",
      "properties": {
        "@id": "way/1461364084",
        "intermittent": "yes",
        "layer": "-1",
        "name": "Polecat Draft",
        "natural": "valley",
        "tunnel": "culvert",
        "waterway": "stream",
        "@geometry": "center"
      },
      "geometry": {
        "type": "Point",
        "coordinates": [
          -78.8856623,
          38.1948536
        ]
      },
      "id": "way/1461364084"
    },
    {
      "type": "Feature",
      "properties": {
        "@id": "way/1461364085",
        "intermittent": "yes",
        "name": "Polecat Draft",
        "natural": "valley",
        "waterway": "stream",
        "@geometry": "center"
      },
      "geometry": {
        "type": "Point",
        "coordinates": [
          -78.8847062,
          38.190574
        ]
      },
      "id": "way/1461364085"
    },
    {
      "type": "Feature",
      "properties": {
        "@id": "way/1461364086",
        "intermittent": "yes",
        "layer": "-1",
        "name": "Polecat Draft",
        "natural": "valley",
        "tunnel": "culvert",
        "waterway": "stream",
        "@geometry": "center"
      },
      "geometry": {
        "type": "Point",
        "coordinates": [
          -78.8837484,
          38.1863099
        ]
      },
      "id": "way/1461364086"
    },
    {
      "type": "Feature",
      "properties": {
        "@id": "way/1461364087",
        "intermittent": "yes",
        "name": "Polecat Draft",
        "natural": "valley",
        "waterway": "stream",
        "@geometry": "center"
      },
      "geometry": {
        "type": "Point",
        "coordinates": [
          -78.8827507,
          38.1825012
        ]
      },
      "id": "way/1461364087"
    },
    {
      "type": "Feature",
      "properties": {
        "@id": "way/1461364088",
        "intermittent": "yes",
        "layer": "-1",
        "name": "Polecat Draft",
        "natural": "valley",
        "tunnel": "culvert",
        "waterway": "stream",
        "@geometry": "center"
      },
      "geometry": {
        "type": "Point",
        "coordinates": [
          -78.8817514,
          38.1786833
        ]
      },
      "id": "way/1461364088"
    },
    {
      "type": "Feature",
      "properties": {
        "@id": "way/1461364089",
        "intermittent": "yes",
        "name": "Polecat Draft",
        "natural": "valley",
        "waterway": "stream",
        "@geometry": "center"
      },
      "geometry": {
        "type": "Point",
        "coordinates": [
          -78.8810768,
          38.1759668
        ]
      },
      "id": "way/1461364089"
    },
    {
      "type": "Feature",
      "properties": {
        "@id": "way/1461364090",
        "intermittent": "yes",
        "layer": "-1",
        "name": "Polecat Draft",
        "natural": "valley",
        "tunnel": "culvert",
        "waterway": "stream",
        "@geometry": "center"
      },
      "geometry": {
        "type": "Point",
        "coordinates": [
          -78.880625,
          38.1732515
        ]
      },
      "id": "way/1461364090"
    },
    {
      "type": "Feature",
      "properties": {
        "@id": "way/1461364091",
        "intermittent": "yes",
        "name": "Polecat Draft",
        "natural": "valley",
        "waterway": "stream",
        "@geometry": "center"
      },
      "geometry": {
        "type": "Point",
        "coordinates": [
          -78.8802429,
          38.171999
        ]
      },
      "id": "way/1461364091"
    },
    {
      "type": "Feature",
      "properties": {
        "@id": "way/1461364092",
        "intermittent": "yes",
        "layer": "-1",
        "name": "Polecat Draft",
        "natural": "valley",
        "tunnel": "culvert",
        "waterway": "stream",
        "@geometry": "center"
      },
      "geometry": {
        "type": "Point",
        "coordinates": [
          -78.8799547,
          38.1707451
        ]
      },
      "id": "way/1461364092"
    },
    {
      "type": "Feature",
      "properties": {
        "@id": "way/1461364093",
        "intermittent": "yes",
        "name": "Polecat Draft",
        "natural": "valley",
        "waterway": "stream",
        "@geometry": "center"
      },
      "geometry": {
        "type": "Point",
        "coordinates": [
          -78.8820272,
          38.1683541
        ]
      },
      "id": "way/1461364093"
    },
    {
      "type": "Feature",
      "properties": {
        "@id": "way/1461364094",
        "intermittent": "yes",
        "layer": "-1",
        "name": "Polecat Draft",
        "natural": "valley",
        "tunnel": "culvert",
        "waterway": "stream",
        "@geometry": "center"
      },
      "geometry": {
        "type": "Point",
        "coordinates": [
          -78.8842177,
          38.1659547
        ]
      },
      "id": "way/1461364094"
    },
    {
      "type": "Feature",
      "properties": {
        "@id": "way/1461364095",
        "intermittent": "yes",
        "name": "Polecat Draft",
        "natural": "valley",
        "waterway": "stream",
        "@geometry": "center"
      },
      "geometry": {
        "type": "Point",
        "coordinates": [
          -78.8848806,
          38.1650671
        ]
      },
      "id": "way/1461364095"
    },
    {
      "type": "Feature",
      "properties": {
        "@id": "way/1461364096",
        "intermittent": "yes",
        "layer": "-1",
        "name": "Polecat Draft",
        "natural": "valley",
        "tunnel": "culvert",
        "waterway": "stream",
        "@geometry": "center"
      },
      "geometry": {
        "type": "Point",
        "coordinates": [
          -78.8855277,
          38.1642024
        ]
      },
      "id": "way/1461364096"
    },
    {
      "type": "Feature",
      "properties": {
        "@id": "way/1461364097",
        "intermittent": "yes",
        "name": "Polecat Draft",
        "natural": "valley",
        "waterway": "stream",
        "@geometry": "center"
      },
      "geometry": {
        "type": "Point",
        "coordinates": [
          -78.88638,
          38.1632083
        ]
      },
      "id": "way/1461364097"
    },
    {
      "type": "Feature",
      "properties": {
        "@id": "way/1461364098",
        "intermittent": "yes",
        "layer": "-1",
        "name": "Polecat Draft",
        "natural": "valley",
        "tunnel": "culvert",
        "waterway": "stream",
        "@geometry": "center"
      },
      "geometry": {
        "type": "Point",
        "coordinates": [
          -78.8872464,
          38.1622273
        ]
      },
      "id": "way/1461364098"
    },
    {
      "type": "Feature",
      "properties": {
        "@id": "way/1461364099",
        "intermittent": "yes",
        "name": "Polecat Draft",
        "natural": "valley",
        "waterway": "stream",
        "@geometry": "center"
      },
      "geometry": {
        "type": "Point",
        "coordinates": [
          -78.8891836,
          38.1588582
        ]
      },
      "id": "way/1461364099"
    },
    {
      "type": "Feature",
      "properties": {
        "@id": "way/1461364100",
        "intermittent": "yes",
        "name": "Polecat Draft",
        "natural": "valley",
        "waterway": "stream",
        "@geometry": "center"
      },
      "geometry": {
        "type": "Point",
        "coordinates": [
          -78.8801598,
          38.2110355
        ]
      },
      "id": "way/1461364100"
    },
    {
      "type": "Feature",
      "properties": {
        "@id": "way/1461364101",
        "name": "Glade Valley",
        "natural": "valley",
        "@geometry": "center"
      },
      "geometry": {
        "type": "Point",
        "coordinates": [
          -79.0485203,
          38.2881877
        ]
      },
      "id": "way/1461364101"
    },
    {
      "type": "Feature",
      "properties": {
        "@id": "way/1461364102",
        "gnis:feature_id": "1465889",
        "name": "Dorsey Hanger Hollow",
        "natural": "valley",
        "wikidata": "Q49797000",
        "@geometry": "center"
      },
      "geometry": {
        "type": "Point",
        "coordinates": [
          -78.7985295,
          38.1530256
        ]
      },
      "id": "way/1461364102"
    },
    {
      "type": "Feature",
      "properties": {
        "@id": "way/1513206201",
        "alt_name": "Arnold's Valley",
        "name": "Arnold Valley",
        "natural": "valley",
        "wikidata": "Q49774902",
        "@geometry": "center"
      },
      "geometry": {
        "type": "Point",
        "coordinates": [
          -79.5011044,
          37.5916263
        ]
      },
      "id": "way/1513206201"
    }
  ]
}