{
  "type": "FeatureCollection",
  "generator": "overpass-turbo",
  "copyright": "The data included in this document is from www.openstreetmap.org. The data is made available under ODbL.",
  "timestamp": "2026-06-28T01:02:57Z",
  "features": [
    {
      "type": "Feature",
      "properties": {
        "@id": "relation/4107051",
        "ele": "2",
        "gnis:feature_id": "597630",
        "name": "Kent Island",
        "place": "island",
        "type": "multipolygon",
        "wikidata": "Q6391790",
        "wikipedia": "en:Kent Island (Maryland)",
        "@geometry": "center"
      },
      "geometry": {
        "type": "Point",
        "coordinates": [
          -76.310027,
          38.93813
        ]
      },
      "id": "relation/4107051"
    },
    {
      "type": "Feature",
      "properties": {
        "@id": "relation/4145595",
        "ele": "1",
        "name": "Wallops Island",
        "place": "island",
        "type": "multipolygon",
        "wikidata": "Q2110026",
        "wikipedia": "en:Wallops Island",
        "@geometry": "center"
      },
      "geometry": {
        "type": "Point",
        "coordinates": [
          -75.4765369,
          37.8384517
        ]
      },
      "id": "relation/4145595"
    },
    {
      "type": "Feature",
      "properties": {
        "@id": "relation/5253290",
        "gnis:feature_id": "1474224",
        "name": "Assateague Island",
        "place": "island",
        "type": "multipolygon",
        "wikidata": "Q289161",
        "@geometry": "center"
      },
      "geometry": {
        "type": "Point",
        "coordinates": [
          -75.2450442,
          38.0869774
        ]
      },
      "id": "relation/5253290"
    },
    {
      "type": "Feature",
      "properties": {
        "@id": "relation/5803858",
        "ele": "1",
        "gnis:feature_id": "583720",
        "name": "Cherry Island",
        "place": "island",
        "source": "PGS",
        "type": "multipolygon",
        "wikidata": "Q49635024",
        "@geometry": "center"
      },
      "geometry": {
        "type": "Point",
        "coordinates": [
          -76.0325582,
          38.021064
        ]
      },
      "id": "relation/5803858"
    },
    {
      "type": "Feature",
      "properties": {
        "@id": "relation/5806728",
        "place": "island",
        "type": "multipolygon",
        "@geometry": "center"
      },
      "geometry": {
        "type": "Point",
        "coordinates": [
          -76.037122,
          37.9741002
        ]
      },
      "id": "relation/5806728"
    },
    {
      "type": "Feature",
      "properties": {
        "@id": "relation/6840769",
        "ele": "0",
        "gnis:feature_id": "586658",
        "name": "Poplar Island",
        "place": "island",
        "type": "multipolygon",
        "wikidata": "Q7229413",
        "wikipedia": "en:Poplar Island (Chesapeake Bay)",
        "@geometry": "center"
      },
      "geometry": {
        "type": "Point",
        "coordinates": [
          -76.3748706,
          38.7696114
        ]
      },
      "id": "relation/6840769"
    },
    {
      "type": "Feature",
      "properties": {
        "@id": "relation/6904431",
        "leaf_type": "mixed",
        "name": "Guinea Island",
        "natural": "wood",
        "place": "island",
        "type": "multipolygon",
        "@geometry": "center"
      },
      "geometry": {
        "type": "Point",
        "coordinates": [
          -75.9874804,
          38.3915435
        ]
      },
      "id": "relation/6904431"
    },
    {
      "type": "Feature",
      "properties": {
        "@id": "relation/6990787",
        "ele": "1",
        "gnis:feature_id": "1467236",
        "name": "Goodwin Islands",
        "place": "island",
        "type": "multipolygon",
        "wikidata": "Q49639278",
        "@geometry": "center"
      },
      "geometry": {
        "type": "Point",
        "coordinates": [
          -76.4004468,
          37.2205728
        ]
      },
      "id": "relation/6990787"
    },
    {
      "type": "Feature",
      "properties": {
        "@id": "relation/7945558",
        "ele": "3",
        "gnis:feature_id": "583603",
        "name": "Carroll Island",
        "place": "island",
        "type": "multipolygon",
        "@geometry": "center"
      },
      "geometry": {
        "type": "Point",
        "coordinates": [
          -76.3452683,
          39.3192016
        ]
      },
      "id": "relation/7945558"
    },
    {
      "type": "Feature",
      "properties": {
        "@id": "relation/8249595",
        "gnis:feature_id": "1491085",
        "name": "Fishermans Island",
        "place": "island",
        "source": "PGS",
        "type": "multipolygon",
        "wikidata": "Q5454915",
        "wikipedia": "en:Fisherman Island (Virginia)",
        "@geometry": "center"
      },
      "geometry": {
        "type": "Point",
        "coordinates": [
          -75.9603166,
          37.0973345
        ]
      },
      "id": "relation/8249595"
    },
    {
      "type": "Feature",
      "properties": {
        "@id": "relation/8313084",
        "ele": "1",
        "gnis:feature_id": "1467620",
        "name": "Gwynn's Island",
        "place": "island",
        "type": "multipolygon",
        "@geometry": "center"
      },
      "geometry": {
        "type": "Point",
        "coordinates": [
          -76.2900042,
          37.4953876
        ]
      },
      "id": "relation/8313084"
    },
    {
      "type": "Feature",
      "properties": {
        "@id": "relation/8434191",
        "gnis:feature_id": "586649",
        "name": "Pope Island",
        "place": "island",
        "type": "multipolygon",
        "@geometry": "center"
      },
      "geometry": {
        "type": "Point",
        "coordinates": [
          -75.2515589,
          38.0366379
        ]
      },
      "id": "relation/8434191"
    },
    {
      "type": "Feature",
      "properties": {
        "@id": "relation/10384827",
        "ele": "1",
        "gnis:feature_id": "586761",
        "name": "Ragged Island",
        "place": "island",
        "type": "multipolygon",
        "@geometry": "center"
      },
      "geometry": {
        "type": "Point",
        "coordinates": [
          -76.2754925,
          38.5374873
        ]
      },
      "id": "relation/10384827"
    },
    {
      "type": "Feature",
      "properties": {
        "@id": "relation/11699379",
        "gnis:feature_id": "1479576",
        "name": "Ragged Island",
        "place": "island",
        "type": "multipolygon",
        "@geometry": "center"
      },
      "geometry": {
        "type": "Point",
        "coordinates": [
          -75.9376486,
          36.6295389
        ]
      },
      "id": "relation/11699379"
    },
    {
      "type": "Feature",
      "properties": {
        "@id": "relation/11699380",
        "gnis:feature_id": "1478990",
        "name": "Long Island",
        "place": "island",
        "type": "multipolygon",
        "@geometry": "center"
      },
      "geometry": {
        "type": "Point",
        "coordinates": [
          -75.9355245,
          36.6633253
        ]
      },
      "id": "relation/11699380"
    },
    {
      "type": "Feature",
      "properties": {
        "@id": "relation/11882754",
        "ele": "1",
        "gnis:feature_id": "588357",
        "name": "Wroten Island",
        "place": "island",
        "type": "multipolygon",
        "wikidata": "Q34787628",
        "@geometry": "center"
      },
      "geometry": {
        "type": "Point",
        "coordinates": [
          -76.1851509,
          38.3264279
        ]
      },
      "id": "relation/11882754"
    },
    {
      "type": "Feature",
      "properties": {
        "@id": "relation/11882758",
        "ele": "0",
        "gnis:feature_id": "583036",
        "name": "Barren Island",
        "place": "island",
        "type": "multipolygon",
        "@geometry": "center"
      },
      "geometry": {
        "type": "Point",
        "coordinates": [
          -76.2586619,
          38.3344185
        ]
      },
      "id": "relation/11882758"
    },
    {
      "type": "Feature",
      "properties": {
        "@id": "relation/11882759",
        "ele": "1",
        "gnis:feature_id": "585813",
        "name": "Middle Hooper Island",
        "place": "island",
        "type": "multipolygon",
        "wikidata": "Q49658331",
        "@geometry": "center"
      },
      "geometry": {
        "type": "Point",
        "coordinates": [
          -76.1786975,
          38.268415
        ]
      },
      "id": "relation/11882759"
    },
    {
      "type": "Feature",
      "properties": {
        "@id": "relation/11882760",
        "ele": "0",
        "gnis:feature_id": "585621",
        "name": "Lower Hooper Island",
        "place": "island",
        "type": "multipolygon",
        "wikidata": "Q49655026",
        "@geometry": "center"
      },
      "geometry": {
        "type": "Point",
        "coordinates": [
          -76.139245,
          38.2406297
        ]
      },
      "id": "relation/11882760"
    },
    {
      "type": "Feature",
      "properties": {
        "@id": "relation/11882763",
        "ele": "1",
        "gnis:feature_id": "587981",
        "name": "Upper Hooper Island",
        "place": "island",
        "type": "multipolygon",
        "@geometry": "center"
      },
      "geometry": {
        "type": "Point",
        "coordinates": [
          -76.2202103,
          38.3237822
        ]
      },
      "id": "relation/11882763"
    },
    {
      "type": "Feature",
      "properties": {
        "@id": "relation/11884239",
        "ele": "0",
        "gnis:feature_id": "588750",
        "landuse": "military",
        "name": "Bloodsworth Island",
        "official_name": "Bloodsworth Island Range",
        "place": "island",
        "type": "multipolygon",
        "wikidata": "Q4928029",
        "wikipedia": "en:Bloodsworth Island",
        "@geometry": "center"
      },
      "geometry": {
        "type": "Point",
        "coordinates": [
          -76.0545991,
          38.176014
        ]
      },
      "id": "relation/11884239"
    },
    {
      "type": "Feature",
      "properties": {
        "@id": "relation/11888112",
        "ele": "1",
        "gnis:feature_id": "588789",
        "name": "Janes Island",
        "natural": "wetland",
        "place": "island",
        "type": "multipolygon",
        "wetland": "marsh",
        "wikidata": "Q41982788",
        "@geometry": "center"
      },
      "geometry": {
        "type": "Point",
        "coordinates": [
          -75.8697394,
          38.0041703
        ]
      },
      "id": "relation/11888112"
    },
    {
      "type": "Feature",
      "properties": {
        "@id": "relation/11899786",
        "ele": "0",
        "gnis:feature_id": "1852600",
        "name": "Smith Island",
        "place": "island",
        "population": "202",
        "type": "multipolygon",
        "@geometry": "center"
      },
      "geometry": {
        "type": "Point",
        "coordinates": [
          -76.0325851,
          37.9880821
        ]
      },
      "id": "relation/11899786"
    },
    {
      "type": "Feature",
      "properties": {
        "@id": "relation/12286127",
        "ele": "0",
        "gnis:feature_id": "1467094",
        "name": "Gilliams Island",
        "place": "island",
        "type": "multipolygon",
        "wikidata": "Q49639047",
        "@geometry": "center"
      },
      "geometry": {
        "type": "Point",
        "coordinates": [
          -77.3599378,
          37.2994509
        ]
      },
      "id": "relation/12286127"
    },
    {
      "type": "Feature",
      "properties": {
        "@id": "relation/12738012",
        "place": "island",
        "type": "multipolygon",
        "@geometry": "center"
      },
      "geometry": {
        "type": "Point",
        "coordinates": [
          -79.4395306,
          36.5755325
        ]
      },
      "id": "relation/12738012"
    },
    {
      "type": "Feature",
      "properties": {
        "@id": "relation/13248610",
        "gnis:feature_id": "588081",
        "name": "Watkins Island",
        "place": "island",
        "type": "multipolygon",
        "@geometry": "center"
      },
      "geometry": {
        "type": "Point",
        "coordinates": [
          -77.2755472,
          39.0428342
        ]
      },
      "id": "relation/13248610"
    },
    {
      "type": "Feature",
      "properties": {
        "@id": "relation/13729183",
        "name": "Long Island",
        "name:chr": "ᎠᎼᏰᎵ ᎫᎾᎯᏔ",
        "place": "island",
        "type": "multipolygon",
        "wikidata": "Q6672650",
        "wikipedia": "en:Long Island (Tennessee)",
        "@geometry": "center"
      },
      "geometry": {
        "type": "Point",
        "coordinates": [
          -82.5643718,
          36.5305437
        ]
      },
      "id": "relation/13729183"
    },
    {
      "type": "Feature",
      "properties": {
        "@id": "relation/13941373",
        "ele": "5",
        "gnis:feature_id": "598289",
        "name": "Wye Island",
        "place": "island",
        "type": "multipolygon",
        "wikidata": "Q34783600",
        "@geometry": "center"
      },
      "geometry": {
        "type": "Point",
        "coordinates": [
          -76.1470088,
          38.8855396
        ]
      },
      "id": "relation/13941373"
    },
    {
      "type": "Feature",
      "properties": {
        "@id": "relation/14257767",
        "ele": "3",
        "gnis:feature_id": "584232",
        "name": "Eastern Neck Island",
        "place": "island",
        "type": "multipolygon",
        "wikidata": "Q49637350",
        "wikipedia": "ceb:Eastern Neck Island",
        "@geometry": "center"
      },
      "geometry": {
        "type": "Point",
        "coordinates": [
          -76.221333,
          39.0316638
        ]
      },
      "id": "relation/14257767"
    },
    {
      "type": "Feature",
      "properties": {
        "@id": "relation/14322069",
        "ele": "0",
        "gnis:feature_id": "588748",
        "landuse": "military",
        "name": "Billys Island",
        "place": "island",
        "type": "multipolygon",
        "@geometry": "center"
      },
      "geometry": {
        "type": "Point",
        "coordinates": [
          -76.0683016,
          38.2026845
        ]
      },
      "id": "relation/14322069"
    },
    {
      "type": "Feature",
      "properties": {
        "@id": "relation/14322139",
        "ele": "0",
        "gnis:feature_id": "588802",
        "landuse": "military",
        "name": "Pone Island",
        "place": "island",
        "type": "multipolygon",
        "@geometry": "center"
      },
      "geometry": {
        "type": "Point",
        "coordinates": [
          -76.0790226,
          38.1651203
        ]
      },
      "id": "relation/14322139"
    },
    {
      "type": "Feature",
      "properties": {
        "@id": "relation/14702738",
        "gnis:feature_id": "1465176",
        "name": "Conrad Island",
        "place": "island",
        "type": "multipolygon",
        "wikidata": "Q49635559",
        "@geometry": "center"
      },
      "geometry": {
        "type": "Point",
        "coordinates": [
          -77.2210208,
          38.6486267
        ]
      },
      "id": "relation/14702738"
    },
    {
      "type": "Feature",
      "properties": {
        "@id": "relation/15309812",
        "ele": "2",
        "gnis:feature_id": "587801",
        "name": "Tilghman Island",
        "old_name": "Tilghman's Island",
        "place": "island",
        "type": "multipolygon",
        "wikidata": "Q754658",
        "@geometry": "center"
      },
      "geometry": {
        "type": "Point",
        "coordinates": [
          -76.3342038,
          38.6956444
        ]
      },
      "id": "relation/15309812"
    },
    {
      "type": "Feature",
      "properties": {
        "@id": "relation/16513926",
        "name": "Jamestown Island",
        "place": "island",
        "type": "multipolygon",
        "@geometry": "center"
      },
      "geometry": {
        "type": "Point",
        "coordinates": [
          -76.7590478,
          37.2044496
        ]
      },
      "id": "relation/16513926"
    },
    {
      "type": "Feature",
      "properties": {
        "@id": "relation/16686239",
        "ele": "90",
        "gnis:feature_id": "1748954",
        "name": "Jerdone Island",
        "place": "island",
        "type": "multipolygon",
        "wikidata": "Q49644471",
        "@geometry": "center"
      },
      "geometry": {
        "type": "Point",
        "coordinates": [
          -77.7461194,
          38.0063943
        ]
      },
      "id": "relation/16686239"
    },
    {
      "type": "Feature",
      "properties": {
        "@id": "relation/16747911",
        "gnis:feature_id": "1469818",
        "name": "Long Island",
        "place": "island",
        "type": "multipolygon",
        "@geometry": "center"
      },
      "geometry": {
        "type": "Point",
        "coordinates": [
          -79.0930757,
          37.0688767
        ]
      },
      "id": "relation/16747911"
    },
    {
      "type": "Feature",
      "properties": {
        "@id": "relation/16748015",
        "ele": "141",
        "gnis:feature_id": "1467648",
        "name": "Hale Islands",
        "place": "island",
        "type": "multipolygon",
        "wikidata": "Q49640166",
        "@geometry": "center"
      },
      "geometry": {
        "type": "Point",
        "coordinates": [
          -79.0861114,
          37.0630706
        ]
      },
      "id": "relation/16748015"
    },
    {
      "type": "Feature",
      "properties": {
        "@id": "relation/17882229",
        "name": "Cobb Island",
        "place": "island",
        "type": "multipolygon",
        "wikidata": "Q49635361",
        "@geometry": "center"
      },
      "geometry": {
        "type": "Point",
        "coordinates": [
          -76.8509315,
          38.2624815
        ]
      },
      "id": "relation/17882229"
    },
    {
      "type": "Feature",
      "properties": {
        "@id": "relation/19662718",
        "ele": "48",
        "gnis:feature_id": "1475908",
        "name": "Tuckahoe Island",
        "place": "island",
        "type": "multipolygon",
        "wikidata": "Q130310515",
        "@geometry": "center"
      },
      "geometry": {
        "type": "Point",
        "coordinates": [
          -77.6164428,
          37.5626381
        ]
      },
      "id": "relation/19662718"
    },
    {
      "type": "Feature",
      "properties": {
        "@id": "relation/20393220",
        "name": "Columbia Island",
        "place": "island",
        "type": "multipolygon",
        "wikidata": "Q2920169",
        "wikipedia": "en:Columbia Island (Washington, D.C.)",
        "@geometry": "center"
      },
      "geometry": {
        "type": "Point",
        "coordinates": [
          -77.0552981,
          38.8823347
        ]
      },
      "id": "relation/20393220"
    },
    {
      "type": "Feature",
      "properties": {
        "@id": "relation/20393232",
        "name": "Theodore Roosevelt Island",
        "name:de": "Theodore-Roosevelt-Insel",
        "name:en": "Theodore Roosevelt Island",
        "old_name": "Analostan Island",
        "place": "island",
        "tourism": "yes",
        "type": "multipolygon",
        "wikipedia": "en:Theodore Roosevelt Island",
        "@geometry": "center"
      },
      "geometry": {
        "type": "Point",
        "coordinates": [
          -77.0630057,
          38.8953841
        ]
      },
      "id": "relation/20393232"
    },
    {
      "type": "Feature",
      "properties": {
        "@id": "relation/20393234",
        "dataset": "WoodPly",
        "dcgis:gis_id": "500219",
        "gnis:feature_id": "528951",
        "name": "Little Island",
        "place": "island",
        "source": "dcgis",
        "type": "multipolygon",
        "wikidata": "Q6650455",
        "wikipedia": "en:Little Island (District of Columbia)",
        "@geometry": "center"
      },
      "geometry": {
        "type": "Point",
        "coordinates": [
          -77.0598622,
          38.8911517
        ]
      },
      "id": "relation/20393234"
    },
    {
      "type": "Feature",
      "properties": {
        "@id": "relation/20681247",
        "ele": "0",
        "gnis:feature_id": "586941",
        "name": "Round Island",
        "natural": "wetland",
        "place": "island",
        "type": "multipolygon",
        "wetland": "marsh",
        "@geometry": "center"
      },
      "geometry": {
        "type": "Point",
        "coordinates": [
          -75.8167096,
          38.4506689
        ]
      },
      "id": "relation/20681247"
    },
    {
      "type": "Feature",
      "properties": {
        "@id": "way/21444037",
        "name": "Big Marsh Point",
        "natural": "wetland",
        "place": "island",
        "source": "PGS",
        "wetland": "marsh",
        "@geometry": "center"
      },
      "geometry": {
        "type": "Point",
        "coordinates": [
          -76.9098115,
          37.3561945
        ]
      },
      "id": "way/21444037"
    },
    {
      "type": "Feature",
      "properties": {
        "@id": "way/21577174",
        "gnis:feature_id": "594988",
        "name": "Tippity Wichity Island",
        "natural": "coastline",
        "place": "island",
        "source": "PGS",
        "wikipedia": "ceb:Tippity Wichity Island",
        "@geometry": "center"
      },
      "geometry": {
        "type": "Point",
        "coordinates": [
          -76.4692248,
          38.2132952
        ]
      },
      "id": "way/21577174"
    },
    {
      "type": "Feature",
      "properties": {
        "@id": "way/21777082",
        "gnis:feature_id": "588926",
        "name": "Hart-Miller Island",
        "natural": "coastline",
        "place": "island",
        "wikidata": "Q5674221",
        "@geometry": "center"
      },
      "geometry": {
        "type": "Point",
        "coordinates": [
          -76.365421,
          39.2497532
        ]
      },
      "id": "way/21777082"
    },
    {
      "type": "Feature",
      "properties": {
        "@id": "way/21777307",
        "ele": "3",
        "gnis:feature_id": "586646",
        "name": "Pooles Island",
        "natural": "coastline",
        "place": "island",
        "source": "PGS",
        "@geometry": "center"
      },
      "geometry": {
        "type": "Point",
        "coordinates": [
          -76.2653108,
          39.2835367
        ]
      },
      "id": "way/21777307"
    },
    {
      "type": "Feature",
      "properties": {
        "@id": "way/28294899",
        "gnis:feature_id": "584919",
        "name": "Heaters Island",
        "natural": "wood",
        "place": "island",
        "source": "USGS Ortho",
        "@geometry": "center"
      },
      "geometry": {
        "type": "Point",
        "coordinates": [
          -77.5304316,
          39.2655877
        ]
      },
      "id": "way/28294899"
    },
    {
      "type": "Feature",
      "properties": {
        "@id": "way/28309494",
        "gnis:feature_id": "587994",
        "name": "Van Deventer Island",
        "natural": "wood",
        "place": "island",
        "source": "USGS Ortho",
        "@geometry": "center"
      },
      "geometry": {
        "type": "Point",
        "coordinates": [
          -77.4118947,
          39.069091
        ]
      },
      "id": "way/28309494"
    },
    {
      "type": "Feature",
      "properties": {
        "@id": "way/28353150",
        "place": "island",
        "@geometry": "center"
      },
      "geometry": {
        "type": "Point",
        "coordinates": [
          -77.7925986,
          39.2606202
        ]
      },
      "id": "way/28353150"
    },
    {
      "type": "Feature",
      "properties": {
        "@id": "way/28412613",
        "gnis:feature_id": "1536098",
        "name": "Blennerhassett Island",
        "place": "island",
        "wikidata": "Q4926073",
        "@geometry": "center"
      },
      "geometry": {
        "type": "Point",
        "coordinates": [
          -81.6274363,
          39.2721095
        ]
      },
      "id": "way/28412613"
    },
    {
      "type": "Feature",
      "properties": {
        "@id": "way/28434404",
        "ele": "187",
        "gnis:feature_id": "1552066",
        "name": "Middle Island",
        "place": "island",
        "wikidata": "Q6841471",
        "wikipedia": "en:Middle Island (West Virginia)",
        "@geometry": "center"
      },
      "geometry": {
        "type": "Point",
        "coordinates": [
          -81.1999907,
          39.4032253
        ]
      },
      "id": "way/28434404"
    },
    {
      "type": "Feature",
      "properties": {
        "@id": "way/31276507",
        "ele": "185",
        "gnis:feature_id": "1550537",
        "name": "Buckley Island",
        "old_name": "Kerrs Island;Meigs Island",
        "place": "island",
        "wikidata": "Q4983358",
        "wikipedia": "en:Buckley Island",
        "@geometry": "center"
      },
      "geometry": {
        "type": "Point",
        "coordinates": [
          -81.4275066,
          39.39711
        ]
      },
      "id": "way/31276507"
    },
    {
      "type": "Feature",
      "properties": {
        "@id": "way/31409660",
        "ele": "177",
        "gnis:feature_id": "1083973",
        "name": "Buffington Island",
        "place": "island",
        "source": "Yahoo",
        "wikidata": "Q4985973",
        "wikipedia": "en:Buffington Island",
        "@geometry": "center"
      },
      "geometry": {
        "type": "Point",
        "coordinates": [
          -81.7720104,
          38.9892407
        ]
      },
      "id": "way/31409660"
    },
    {
      "type": "Feature",
      "properties": {
        "@id": "way/39302820",
        "gnis:feature_id": "588813",
        "name": "Selden Island",
        "place": "island",
        "source": "USGS Ortho",
        "wikidata": "Q7447595",
        "wikipedia": "en:Selden Island",
        "@geometry": "center"
      },
      "geometry": {
        "type": "Point",
        "coordinates": [
          -77.4487712,
          39.0787192
        ]
      },
      "id": "way/39302820"
    },
    {
      "type": "Feature",
      "properties": {
        "@id": "way/40151524",
        "ele": "1",
        "gnis:feature_id": "1470655",
        "name": "Mockhorn Island",
        "place": "island",
        "wikidata": "Q49659083",
        "@geometry": "center"
      },
      "geometry": {
        "type": "Point",
        "coordinates": [
          -75.8807812,
          37.2221075
        ]
      },
      "id": "way/40151524"
    },
    {
      "type": "Feature",
      "properties": {
        "@id": "way/67140057",
        "dataset": "WoodPly",
        "dcgis:gis_id": "501278",
        "natural": "wood",
        "place": "island",
        "source": "dcgis",
        "@geometry": "center"
      },
      "geometry": {
        "type": "Point",
        "coordinates": [
          -76.9479176,
          38.9130605
        ]
      },
      "id": "way/67140057"
    },
    {
      "type": "Feature",
      "properties": {
        "@id": "way/67140093",
        "dataset": "WoodPly",
        "dcgis:gis_id": "501287",
        "natural": "wood",
        "place": "island",
        "source": "dcgis",
        "@geometry": "center"
      },
      "geometry": {
        "type": "Point",
        "coordinates": [
          -76.9460901,
          38.9137173
        ]
      },
      "id": "way/67140093"
    },
    {
      "type": "Feature",
      "properties": {
        "@id": "way/67140101",
        "dataset": "WoodPly",
        "dcgis:gis_id": "501208",
        "natural": "wood",
        "place": "island",
        "source": "dcgis",
        "@geometry": "center"
      },
      "geometry": {
        "type": "Point",
        "coordinates": [
          -76.9619235,
          38.8939245
        ]
      },
      "id": "way/67140101"
    },
    {
      "type": "Feature",
      "properties": {
        "@id": "way/67140121",
        "dataset": "WoodPly",
        "dcgis:gis_id": "501210",
        "natural": "wood",
        "place": "island",
        "source": "dcgis",
        "@geometry": "center"
      },
      "geometry": {
        "type": "Point",
        "coordinates": [
          -76.9433723,
          38.9148233
        ]
      },
      "id": "way/67140121"
    },
    {
      "type": "Feature",
      "properties": {
        "@id": "way/97517560",
        "place": "island",
        "@geometry": "center"
      },
      "geometry": {
        "type": "Point",
        "coordinates": [
          -76.8634649,
          39.2414044
        ]
      },
      "id": "way/97517560"
    },
    {
      "type": "Feature",
      "properties": {
        "@id": "way/97517564",
        "place": "island",
        "@geometry": "center"
      },
      "geometry": {
        "type": "Point",
        "coordinates": [
          -76.8606292,
          39.2415948
        ]
      },
      "id": "way/97517564"
    },
    {
      "type": "Feature",
      "properties": {
        "@id": "way/97517567",
        "place": "island",
        "@geometry": "center"
      },
      "geometry": {
        "type": "Point",
        "coordinates": [
          -76.8663624,
          39.2404271
        ]
      },
      "id": "way/97517567"
    },
    {
      "type": "Feature",
      "properties": {
        "@id": "way/97517570",
        "place": "island",
        "@geometry": "center"
      },
      "geometry": {
        "type": "Point",
        "coordinates": [
          -76.8643024,
          39.2411084
        ]
      },
      "id": "way/97517570"
    },
    {
      "type": "Feature",
      "properties": {
        "@id": "way/97517572",
        "place": "island",
        "@geometry": "center"
      },
      "geometry": {
        "type": "Point",
        "coordinates": [
          -76.8652069,
          39.240588
        ]
      },
      "id": "way/97517572"
    },
    {
      "type": "Feature",
      "properties": {
        "@id": "way/117019070",
        "place": "island",
        "source": "Bing",
        "@geometry": "center"
      },
      "geometry": {
        "type": "Point",
        "coordinates": [
          -75.6208111,
          39.4655033
        ]
      },
      "id": "way/117019070"
    },
    {
      "type": "Feature",
      "properties": {
        "@id": "way/117019096",
        "place": "island",
        "source": "Bing",
        "@geometry": "center"
      },
      "geometry": {
        "type": "Point",
        "coordinates": [
          -75.6155271,
          39.464617
        ]
      },
      "id": "way/117019096"
    },
    {
      "type": "Feature",
      "properties": {
        "@id": "way/117019099",
        "place": "island",
        "source": "Bing",
        "@geometry": "center"
      },
      "geometry": {
        "type": "Point",
        "coordinates": [
          -75.6139342,
          39.4586487
        ]
      },
      "id": "way/117019099"
    },
    {
      "type": "Feature",
      "properties": {
        "@id": "way/119408771",
        "natural": "wood",
        "place": "island",
        "@geometry": "center"
      },
      "geometry": {
        "type": "Point",
        "coordinates": [
          -76.9614888,
          38.9063713
        ]
      },
      "id": "way/119408771"
    },
    {
      "type": "Feature",
      "properties": {
        "@id": "way/121051558",
        "natural": "wood",
        "place": "island",
        "@geometry": "center"
      },
      "geometry": {
        "type": "Point",
        "coordinates": [
          -76.9644751,
          38.9025309
        ]
      },
      "id": "way/121051558"
    },
    {
      "type": "Feature",
      "properties": {
        "@id": "way/136300987",
        "ele": "57",
        "gnis:feature_id": "1466220",
        "name": "Elk Island",
        "place": "island",
        "@geometry": "center"
      },
      "geometry": {
        "type": "Point",
        "coordinates": [
          -78.1124924,
          37.7141101
        ]
      },
      "id": "way/136300987"
    },
    {
      "type": "Feature",
      "properties": {
        "@id": "way/137131962",
        "gnis:feature_id": "584887",
        "name": "Harrison Island",
        "place": "island",
        "source": "USGS Ortho",
        "wikidata": "Q14712498",
        "@geometry": "center"
      },
      "geometry": {
        "type": "Point",
        "coordinates": [
          -77.5191363,
          39.1333475
        ]
      },
      "id": "way/137131962"
    },
    {
      "type": "Feature",
      "properties": {
        "@id": "way/137131974",
        "gnis:feature_id": "585728",
        "name": "Mason Island",
        "place": "island",
        "source": "USGS Ortho",
        "wikidata": "Q49657379",
        "@geometry": "center"
      },
      "geometry": {
        "type": "Point",
        "coordinates": [
          -77.5037061,
          39.1761437
        ]
      },
      "id": "way/137131974"
    },
    {
      "type": "Feature",
      "properties": {
        "@id": "way/143516687",
        "natural": "wood",
        "place": "island",
        "@geometry": "center"
      },
      "geometry": {
        "type": "Point",
        "coordinates": [
          -77.200293,
          39.1638744
        ]
      },
      "id": "way/143516687"
    },
    {
      "type": "Feature",
      "properties": {
        "@id": "way/189386294",
        "place": "island",
        "@geometry": "center"
      },
      "geometry": {
        "type": "Point",
        "coordinates": [
          -76.580773,
          39.2882491
        ]
      },
      "id": "way/189386294"
    },
    {
      "type": "Feature",
      "properties": {
        "@id": "way/193363982",
        "place": "island",
        "@geometry": "center"
      },
      "geometry": {
        "type": "Point",
        "coordinates": [
          -77.0382228,
          39.0589227
        ]
      },
      "id": "way/193363982"
    },
    {
      "type": "Feature",
      "properties": {
        "@id": "way/196171486",
        "ele": "131",
        "gnis:feature_id": "1464156",
        "name": "Burwell Island",
        "place": "island",
        "wikidata": "Q49634178",
        "@geometry": "center"
      },
      "geometry": {
        "type": "Point",
        "coordinates": [
          -77.9866105,
          39.0565828
        ]
      },
      "id": "way/196171486"
    },
    {
      "type": "Feature",
      "properties": {
        "@id": "way/205356196",
        "ele": "3",
        "gnis:feature_id": "1474115",
        "name": "Scotts Island",
        "natural": "wood",
        "place": "island",
        "@geometry": "center"
      },
      "geometry": {
        "type": "Point",
        "coordinates": [
          -77.4575794,
          38.3047369
        ]
      },
      "id": "way/205356196"
    },
    {
      "type": "Feature",
      "properties": {
        "@id": "way/214738701",
        "place": "island",
        "@geometry": "center"
      },
      "geometry": {
        "type": "Point",
        "coordinates": [
          -76.5913923,
          39.2419196
        ]
      },
      "id": "way/214738701"
    },
    {
      "type": "Feature",
      "properties": {
        "@id": "way/308003588",
        "place": "island",
        "@geometry": "center"
      },
      "geometry": {
        "type": "Point",
        "coordinates": [
          -76.3976196,
          37.065342
        ]
      },
      "id": "way/308003588"
    },
    {
      "type": "Feature",
      "properties": {
        "@id": "way/370369678",
        "place": "island",
        "@geometry": "center"
      },
      "geometry": {
        "type": "Point",
        "coordinates": [
          -76.4500813,
          37.1599561
        ]
      },
      "id": "way/370369678"
    },
    {
      "type": "Feature",
      "properties": {
        "@id": "way/372669636",
        "place": "island",
        "@geometry": "center"
      },
      "geometry": {
        "type": "Point",
        "coordinates": [
          -77.3611579,
          37.2501032
        ]
      },
      "id": "way/372669636"
    },
    {
      "type": "Feature",
      "properties": {
        "@id": "way/372669637",
        "place": "island",
        "@geometry": "center"
      },
      "geometry": {
        "type": "Point",
        "coordinates": [
          -77.3603101,
          37.2512203
        ]
      },
      "id": "way/372669637"
    },
    {
      "type": "Feature",
      "properties": {
        "@id": "way/372669638",
        "place": "island",
        "@geometry": "center"
      },
      "geometry": {
        "type": "Point",
        "coordinates": [
          -77.3598095,
          37.2513802
        ]
      },
      "id": "way/372669638"
    },
    {
      "type": "Feature",
      "properties": {
        "@id": "way/372669639",
        "place": "island",
        "@geometry": "center"
      },
      "geometry": {
        "type": "Point",
        "coordinates": [
          -77.3594399,
          37.2513944
        ]
      },
      "id": "way/372669639"
    },
    {
      "type": "Feature",
      "properties": {
        "@id": "way/372669640",
        "place": "island",
        "@geometry": "center"
      },
      "geometry": {
        "type": "Point",
        "coordinates": [
          -77.3591699,
          37.2500687
        ]
      },
      "id": "way/372669640"
    },
    {
      "type": "Feature",
      "properties": {
        "@id": "way/372669641",
        "place": "island",
        "@geometry": "center"
      },
      "geometry": {
        "type": "Point",
        "coordinates": [
          -77.3587796,
          37.2510088
        ]
      },
      "id": "way/372669641"
    },
    {
      "type": "Feature",
      "properties": {
        "@id": "way/372669642",
        "place": "island",
        "@geometry": "center"
      },
      "geometry": {
        "type": "Point",
        "coordinates": [
          -77.3583892,
          37.2522992
        ]
      },
      "id": "way/372669642"
    },
    {
      "type": "Feature",
      "properties": {
        "@id": "way/372669643",
        "place": "island",
        "@geometry": "center"
      },
      "geometry": {
        "type": "Point",
        "coordinates": [
          -77.3608626,
          37.2529235
        ]
      },
      "id": "way/372669643"
    },
    {
      "type": "Feature",
      "properties": {
        "@id": "way/372669764",
        "place": "island",
        "@geometry": "center"
      },
      "geometry": {
        "type": "Point",
        "coordinates": [
          -77.3631439,
          37.2535928
        ]
      },
      "id": "way/372669764"
    },
    {
      "type": "Feature",
      "properties": {
        "@id": "way/408300028",
        "natural": "grassland",
        "place": "island",
        "@geometry": "center"
      },
      "geometry": {
        "type": "Point",
        "coordinates": [
          -79.0743693,
          39.1167656
        ]
      },
      "id": "way/408300028"
    },
    {
      "type": "Feature",
      "properties": {
        "@id": "way/408902431",
        "place": "island",
        "@geometry": "center"
      },
      "geometry": {
        "type": "Point",
        "coordinates": [
          -78.9705743,
          39.4254546
        ]
      },
      "id": "way/408902431"
    },
    {
      "type": "Feature",
      "properties": {
        "@id": "way/411964386",
        "place": "island",
        "@geometry": "center"
      },
      "geometry": {
        "type": "Point",
        "coordinates": [
          -83.6572307,
          37.6912916
        ]
      },
      "id": "way/411964386"
    },
    {
      "type": "Feature",
      "properties": {
        "@id": "way/445885370",
        "place": "island",
        "@geometry": "center"
      },
      "geometry": {
        "type": "Point",
        "coordinates": [
          -78.03788,
          39.460242
        ]
      },
      "id": "way/445885370"
    },
    {
      "type": "Feature",
      "properties": {
        "@id": "way/454929100",
        "gnis:feature_id": "1478594",
        "name": "Fish House Island",
        "place": "island",
        "wikidata": "Q49638047",
        "@geometry": "center"
      },
      "geometry": {
        "type": "Point",
        "coordinates": [
          -76.0883389,
          36.9060554
        ]
      },
      "id": "way/454929100"
    },
    {
      "type": "Feature",
      "properties": {
        "@id": "way/475492807",
        "ele": "1",
        "gnis:feature_id": "1478432",
        "name": "Cow Island",
        "natural": "coastline",
        "place": "island",
        "wikidata": "Q49635789",
        "@geometry": "center"
      },
      "geometry": {
        "type": "Point",
        "coordinates": [
          -76.3669879,
          37.1598321
        ]
      },
      "id": "way/475492807"
    },
    {
      "type": "Feature",
      "properties": {
        "@id": "way/483565514",
        "place": "island",
        "@geometry": "center"
      },
      "geometry": {
        "type": "Point",
        "coordinates": [
          -77.4692988,
          37.5973566
        ]
      },
      "id": "way/483565514"
    },
    {
      "type": "Feature",
      "properties": {
        "@id": "way/483565668",
        "place": "island",
        "@geometry": "center"
      },
      "geometry": {
        "type": "Point",
        "coordinates": [
          -77.4700049,
          37.597223
        ]
      },
      "id": "way/483565668"
    },
    {
      "type": "Feature",
      "properties": {
        "@id": "way/486471356",
        "place": "island",
        "@geometry": "center"
      },
      "geometry": {
        "type": "Point",
        "coordinates": [
          -77.1563218,
          38.8253324
        ]
      },
      "id": "way/486471356"
    },
    {
      "type": "Feature",
      "properties": {
        "@id": "way/583317708",
        "ele": "1",
        "gnis:feature_id": "1473508",
        "name": "Rogue Island",
        "natural": "coastline",
        "place": "island",
        "wikidata": "Q49675121",
        "@geometry": "center"
      },
      "geometry": {
        "type": "Point",
        "coordinates": [
          -75.7258494,
          37.3849811
        ]
      },
      "id": "way/583317708"
    },
    {
      "type": "Feature",
      "properties": {
        "@id": "way/639856097",
        "name": "Rip Raps Island",
        "place": "island",
        "wikidata": "Q49173653",
        "wikipedia": "en:Rip Raps",
        "@geometry": "center"
      },
      "geometry": {
        "type": "Point",
        "coordinates": [
          -76.3023391,
          36.9845114
        ]
      },
      "id": "way/639856097"
    },
    {
      "type": "Feature",
      "properties": {
        "@id": "way/718688483",
        "area": "yes",
        "leisure": "park",
        "man_made": "breakwater",
        "natural": "coastline",
        "operator": "Mathews County",
        "operator:type": "government",
        "operator:wikidata": "Q336948",
        "place": "island",
        "source": "Mapbox",
        "@geometry": "center"
      },
      "geometry": {
        "type": "Point",
        "coordinates": [
          -76.2778663,
          37.3010492
        ]
      },
      "id": "way/718688483"
    },
    {
      "type": "Feature",
      "properties": {
        "@id": "way/728137723",
        "name": "Goat Island",
        "place": "island",
        "@geometry": "center"
      },
      "geometry": {
        "type": "Point",
        "coordinates": [
          -75.4188324,
          38.9154319
        ]
      },
      "id": "way/728137723"
    },
    {
      "type": "Feature",
      "properties": {
        "@id": "way/737657635",
        "place": "island",
        "@geometry": "center"
      },
      "geometry": {
        "type": "Point",
        "coordinates": [
          -75.9865982,
          38.7448674
        ]
      },
      "id": "way/737657635"
    },
    {
      "type": "Feature",
      "properties": {
        "@id": "way/737659727",
        "place": "island",
        "@geometry": "center"
      },
      "geometry": {
        "type": "Point",
        "coordinates": [
          -75.9871376,
          38.7448572
        ]
      },
      "id": "way/737659727"
    },
    {
      "type": "Feature",
      "properties": {
        "@id": "way/752015276",
        "ele": "0",
        "gnis:feature_id": "585890",
        "historic": "island",
        "name": "Millers Island",
        "place": "island",
        "wikidata": "Q49658590",
        "@geometry": "center"
      },
      "geometry": {
        "type": "Point",
        "coordinates": [
          -76.070211,
          39.1575275
        ]
      },
      "id": "way/752015276"
    },
    {
      "type": "Feature",
      "properties": {
        "@id": "way/884003112",
        "place": "island",
        "@geometry": "center"
      },
      "geometry": {
        "type": "Point",
        "coordinates": [
          -77.330903,
          39.1240335
        ]
      },
      "id": "way/884003112"
    },
    {
      "type": "Feature",
      "properties": {
        "@id": "way/925261485",
        "place": "island",
        "@geometry": "center"
      },
      "geometry": {
        "type": "Point",
        "coordinates": [
          -80.1107496,
          39.4101482
        ]
      },
      "id": "way/925261485"
    },
    {
      "type": "Feature",
      "properties": {
        "@id": "way/925936497",
        "place": "island",
        "@geometry": "center"
      },
      "geometry": {
        "type": "Point",
        "coordinates": [
          -78.6665686,
          39.3930252
        ]
      },
      "id": "way/925936497"
    },
    {
      "type": "Feature",
      "properties": {
        "@id": "way/985216955",
        "name": "Holiday Island",
        "place": "island",
        "@geometry": "center"
      },
      "geometry": {
        "type": "Point",
        "coordinates": [
          -77.2264268,
          38.620787
        ]
      },
      "id": "way/985216955"
    },
    {
      "type": "Feature",
      "properties": {
        "@id": "way/1004067091",
        "ele": "1",
        "gnis:feature_id": "1676541",
        "name": "Barrett Island",
        "place": "island",
        "wikidata": "Q32832189",
        "@geometry": "center"
      },
      "geometry": {
        "type": "Point",
        "coordinates": [
          -76.4802263,
          38.3603914
        ]
      },
      "id": "way/1004067091"
    },
    {
      "type": "Feature",
      "properties": {
        "@id": "way/1160726242",
        "place": "island",
        "@geometry": "center"
      },
      "geometry": {
        "type": "Point",
        "coordinates": [
          -77.4082154,
          38.4942321
        ]
      },
      "id": "way/1160726242"
    },
    {
      "type": "Feature",
      "properties": {
        "@id": "way/1226349448",
        "natural": "wood",
        "place": "island",
        "@geometry": "center"
      },
      "geometry": {
        "type": "Point",
        "coordinates": [
          -79.0820851,
          37.0579651
        ]
      },
      "id": "way/1226349448"
    },
    {
      "type": "Feature",
      "properties": {
        "@id": "way/1236158136",
        "landcover": "trees",
        "place": "island",
        "@geometry": "center"
      },
      "geometry": {
        "type": "Point",
        "coordinates": [
          -76.6803274,
          37.2306852
        ]
      },
      "id": "way/1236158136"
    },
    {
      "type": "Feature",
      "properties": {
        "@id": "way/1236158137",
        "landcover": "trees",
        "place": "island",
        "@geometry": "center"
      },
      "geometry": {
        "type": "Point",
        "coordinates": [
          -76.6801555,
          37.2304254
        ]
      },
      "id": "way/1236158137"
    },
    {
      "type": "Feature",
      "properties": {
        "@id": "way/1286035792",
        "name": "Horton Island",
        "place": "island",
        "@geometry": "center"
      },
      "geometry": {
        "type": "Point",
        "coordinates": [
          -82.9375309,
          36.5728175
        ]
      },
      "id": "way/1286035792"
    },
    {
      "type": "Feature",
      "properties": {
        "@id": "way/1286888530",
        "place": "island",
        "@geometry": "center"
      },
      "geometry": {
        "type": "Point",
        "coordinates": [
          -82.9547255,
          36.5789894
        ]
      },
      "id": "way/1286888530"
    },
    {
      "type": "Feature",
      "properties": {
        "@id": "way/1339959701",
        "name": "Chipekwe Island",
        "place": "island",
        "@geometry": "center"
      },
      "geometry": {
        "type": "Point",
        "coordinates": [
          -75.7230724,
          38.4159744
        ]
      },
      "id": "way/1339959701"
    },
    {
      "type": "Feature",
      "properties": {
        "@id": "way/1364894724",
        "place": "island",
        "@geometry": "center"
      },
      "geometry": {
        "type": "Point",
        "coordinates": [
          -78.7541833,
          38.5515564
        ]
      },
      "id": "way/1364894724"
    },
    {
      "type": "Feature",
      "properties": {
        "@id": "way/1374252716",
        "place": "island",
        "@geometry": "center"
      },
      "geometry": {
        "type": "Point",
        "coordinates": [
          -77.3198446,
          38.7584801
        ]
      },
      "id": "way/1374252716"
    },
    {
      "type": "Feature",
      "properties": {
        "@id": "way/1374252717",
        "place": "island",
        "@geometry": "center"
      },
      "geometry": {
        "type": "Point",
        "coordinates": [
          -77.3197808,
          38.7586477
        ]
      },
      "id": "way/1374252717"
    },
    {
      "type": "Feature",
      "properties": {
        "@id": "way/1375684831",
        "place": "island",
        "@geometry": "center"
      },
      "geometry": {
        "type": "Point",
        "coordinates": [
          -79.2955387,
          36.8300447
        ]
      },
      "id": "way/1375684831"
    },
    {
      "type": "Feature",
      "properties": {
        "@id": "way/1384655170",
        "name": "Gwynn's Island",
        "place": "island",
        "@geometry": "center"
      },
      "geometry": {
        "type": "Point",
        "coordinates": [
          -76.2899566,
          37.4953263
        ]
      },
      "id": "way/1384655170"
    },
    {
      "type": "Feature",
      "properties": {
        "@id": "way/1392356293",
        "place": "island",
        "@geometry": "center"
      },
      "geometry": {
        "type": "Point",
        "coordinates": [
          -80.6451852,
          36.5877747
        ]
      },
      "id": "way/1392356293"
    },
    {
      "type": "Feature",
      "properties": {
        "@id": "way/1392356294",
        "place": "island",
        "@geometry": "center"
      },
      "geometry": {
        "type": "Point",
        "coordinates": [
          -80.6470158,
          36.5841012
        ]
      },
      "id": "way/1392356294"
    },
    {
      "type": "Feature",
      "properties": {
        "@id": "way/1392356295",
        "place": "island",
        "@geometry": "center"
      },
      "geometry": {
        "type": "Point",
        "coordinates": [
          -80.6437851,
          36.5816595
        ]
      },
      "id": "way/1392356295"
    },
    {
      "type": "Feature",
      "properties": {
        "@id": "way/1393285168",
        "description": "Small island behind the Schoolfield Dam. Named after Prothonotary Warblers that inhabit it from Spring through Fall. The island features steep banks and a small sandbar on its Southeast side.",
        "name": "Prothonotary Island",
        "place": "island",
        "@geometry": "center"
      },
      "geometry": {
        "type": "Point",
        "coordinates": [
          -79.4409845,
          36.5732107
        ]
      },
      "id": "way/1393285168"
    },
    {
      "type": "Feature",
      "properties": {
        "@id": "way/1409547980",
        "gnis:feature_id": "1462896",
        "name": "Bear Island",
        "natural": "wetland",
        "place": "island",
        "salt": "no",
        "wetland": "swamp",
        "wikidata": "Q49632575",
        "@geometry": "center"
      },
      "geometry": {
        "type": "Point",
        "coordinates": [
          -77.4123,
          37.8210814
        ]
      },
      "id": "way/1409547980"
    },
    {
      "type": "Feature",
      "properties": {
        "@id": "way/1432680291",
        "place": "island",
        "@geometry": "center"
      },
      "geometry": {
        "type": "Point",
        "coordinates": [
          -79.136485,
          37.8512413
        ]
      },
      "id": "way/1432680291"
    },
    {
      "type": "Feature",
      "properties": {
        "@id": "way/1443341576",
        "place": "island",
        "@geometry": "center"
      },
      "geometry": {
        "type": "Point",
        "coordinates": [
          -75.8299541,
          38.073732
        ]
      },
      "id": "way/1443341576"
    },
    {
      "type": "Feature",
      "properties": {
        "@id": "way/1444088974",
        "natural": "wood",
        "place": "island",
        "@geometry": "center"
      },
      "geometry": {
        "type": "Point",
        "coordinates": [
          -80.5100778,
          38.3853813
        ]
      },
      "id": "way/1444088974"
    },
    {
      "type": "Feature",
      "properties": {
        "@id": "way/1444088979",
        "natural": "wood",
        "place": "island",
        "@geometry": "center"
      },
      "geometry": {
        "type": "Point",
        "coordinates": [
          -80.5045688,
          38.3851106
        ]
      },
      "id": "way/1444088979"
    },
    {
      "type": "Feature",
      "properties": {
        "@id": "way/1444088982",
        "natural": "wood",
        "place": "island",
        "@geometry": "center"
      },
      "geometry": {
        "type": "Point",
        "coordinates": [
          -80.4726067,
          38.3801261
        ]
      },
      "id": "way/1444088982"
    },
    {
      "type": "Feature",
      "properties": {
        "@id": "way/1444088984",
        "natural": "wood",
        "place": "island",
        "@geometry": "center"
      },
      "geometry": {
        "type": "Point",
        "coordinates": [
          -80.4561154,
          38.3799209
        ]
      },
      "id": "way/1444088984"
    },
    {
      "type": "Feature",
      "properties": {
        "@id": "way/1444088985",
        "natural": "wood",
        "place": "island",
        "@geometry": "center"
      },
      "geometry": {
        "type": "Point",
        "coordinates": [
          -80.4558232,
          38.3794297
        ]
      },
      "id": "way/1444088985"
    },
    {
      "type": "Feature",
      "properties": {
        "@id": "way/1444088986",
        "natural": "wood",
        "place": "island",
        "@geometry": "center"
      },
      "geometry": {
        "type": "Point",
        "coordinates": [
          -80.4564205,
          38.3800353
        ]
      },
      "id": "way/1444088986"
    },
    {
      "type": "Feature",
      "properties": {
        "@id": "way/1457836073",
        "place": "island",
        "@geometry": "center"
      },
      "geometry": {
        "type": "Point",
        "coordinates": [
          -76.3475574,
          39.3972476
        ]
      },
      "id": "way/1457836073"
    },
    {
      "type": "Feature",
      "properties": {
        "@id": "way/1470388503",
        "name": "Raft Island",
        "place": "island",
        "@geometry": "center"
      },
      "geometry": {
        "type": "Point",
        "coordinates": [
          -77.2914315,
          38.8040201
        ]
      },
      "id": "way/1470388503"
    },
    {
      "type": "Feature",
      "properties": {
        "@id": "way/1494487791",
        "ele": "4",
        "gnis:feature_id": "1714675",
        "name": "Rosilie Island",
        "place": "island",
        "wikidata": "Q49675339",
        "@geometry": "center"
      },
      "geometry": {
        "type": "Point",
        "coordinates": [
          -77.0241992,
          38.7935763
        ]
      },
      "id": "way/1494487791"
    },
    {
      "type": "Feature",
      "properties": {
        "@id": "way/1525000799",
        "place": "island",
        "@geometry": "center"
      },
      "geometry": {
        "type": "Point",
        "coordinates": [
          -76.3696896,
          37.0356232
        ]
      },
      "id": "way/1525000799"
    }
  ]
}