{
  "type": "FeatureCollection",
  "generator": "overpass-turbo",
  "copyright": "The data included in this document is from www.openstreetmap.org. The data is made available under ODbL.",
  "timestamp": "2026-06-28T01:18:02Z",
  "features": [
    {
      "type": "Feature",
      "properties": {
        "@id": "node/11878041669",
        "natural": "cave_entrance"
      },
      "geometry": {
        "type": "Point",
        "coordinates": [
          -81.0951797,
          34.9326828
        ]
      },
      "id": "node/11878041669"
    },
    {
      "type": "Feature",
      "properties": {
        "@id": "node/12599782154",
        "name": "B-047",
        "natural": "cave_entrance"
      },
      "geometry": {
        "type": "Point",
        "coordinates": [
          -81.3973289,
          34.3943301
        ]
      },
      "id": "node/12599782154"
    },
    {
      "type": "Feature",
      "properties": {
        "@id": "node/13618521339",
        "description": "Short passageway between a split boulder with a tight squeeze and challenging climb out. Recommended to start at the bottom squeeze and attempt to reach the top.",
        "fee": "no",
        "name": "Fatty Crack",
        "natural": "cave_entrance"
      },
      "geometry": {
        "type": "Point",
        "coordinates": [
          -82.70543,
          35.0418058
        ]
      },
      "id": "node/13618521339"
    }
  ]
}