{
  "type": "FeatureCollection",
  "generator": "overpass-turbo",
  "copyright": "The data included in this document is from www.openstreetmap.org. The data is made available under ODbL.",
  "timestamp": "2026-06-27T22:59:00Z",
  "features": [
    {
      "type": "Feature",
      "properties": {
        "@id": "relation/7192241",
        "boundary": "protected_area",
        "gnis:feature_id": "490476",
        "historic": "yes",
        "leisure": "nature_reserve",
        "name": "Cumberland Gap National Historical Park",
        "operator": "National Park Service",
        "operator:short": "NPS",
        "operator:type": "public",
        "operator:wikidata": "Q308439",
        "operator:wikipedia": "en:National Park Service",
        "ownership": "national",
        "protect_class": "2",
        "protected": "perpetuity",
        "protected_area": "historic_site",
        "protection_title": "National Historical Park",
        "start_date": "1940",
        "type": "boundary",
        "website": "https://www.nps.gov/cuga",
        "wikidata": "Q5193892",
        "wikipedia": "en:Cumberland Gap National Historical Park",
        "@geometry": "center"
      },
      "geometry": {
        "type": "Point",
        "coordinates": [
          -83.6062152,
          36.6186928
        ]
      },
      "id": "relation/7192241"
    },
    {
      "type": "Feature",
      "properties": {
        "@id": "relation/9615817",
        "boundary": "protected_area",
        "ele": "140",
        "gnis:feature_id": "507318",
        "heritage": "1",
        "heritage:operator": "whc",
        "leisure": "nature_reserve",
        "name": "Mammoth Cave National Park",
        "name:ar": "منتزه كهف ماموت الوطني",
        "name:en": "Mammoth Cave National Park",
        "name:es": "Parque Nacional de Mammoth Cave",
        "name:fr": "Parc national de Mammoth Cave",
        "name:ja": "マンモス・ケーヴ国立公園",
        "name:nl": "Nationaal park Mammoth Cave",
        "name:ru": "Национальный парк Мамонтова пещера",
        "name:zh": "猛玛洞穴国家公园",
        "network": "National Parks of the United States",
        "network:wikidata": "Q34918903",
        "operator": "National Park Service",
        "operator:short": "NPS",
        "operator:type": "public",
        "operator:wikidata": "Q308439",
        "ownership": "national",
        "protect_class": "2",
        "protected": "perpetuity",
        "protected_area": "national_park",
        "protection_title": "National Park",
        "ref:whc": "150",
        "source": "NPS shapefile - https://irma.nps.gov/App/",
        "type": "boundary",
        "website": "https://www.nps.gov/maca/",
        "whc:criteria": "(vii)(viii)(x)",
        "whc:inscription_date": "1981",
        "wikidata": "Q242681",
        "wikipedia": "en:Mammoth Cave National Park",
        "@geometry": "center"
      },
      "geometry": {
        "type": "Point",
        "coordinates": [
          -86.1457741,
          37.1840779
        ]
      },
      "id": "relation/9615817"
    },
    {
      "type": "Feature",
      "properties": {
        "@id": "relation/9690610",
        "boundary": "protected_area",
        "leisure": "park",
        "name": "Shawnee State Park",
        "operator": "Division of Parks & Watercraft, Ohio Department of Natural Resources",
        "operator:type": "government",
        "ownership": "state",
        "protect_class": "2",
        "protected": "perpetuity",
        "protection_title": "State Park",
        "type": "multipolygon",
        "website": "https://ohiodnr.gov/go-and-do/plan-a-visit/find-a-property/shawnee-state-park",
        "@geometry": "center"
      },
      "geometry": {
        "type": "Point",
        "coordinates": [
          -83.154374,
          38.7099018
        ]
      },
      "id": "relation/9690610"
    },
    {
      "type": "Feature",
      "properties": {
        "@id": "relation/9715295",
        "boundary": "protected_area",
        "leisure": "nature_reserve",
        "name": "Lake White State Park",
        "operator": "Division of Parks & Watercraft, Ohio Department of Natural Resources",
        "ownership": "state",
        "protect_class": "2",
        "protected": "perpetuity",
        "protection_title": "State Park",
        "type": "multipolygon",
        "website": "https://parks.ohiodnr.gov/lakewhite",
        "@geometry": "center"
      },
      "geometry": {
        "type": "Point",
        "coordinates": [
          -83.0297065,
          39.1075
        ]
      },
      "id": "relation/9715295"
    },
    {
      "type": "Feature",
      "properties": {
        "@id": "relation/11748820",
        "boundary": "protected_area",
        "name": "Justin P. Wilson Cumberland Trail State Park",
        "operator": "Tennessee Department of Environment and Conservation",
        "operator:type": "government",
        "operator:wikidata": "Q7700063",
        "ownership": "state",
        "protect_class": "2",
        "protected": "perpetuity",
        "protection_title": "State Park",
        "start_date": "1998",
        "type": "boundary",
        "wikipedia": "en:Justin P. Wilson Cumberland Trail State Park",
        "@geometry": "center"
      },
      "geometry": {
        "type": "Point",
        "coordinates": [
          -84.5726387,
          35.8649713
        ]
      },
      "id": "relation/11748820"
    },
    {
      "type": "Feature",
      "properties": {
        "@id": "relation/11785214",
        "boundary": "protected_area",
        "name": "Dunbar Cave State Park",
        "operator": "Tennessee Department of Environment and Convservation",
        "protect_class": "2",
        "protection_title": "State Park",
        "type": "boundary",
        "wikidata": "Q5314133",
        "@geometry": "center"
      },
      "geometry": {
        "type": "Point",
        "coordinates": [
          -87.3044479,
          36.5565965
        ]
      },
      "id": "relation/11785214"
    },
    {
      "type": "Feature",
      "properties": {
        "@id": "relation/11788388",
        "boundary": "protected_area",
        "ele": "87",
        "gnis:feature_id": "1299173",
        "name": "Reelfoot Lake State Park",
        "operator": "Tennessee Department of Environment and Conservation",
        "operator:type": "government",
        "operator:wikidata": "Q7700063",
        "protect_class": "2",
        "protection_title": "State Park",
        "source": "http://www.state.tn.us/environment/parks/gis",
        "type": "boundary",
        "wikidata": "Q3364088",
        "wikipedia": "en:Reelfoot Lake State Park",
        "@geometry": "center"
      },
      "geometry": {
        "type": "Point",
        "coordinates": [
          -89.3810014,
          36.4241979
        ]
      },
      "id": "relation/11788388"
    },
    {
      "type": "Feature",
      "properties": {
        "@id": "relation/19938968",
        "addr:city": "Versailles",
        "addr:housenumber": "1387",
        "addr:postcode": "47042",
        "addr:state": "IN",
        "addr:street": "US 50 E",
        "boundary": "protected_area",
        "ele": "294",
        "gnis:feature_id": "445261",
        "name": "Versailles State Park",
        "name:pronunciation": "vərˈseɪlz ˈsteɪt ˈpɑɹk",
        "operator": "Indiana Department of Natural Resources",
        "operator:short": "Indiana DNR",
        "operator:type": "government",
        "operator:wikidata": "Q6023149",
        "operator:wikipedia": "en:Indiana Department of Natural Resources",
        "ownership": "state",
        "phone": "+1-812-689-6424",
        "protect_class": "2",
        "protection_title": "State Park",
        "type": "multipolygon",
        "website": "https://www.in.gov/dnr/parklake/2963.htm",
        "wikidata": "Q2517821",
        "wikipedia": "en:Versailles State Park",
        "@geometry": "center"
      },
      "geometry": {
        "type": "Point",
        "coordinates": [
          -85.2294304,
          39.0706599
        ]
      },
      "id": "relation/19938968"
    },
    {
      "type": "Feature",
      "properties": {
        "@id": "way/699144310",
        "boundary": "protected_area",
        "leisure": "park",
        "name": "Adams Lake State Park",
        "operator": "Division of Parks & Watercraft, Ohio Department of Natural Resources",
        "ownership": "state",
        "protect_class": "2",
        "protected": "perpetuity",
        "protection_title": "State Park",
        "website": "https://ohiodnr.gov/go-and-do/plan-a-visit/find-a-property/adams-lake-state-park",
        "wikidata": "Q4680369",
        "wikipedia": "en:Adams Lake State Park",
        "@geometry": "center"
      },
      "geometry": {
        "type": "Point",
        "coordinates": [
          -83.5264144,
          38.8144669
        ]
      },
      "id": "way/699144310"
    },
    {
      "type": "Feature",
      "properties": {
        "@id": "way/1466004775",
        "access": "yes",
        "addr:state": "OH",
        "boundary": "protected_area",
        "ele": "210",
        "gnis:feature_id": "1042372",
        "leisure": "nature_reserve",
        "name": "Lake Alma State Park",
        "operator": "Division of Parks & Watercraft, Ohio Department of Natural Resources",
        "operator:type": "government",
        "ownership": "state",
        "protect_class": "2",
        "protected": "perpetuity",
        "protection_title": "State Park",
        "website": "https://ohiodnr.gov/go-and-do/plan-a-visit/find-a-property/lake-alma-state-park",
        "@geometry": "center"
      },
      "geometry": {
        "type": "Point",
        "coordinates": [
          -82.5119383,
          39.1446108
        ]
      },
      "id": "way/1466004775"
    }
  ]
}