{
  "type": "FeatureCollection",
  "generator": "overpass-turbo",
  "copyright": "The data included in this document is from www.openstreetmap.org. The data is made available under ODbL.",
  "timestamp": "2026-06-28T00:12:58Z",
  "features": [
    {
      "type": "Feature",
      "properties": {
        "@id": "way/718230505",
        "addr:city": "Talking Rock",
        "addr:postcode": "30175",
        "addr:state": "GA",
        "addr:street": "Carnes Mill Road",
        "boundary": "protected_area",
        "contact:facebook": "https://www.facebook.com/talkingrocknp/",
        "leisure": "nature_reserve",
        "name": "Talking Rock Nature Park",
        "opening_hours": "sunrise-sunset",
        "phone": "+1-678-974-2609",
        "protect_class": "1",
        "@geometry": "center"
      },
      "geometry": {
        "type": "Point",
        "coordinates": [
          -84.5233626,
          34.5445119
        ]
      },
      "id": "way/718230505"
    }
  ]
}