{
  "type": "FeatureCollection",
  "generator": "overpass-turbo",
  "copyright": "The data included in this document is from www.openstreetmap.org. The data is made available under ODbL.",
  "timestamp": "2026-06-28T01:21:54Z",
  "features": [
    {
      "type": "Feature",
      "properties": {
        "@id": "relation/190502",
        "access": "yes",
        "addr:city": "Elizabethtown",
        "addr:housenumber": "4117",
        "addr:postcode": "28337",
        "addr:state": "NC",
        "addr:street": "N.C. 242 N.",
        "boundary": "protected_area",
        "email": "jones.lake@ncparks.gov",
        "leisure": "park",
        "name": "Jones Lake State Park",
        "operator": "North Carolina Division of Parks and Recreation",
        "owner": "State of North Carolina",
        "ownership": "state",
        "phone": "+1-910-588-4550",
        "protect_class": "2",
        "protected": "perpetuity",
        "protection_title": "State Park",
        "source": "NCOnemap (http://www.nconemap.com/)",
        "start_date": "1939",
        "type": "boundary",
        "website": "https://www.ncparks.gov/jones-lake-state-park",
        "wikidata": "Q6275231",
        "wikipedia": "en:Jones Lake State Park",
        "@geometry": "center"
      },
      "geometry": {
        "type": "Point",
        "coordinates": [
          -78.621733,
          34.6971713
        ]
      },
      "id": "relation/190502"
    },
    {
      "type": "Feature",
      "properties": {
        "@id": "relation/2127652",
        "access": "yes",
        "addr:city": "Kings Mountain",
        "addr:housenumber": "522",
        "addr:postcode": "28086",
        "addr:state": "NC",
        "addr:street": "Park Office Lane",
        "boundary": "protected_area",
        "ele": "283",
        "email": "crowders.mountain@ncparks.gov",
        "gnis:feature_id": "1001621",
        "name": "Crowders Mountain State Park",
        "operator": "North Carolina Division of Parks and Recreation",
        "owner": "State of North Carolina",
        "ownership": "state",
        "phone": "+1-704-853-5375",
        "protect_class": "2",
        "protected": "perpetuity",
        "protection_title": "State Park",
        "source": "NCOnemap",
        "start_date": "1973",
        "type": "boundary",
        "website": "https://www.ncparks.gov/crowders-mountain-state-park",
        "wikidata": "Q2765408",
        "wikipedia": "en:Crowders Mountain State Park",
        "@geometry": "center"
      },
      "geometry": {
        "type": "Point",
        "coordinates": [
          -81.3193373,
          35.2065519
        ]
      },
      "id": "relation/2127652"
    },
    {
      "type": "Feature",
      "properties": {
        "@id": "relation/2918501",
        "access": "yes",
        "addr:city": "Sapphire",
        "addr:housenumber": "976",
        "addr:postcode": "28774",
        "addr:state": "NC",
        "addr:street": "Grassy Ridge Road",
        "boundary": "protected_area",
        "ele": "577",
        "email": "gorges@ncparks.gov",
        "gnis:feature_id": "2374754",
        "name": "Gorges State Park",
        "operator": "North Carolina Division of Parks and Recreation",
        "owner": "State of North Carolina",
        "ownership": "state",
        "phone": "+1-828-966-9099",
        "protect_class": "2",
        "protected": "perpetuity",
        "protection_title": "State Park",
        "related_law": "SL 1997-276",
        "start_date": "1999",
        "type": "boundary",
        "website": "https://www.ncparks.gov/gorges-state-park",
        "wikidata": "Q3364051",
        "wikipedia": "en:Gorges State Park",
        "@geometry": "center"
      },
      "geometry": {
        "type": "Point",
        "coordinates": [
          -82.9172544,
          35.0897162
        ]
      },
      "id": "relation/2918501"
    },
    {
      "type": "Feature",
      "properties": {
        "@id": "relation/4633431",
        "access": "private",
        "boundary": "protected_area",
        "name": "The Preserve at RiverWest",
        "old_name": "Millstone Golf Course",
        "protect_class": "2",
        "type": "multipolygon",
        "website": "https://thepreserveparks.com/the-preserve-at-riverwest",
        "@geometry": "center"
      },
      "geometry": {
        "type": "Point",
        "coordinates": [
          -82.4712332,
          34.8273518
        ]
      },
      "id": "relation/4633431"
    },
    {
      "type": "Feature",
      "properties": {
        "@id": "relation/9336020",
        "access": "yes",
        "addr:city": "Blacksburg",
        "addr:housenumber": "1277",
        "addr:postcode": "29702",
        "addr:state": "SC",
        "addr:street": "Park Road",
        "attribution": "SC GIS",
        "boundary": "protected_area",
        "ele": "235",
        "email": "kingsmountain@scprt.com",
        "gnis:feature_id": "1246253",
        "name": "Kings Mountain State Park",
        "operator": "South Carolina Department of Parks, Recreation & Tourism",
        "owner": "State of South Carolina",
        "ownership": "state",
        "phone": "+1-803-222-3209",
        "protect_class": "2",
        "protected": "perpetuity",
        "protection_title": "State Park",
        "scgis-shp:parksid": "1",
        "scgis-shp:propertyid": "6335",
        "scgis-shp:source": "DNR SCDBASE PRK",
        "scgis-shp:uuid": "5ac00053-d81a-4c20-8606-f41b069938c8",
        "start_date": "1934",
        "type": "boundary",
        "website": "https://southcarolinaparks.com/kings-mountain",
        "wikidata": "Q6412961",
        "wikipedia": "en:Kings Mountain State Park",
        "@geometry": "center"
      },
      "geometry": {
        "type": "Point",
        "coordinates": [
          -81.3646437,
          35.1322249
        ]
      },
      "id": "relation/9336020"
    },
    {
      "type": "Feature",
      "properties": {
        "@id": "relation/9596646",
        "access": "yes",
        "addr:city": "Spring Lake",
        "addr:housenumber": "2505",
        "addr:postcode": "28390",
        "addr:state": "NC",
        "addr:street": "Long Valley Road",
        "boundary": "protected_area",
        "email": "carvers.creek@ncparks.gov",
        "name": "Carvers Creek State Park",
        "operator": "North Carolina Division of Parks and Recreation",
        "operator:short": "NCDPR",
        "operator:type": "government",
        "operator:wikidata": "Q109328529",
        "owner": "State of North Carolina",
        "ownership": "state",
        "phone": "+1-910-436-4681",
        "protect_class": "2",
        "protected": "perpetuity",
        "protection_title": "State Park",
        "source": "NCOnemap",
        "start_date": "2005",
        "type": "boundary",
        "website": "https://www.ncparks.gov/carvers-creek-state-park",
        "@geometry": "center"
      },
      "geometry": {
        "type": "Point",
        "coordinates": [
          -78.9725262,
          35.2104387
        ]
      },
      "id": "relation/9596646"
    },
    {
      "type": "Feature",
      "properties": {
        "@id": "relation/9604120",
        "access": "yes",
        "addr:city": "Southern Pines",
        "addr:housenumber": "1024",
        "addr:postcode": "28387",
        "addr:state": "NC",
        "addr:street": "Fort Bragg Road",
        "boundary": "protected_area",
        "email": "weymouth.woods@ncparks.gov",
        "leisure": "park",
        "name": "Weymouth Woods-Sandhills Nature Preserve",
        "operator": "North Carolina Division of Parks and Recreation",
        "operator:short": "NCDPR",
        "operator:type": "public",
        "operator:wikidata": "Q109328529",
        "owner": "State of North Carolina",
        "ownership": "state",
        "phone": "+1-910-692-2167",
        "protect_class": "2",
        "protected": "perpetuity",
        "protection_title": "State Natural Area",
        "source": "NCOnemap",
        "start_date": "1963",
        "type": "multipolygon",
        "website": "https://www.ncparks.gov/weymouth-woods-sandhills-nature-preserve",
        "wikipedia": "en:Weymouth Woods-Sandhills Nature Preserve",
        "@geometry": "center"
      },
      "geometry": {
        "type": "Point",
        "coordinates": [
          -79.3794616,
          35.1558495
        ]
      },
      "id": "relation/9604120"
    },
    {
      "type": "Feature",
      "properties": {
        "@id": "relation/9659240",
        "access": "yes",
        "addr:city": "Orrum",
        "addr:housenumber": "2819",
        "addr:postcode": "28369",
        "addr:state": "NC",
        "addr:street": "Princess Ann Road",
        "boundary": "protected_area",
        "email": "lumber.river@ncparks.gov",
        "leisure": "park",
        "name": "Lumber River State Park",
        "operator": "North Carolina Division of Parks and Recreation",
        "operator:short": "NCDPR",
        "operator:type": "public",
        "operator:wikidata": "Q109328529",
        "owner": "State of North Carolina",
        "ownership": "state",
        "phone": "+1-910-628-4564",
        "protect_class": "2",
        "protected": "perpetuity",
        "protection_title": "State Park",
        "start_date": "1989",
        "type": "boundary",
        "website": "https://www.ncparks.gov/lumber-river-state-park",
        "wikipedia": "en:Lumber River State Park",
        "@geometry": "center"
      },
      "geometry": {
        "type": "Point",
        "coordinates": [
          -79.1349012,
          34.6415702
        ]
      },
      "id": "relation/9659240"
    },
    {
      "type": "Feature",
      "properties": {
        "@id": "relation/10109782",
        "access": "yes",
        "addr:city": "Lake Waccamaw",
        "addr:housenumber": "1866",
        "addr:postcode": "28450",
        "addr:state": "NC",
        "addr:street": "State Park Drive",
        "boundary": "protected_area",
        "ele": "14",
        "email": "lake.waccamaw@ncparks.gov",
        "gnis:feature_id": "1000972",
        "leisure": "park",
        "name": "Lake Waccamaw State Park",
        "operator": "North Carolina Division of Parks and Recreation",
        "operator:short": "NCDPR",
        "operator:type": "public",
        "operator:wikidata": "Q109328529",
        "owner": "State of North Carolina",
        "ownership": "state",
        "phone": "+1-910-646-4748",
        "protect_class": "2",
        "protected": "perpetuity",
        "protection_title": "State Park",
        "source": "NCOnemap",
        "start_date": "1976",
        "type": "boundary",
        "website": "https://www.ncparks.gov/lake-waccamaw-state-park",
        "wikidata": "Q14708012",
        "wikipedia": "en:Lake Waccamaw State Park",
        "@geometry": "center"
      },
      "geometry": {
        "type": "Point",
        "coordinates": [
          -78.5089515,
          34.2782839
        ]
      },
      "id": "relation/10109782"
    },
    {
      "type": "Feature",
      "properties": {
        "@id": "relation/10110999",
        "access": "yes",
        "addr:city": "Blacksburg",
        "addr:housenumber": "2625",
        "addr:postcode": "29702",
        "addr:state": "SC",
        "addr:street": "Park Road",
        "attribution": "SC GIS",
        "boundary": "protected_area",
        "gnis:feature_id": "1223739",
        "leisure": "nature_reserve",
        "name": "Kings Mountain National Military Park",
        "operator": "National Park Service",
        "operator:short": "NPS",
        "operator:type": "public",
        "operator:wikidata": "Q308439",
        "ownership": "national",
        "phone": "+1-864-936-7921",
        "protect_class": "2",
        "protected": "perpetuity",
        "protected_area": "historic_site",
        "protection_title": "National Military Park",
        "scgis-shp:parksid": "2",
        "scgis-shp:propertyid": "5150",
        "scgis-shp:source": "DNR SCDBASE PRK",
        "scgis-shp:uuid": "5ac00053-d81a-4c20-8606-f41b069938c8",
        "start_date": "1931-03-03",
        "type": "boundary",
        "website": "https://www.nps.gov/kimo/index.htm",
        "wikidata": "Q1121121",
        "wikipedia": "en:Kings Mountain National Military Park",
        "@geometry": "center"
      },
      "geometry": {
        "type": "Point",
        "coordinates": [
          -81.389812,
          35.1373972
        ]
      },
      "id": "relation/10110999"
    },
    {
      "type": "Feature",
      "properties": {
        "@id": "relation/15486883",
        "access": "private",
        "area": "yes",
        "boundary": "protected_area",
        "name": "The Preserve at Lakewood",
        "protect_class": "2",
        "type": "multipolygon",
        "website": "https://thepreserveparks.com/the-preserve-at-lakewood",
        "@geometry": "center"
      },
      "geometry": {
        "type": "Point",
        "coordinates": [
          -82.3358546,
          34.7672438
        ]
      },
      "id": "relation/15486883"
    },
    {
      "type": "Feature",
      "properties": {
        "@id": "relation/15661507",
        "access": "yes",
        "addr:city": "Fayetteville",
        "addr:housenumber": "955",
        "addr:postcode": "28311",
        "addr:street": "McCloskey Road",
        "boundary": "protected_area",
        "email": "carvers.creek@ncparks.gov",
        "name": "Carvers Creek State Park - Sandhills Access",
        "operator": "North Carolina Division of Parks and Recreation",
        "operator:short": "NCDPR",
        "operator:type": "government",
        "operator:wikidata": "Q109328529",
        "owner": "State of North Carolina",
        "ownership": "state",
        "phone": "+1-910-436-4681",
        "protect_class": "2",
        "protected": "perpetuity",
        "protection_title": "State Park",
        "type": "boundary",
        "website": "https://www.ncparks.gov/carvers-creek-state-park",
        "@geometry": "center"
      },
      "geometry": {
        "type": "Point",
        "coordinates": [
          -78.8848436,
          35.1832211
        ]
      },
      "id": "relation/15661507"
    },
    {
      "type": "Feature",
      "properties": {
        "@id": "relation/16486568",
        "boundary": "protected_area",
        "ownership": "national",
        "protect_class": "2",
        "protected": "perpetuity",
        "protection_title": "National Park",
        "source": "Purcell A. 2022. Congaree National Park Tract and Boundary Data. National Park Service (NPS), Chief Cartographer, Land Resources Division, WASO Fort Collins Land Resources Program Center. https://irma.nps.gov/DataStore/Reference/Profile/2299943",
        "source:version": "20220607",
        "type": "boundary",
        "@geometry": "center"
      },
      "geometry": {
        "type": "Point",
        "coordinates": [
          -80.7316474,
          33.7940409
        ]
      },
      "id": "relation/16486568"
    }
  ]
}