{
  "type": "FeatureCollection",
  "generator": "overpass-turbo",
  "copyright": "The data included in this document is from www.openstreetmap.org. The data is made available under ODbL.",
  "timestamp": "2026-06-27T23:42:40Z",
  "features": [
    {
      "type": "Feature",
      "properties": {
        "@id": "relation/2182454",
        "destination": "Ohio River",
        "destination:lang:es": "Río Ohio",
        "name": "Allegheny River",
        "name:ar": "نهر اليجينى",
        "name:del": "Alikehane",
        "name:es": "Río Allegheny",
        "name:fa": "رود الیگنی",
        "name:fr": "Rivière Alleghany",
        "name:he": "נהר אלגיני",
        "name:moh": "Ohrhionhwí:io",
        "name:ru": "Река Аллегейни",
        "name:see": "Ohi:yo’",
        "type": "waterway",
        "waterway": "river",
        "wikidata": "Q686021",
        "@geometry": "center"
      },
      "geometry": {
        "type": "Point",
        "coordinates": [
          -78.9450956,
          41.3036486
        ]
      },
      "id": "relation/2182454"
    },
    {
      "type": "Feature",
      "properties": {
        "@id": "relation/2182498",
        "destination": "Ohio River",
        "name": "Kanawha River",
        "name:mia": "ahseni siipiiwii",
        "type": "waterway",
        "waterway": "river",
        "wikidata": "Q918867",
        "wikipedia": "en:Kanawha River",
        "@geometry": "center"
      },
      "geometry": {
        "type": "Point",
        "coordinates": [
          -81.6713649,
          38.4797526
        ]
      },
      "id": "relation/2182498"
    },
    {
      "type": "Feature",
      "properties": {
        "@id": "relation/2182499",
        "alt_name:fr": "Monongahéla;Malangueulé;Mal-engueulée;Manangaîlé",
        "destination": "Ohio River",
        "destination:lang:es": "Río Ohio",
        "destination:lang:fr": "L'Ohio",
        "name": "Monongahela River",
        "name:es": "Río Monongahela",
        "name:fr": "Monongahela",
        "type": "waterway",
        "waterway": "river",
        "wikidata": "Q643780",
        "@geometry": "center"
      },
      "geometry": {
        "type": "Point",
        "coordinates": [
          -79.9943197,
          39.953909
        ]
      },
      "id": "relation/2182499"
    },
    {
      "type": "Feature",
      "properties": {
        "@id": "relation/2182501",
        "destination": "Mississippi River",
        "name": "Ohio River",
        "name:ar": "نهر أوهايو",
        "name:chr": "ᎣᎭᏲ",
        "name:fa": "رود اوهایو",
        "name:he": "נהר אוהיו",
        "name:mia": "kaanseenseepiiw",
        "name:moh": "Ohrhionhwí:io",
        "name:oj": "Wenizhishijiwan-ziibi",
        "type": "waterway",
        "waterway": "river",
        "wikidata": "Q4915",
        "wikipedia": "en:Ohio River",
        "@geometry": "center"
      },
      "geometry": {
        "type": "Point",
        "coordinates": [
          -84.5972669,
          38.8400899
        ]
      },
      "id": "relation/2182501"
    },
    {
      "type": "Feature",
      "properties": {
        "@id": "relation/2636998",
        "destination": "Potamac River",
        "name": "North Branch Potomac River",
        "type": "waterway",
        "waterway": "river",
        "wikidata": "Q14006686",
        "wikipedia": "en:North Branch Potomac River",
        "@geometry": "center"
      },
      "geometry": {
        "type": "Point",
        "coordinates": [
          -79.0430427,
          39.4218668
        ]
      },
      "id": "relation/2636998"
    },
    {
      "type": "Feature",
      "properties": {
        "@id": "relation/2636999",
        "destination": "Potamac River",
        "name": "South Branch Potomac River",
        "type": "waterway",
        "waterway": "river",
        "wikidata": "Q35310201",
        "wikipedia": "en:South Branch Potomac River",
        "@geometry": "center"
      },
      "geometry": {
        "type": "Point",
        "coordinates": [
          -79.0921893,
          38.9844751
        ]
      },
      "id": "relation/2636999"
    },
    {
      "type": "Feature",
      "properties": {
        "@id": "relation/2637001",
        "name": "Potomac River",
        "name:moh": "Kaha'kwaró:ton",
        "name:oj": "Baadimaag-ziibi",
        "type": "waterway",
        "waterway": "river",
        "wikidata": "Q179444",
        "wikipedia": "en:Potomac River",
        "@geometry": "center"
      },
      "geometry": {
        "type": "Point",
        "coordinates": [
          -77.3744001,
          38.7839055
        ]
      },
      "id": "relation/2637001"
    },
    {
      "type": "Feature",
      "properties": {
        "@id": "relation/4515970",
        "name": "Turtle Creek",
        "type": "waterway",
        "waterway": "river",
        "wikidata": "Q7856388",
        "wikipedia": "en:Turtle Creek (Monongahela River tributary)",
        "@geometry": "center"
      },
      "geometry": {
        "type": "Point",
        "coordinates": [
          -79.7155044,
          40.4061775
        ]
      },
      "id": "relation/4515970"
    },
    {
      "type": "Feature",
      "properties": {
        "@id": "relation/4520451",
        "name": "Pucketa Creek",
        "source": "https://en.wikipedia.org/wiki/Pucketa_Creek",
        "type": "waterway",
        "waterway": "river",
        "wikidata": "Q7258256",
        "wikipedia": "en:Pucketa Creek",
        "@geometry": "center"
      },
      "geometry": {
        "type": "Point",
        "coordinates": [
          -79.6936375,
          40.5148009
        ]
      },
      "id": "relation/4520451"
    },
    {
      "type": "Feature",
      "properties": {
        "@id": "relation/4592065",
        "name": "Peters Creek",
        "type": "waterway",
        "waterway": "river",
        "wikidata": "Q7178127",
        "wikipedia": "en:Peters Creek (Pennsylvania)",
        "@geometry": "center"
      },
      "geometry": {
        "type": "Point",
        "coordinates": [
          -79.9747244,
          40.2755565
        ]
      },
      "id": "relation/4592065"
    },
    {
      "type": "Feature",
      "properties": {
        "@id": "relation/5413855",
        "name": "Loyalhanna Creek",
        "type": "waterway",
        "waterway": "river",
        "wikidata": "Q6694452",
        "wikipedia": "en:Loyalhanna Creek",
        "@geometry": "center"
      },
      "geometry": {
        "type": "Point",
        "coordinates": [
          -79.3449466,
          40.3130832
        ]
      },
      "id": "relation/5413855"
    },
    {
      "type": "Feature",
      "properties": {
        "@id": "relation/5416245",
        "name": "Blacklick Creek",
        "type": "waterway",
        "waterway": "river",
        "wikidata": "Q4923097",
        "wikipedia": "en:Blacklick Creek (Pennsylvania)",
        "@geometry": "center"
      },
      "geometry": {
        "type": "Point",
        "coordinates": [
          -79.1127031,
          40.4686175
        ]
      },
      "id": "relation/5416245"
    },
    {
      "type": "Feature",
      "properties": {
        "@id": "relation/5416275",
        "name": "South Branch Blacklick Creek",
        "type": "waterway",
        "waterway": "river",
        "@geometry": "center"
      },
      "geometry": {
        "type": "Point",
        "coordinates": [
          -78.815736,
          40.4896674
        ]
      },
      "id": "relation/5416275"
    },
    {
      "type": "Feature",
      "properties": {
        "@id": "relation/5417928",
        "name": "Two Lick Creek",
        "type": "waterway",
        "waterway": "river",
        "wikidata": "Q7859047",
        "wikipedia": "en:Two Lick Creek",
        "@geometry": "center"
      },
      "geometry": {
        "type": "Point",
        "coordinates": [
          -79.079889,
          40.5777138
        ]
      },
      "id": "relation/5417928"
    },
    {
      "type": "Feature",
      "properties": {
        "@id": "relation/5417995",
        "name": "Yellow Creek",
        "type": "waterway",
        "waterway": "river",
        "wikidata": "Q8051704",
        "wikipedia": "en:Yellow Creek (Two Lick Creek tributary)",
        "@geometry": "center"
      },
      "geometry": {
        "type": "Point",
        "coordinates": [
          -79.0163132,
          40.5895836
        ]
      },
      "id": "relation/5417995"
    },
    {
      "type": "Feature",
      "properties": {
        "@id": "relation/5435459",
        "name": "Indian Creek",
        "type": "waterway",
        "waterway": "river",
        "wikidata": "Q6020143",
        "wikipedia": "en:Indian Creek (Youghiogheny River tributary)",
        "@geometry": "center"
      },
      "geometry": {
        "type": "Point",
        "coordinates": [
          -79.3756743,
          40.0446668
        ]
      },
      "id": "relation/5435459"
    },
    {
      "type": "Feature",
      "properties": {
        "@id": "relation/5436072",
        "name": "Quemahoning Creek",
        "type": "waterway",
        "waterway": "river",
        "@geometry": "center"
      },
      "geometry": {
        "type": "Point",
        "coordinates": [
          -79.0248295,
          40.1254859
        ]
      },
      "id": "relation/5436072"
    },
    {
      "type": "Feature",
      "properties": {
        "@id": "relation/5436075",
        "alt_name": "Stoney Creek",
        "name": "Stonycreek River",
        "type": "waterway",
        "waterway": "river",
        "wikidata": "Q16250006",
        "wikipedia": "en:Stonycreek River",
        "@geometry": "center"
      },
      "geometry": {
        "type": "Point",
        "coordinates": [
          -78.9170038,
          40.1283546
        ]
      },
      "id": "relation/5436075"
    },
    {
      "type": "Feature",
      "properties": {
        "@id": "relation/5436083",
        "name": "Shade Creek",
        "type": "waterway",
        "waterway": "river",
        "wikidata": "Q7460266",
        "wikipedia": "en:Shade Creek",
        "@geometry": "center"
      },
      "geometry": {
        "type": "Point",
        "coordinates": [
          -78.858683,
          40.1821135
        ]
      },
      "id": "relation/5436083"
    },
    {
      "type": "Feature",
      "properties": {
        "@id": "relation/5436084",
        "name": "Clear Shade Creek",
        "type": "waterway",
        "waterway": "river",
        "@geometry": "center"
      },
      "geometry": {
        "type": "Point",
        "coordinates": [
          -78.7636755,
          40.1728801
        ]
      },
      "id": "relation/5436084"
    },
    {
      "type": "Feature",
      "properties": {
        "@id": "relation/5436085",
        "name": "Dark Shade Creek",
        "type": "waterway",
        "waterway": "river",
        "@geometry": "center"
      },
      "geometry": {
        "type": "Point",
        "coordinates": [
          -78.8078992,
          40.1216107
        ]
      },
      "id": "relation/5436085"
    },
    {
      "type": "Feature",
      "properties": {
        "@id": "relation/5442082",
        "name": "Crabtree Creek",
        "type": "waterway",
        "waterway": "river",
        "@geometry": "center"
      },
      "geometry": {
        "type": "Point",
        "coordinates": [
          -79.4633494,
          40.3664068
        ]
      },
      "id": "relation/5442082"
    },
    {
      "type": "Feature",
      "properties": {
        "@id": "relation/5510812",
        "name": "Redstone Creek",
        "type": "waterway",
        "waterway": "river",
        "wikidata": "Q7306287",
        "wikipedia": "en:Redstone Creek (Pennsylvania)",
        "@geometry": "center"
      },
      "geometry": {
        "type": "Point",
        "coordinates": [
          -79.7951234,
          39.9567808
        ]
      },
      "id": "relation/5510812"
    },
    {
      "type": "Feature",
      "properties": {
        "@id": "relation/5551905",
        "name": "Jacobs Creek",
        "type": "waterway",
        "waterway": "river",
        "wikidata": "Q6119735",
        "wikipedia": "en:Jacobs Creek (Youghiogheny River tributary)",
        "@geometry": "center"
      },
      "geometry": {
        "type": "Point",
        "coordinates": [
          -79.5760962,
          40.1185221
        ]
      },
      "id": "relation/5551905"
    },
    {
      "type": "Feature",
      "properties": {
        "@id": "relation/5794060",
        "name": "West Branch Susquehanna River",
        "type": "waterway",
        "waterway": "river",
        "wikidata": "Q7984552",
        "wikipedia": "en:West Branch Susquehanna River",
        "@geometry": "center"
      },
      "geometry": {
        "type": "Point",
        "coordinates": [
          -77.8027321,
          40.9685607
        ]
      },
      "id": "relation/5794060"
    },
    {
      "type": "Feature",
      "properties": {
        "@id": "relation/5871960",
        "gnis:feature_id": "1192141",
        "name": "Big Sewickley Creek",
        "type": "waterway",
        "waterway": "river",
        "wikidata": "Q49858171",
        "@geometry": "center"
      },
      "geometry": {
        "type": "Point",
        "coordinates": [
          -80.1590846,
          40.5997636
        ]
      },
      "id": "relation/5871960"
    },
    {
      "type": "Feature",
      "properties": {
        "@id": "relation/5891091",
        "name": "Youghiogheny River",
        "name:es": "Río Youghiogheny",
        "type": "waterway",
        "waterway": "river",
        "wikidata": "Q1470734",
        "@geometry": "center"
      },
      "geometry": {
        "type": "Point",
        "coordinates": [
          -79.6131999,
          39.8004096
        ]
      },
      "id": "relation/5891091"
    },
    {
      "type": "Feature",
      "properties": {
        "@id": "relation/5926030",
        "name": "Conemaugh River",
        "type": "waterway",
        "waterway": "river",
        "wikidata": "Q1124709",
        "wikipedia": "en:Conemaugh River",
        "@geometry": "center"
      },
      "geometry": {
        "type": "Point",
        "coordinates": [
          -79.1892898,
          40.4104971
        ]
      },
      "id": "relation/5926030"
    },
    {
      "type": "Feature",
      "properties": {
        "@id": "relation/5926031",
        "name": "Kiskiminetas River",
        "type": "waterway",
        "waterway": "river",
        "wikidata": "Q6416767",
        "wikipedia": "en:Kiskiminetas River",
        "@geometry": "center"
      },
      "geometry": {
        "type": "Point",
        "coordinates": [
          -79.5592791,
          40.5825337
        ]
      },
      "id": "relation/5926031"
    },
    {
      "type": "Feature",
      "properties": {
        "@id": "relation/6036592",
        "name": "Casselman River",
        "type": "waterway",
        "waterway": "river",
        "wikidata": "Q5049302",
        "wikipedia": "en:Casselman River",
        "@geometry": "center"
      },
      "geometry": {
        "type": "Point",
        "coordinates": [
          -79.1992917,
          39.7577972
        ]
      },
      "id": "relation/6036592"
    },
    {
      "type": "Feature",
      "properties": {
        "@id": "relation/6071963",
        "name": "Savage River",
        "type": "waterway",
        "waterway": "river",
        "wikidata": "Q7427767",
        "wikipedia": "en:Savage River (Maryland)",
        "@geometry": "center"
      },
      "geometry": {
        "type": "Point",
        "coordinates": [
          -79.0443359,
          39.588229
        ]
      },
      "id": "relation/6071963"
    },
    {
      "type": "Feature",
      "properties": {
        "@id": "relation/6071998",
        "name": "Laurel Hill Creek",
        "type": "waterway",
        "waterway": "river",
        "wikidata": "Q6499854",
        "wikipedia": "en:Laurel Hill Creek",
        "@geometry": "center"
      },
      "geometry": {
        "type": "Point",
        "coordinates": [
          -79.2644382,
          39.9377651
        ]
      },
      "id": "relation/6071998"
    },
    {
      "type": "Feature",
      "properties": {
        "@id": "relation/6079102",
        "gnis:feature_id": "1184576",
        "name": "Raccoon Creek",
        "type": "waterway",
        "waterway": "river",
        "wikidata": "Q7278852",
        "wikipedia": "en:Raccoon Creek (Beaver County, Pennsylvania)",
        "@geometry": "center"
      },
      "geometry": {
        "type": "Point",
        "coordinates": [
          -80.3374637,
          40.481943
        ]
      },
      "id": "relation/6079102"
    },
    {
      "type": "Feature",
      "properties": {
        "@id": "relation/6086247",
        "gnis:feature_id": "1171600",
        "name": "Chartiers Creek",
        "type": "waterway",
        "waterway": "river",
        "wikidata": "Q5086909",
        "wikipedia": "en:Chartiers Creek",
        "@geometry": "center"
      },
      "geometry": {
        "type": "Point",
        "coordinates": [
          -80.1730355,
          40.2760683
        ]
      },
      "id": "relation/6086247"
    },
    {
      "type": "Feature",
      "properties": {
        "@id": "relation/6086249",
        "name": "Little Chartiers Creek",
        "type": "waterway",
        "waterway": "river",
        "@geometry": "center"
      },
      "geometry": {
        "type": "Point",
        "coordinates": [
          -80.1391805,
          40.2018135
        ]
      },
      "id": "relation/6086249"
    },
    {
      "type": "Feature",
      "properties": {
        "@id": "relation/6086254",
        "name": "Tenmile Creek",
        "type": "waterway",
        "waterway": "river",
        "wikidata": "Q28186797",
        "wikipedia": "en:Tenmile Creek (Pennsylvania)",
        "@geometry": "center"
      },
      "geometry": {
        "type": "Point",
        "coordinates": [
          -80.1639089,
          40.0382973
        ]
      },
      "id": "relation/6086254"
    },
    {
      "type": "Feature",
      "properties": {
        "@id": "relation/6132613",
        "name": "Pine Creek",
        "type": "waterway",
        "waterway": "river",
        "wikidata": "Q7195097",
        "wikipedia": "en:Pine Creek (Allegheny River tributary)",
        "@geometry": "center"
      },
      "geometry": {
        "type": "Point",
        "coordinates": [
          -80.0097263,
          40.5627377
        ]
      },
      "id": "relation/6132613"
    },
    {
      "type": "Feature",
      "properties": {
        "@id": "relation/6154075",
        "gnis:feature_id": "1192337",
        "name": "Deer Creek",
        "type": "waterway",
        "waterway": "river",
        "wikidata": "Q5250702",
        "@geometry": "center"
      },
      "geometry": {
        "type": "Point",
        "coordinates": [
          -79.8701162,
          40.6087746
        ]
      },
      "id": "relation/6154075"
    },
    {
      "type": "Feature",
      "properties": {
        "@id": "relation/6154108",
        "name": "North Fork Big Sewickley Creek",
        "source:name": "USGS topo",
        "type": "waterway",
        "waterway": "river",
        "@geometry": "center"
      },
      "geometry": {
        "type": "Point",
        "coordinates": [
          -80.1697574,
          40.6411798
        ]
      },
      "id": "relation/6154108"
    },
    {
      "type": "Feature",
      "properties": {
        "@id": "relation/6157580",
        "name": "Flaugherty Run",
        "type": "waterway",
        "waterway": "river",
        "@geometry": "center"
      },
      "geometry": {
        "type": "Point",
        "coordinates": [
          -80.2399186,
          40.5411956
        ]
      },
      "id": "relation/6157580"
    },
    {
      "type": "Feature",
      "properties": {
        "@id": "relation/6162645",
        "name": "Juniata River",
        "type": "waterway",
        "waterway": "river",
        "wikidata": "Q476488",
        "wikipedia": "en:Juniata River",
        "@geometry": "center"
      },
      "geometry": {
        "type": "Point",
        "coordinates": [
          -77.5399686,
          40.4852849
        ]
      },
      "id": "relation/6162645"
    },
    {
      "type": "Feature",
      "properties": {
        "@id": "relation/6162646",
        "name": "Wills Creek",
        "type": "waterway",
        "waterway": "river",
        "wikidata": "Q8022469",
        "wikipedia": "en:Wills Creek (North Branch Potomac River tributary)",
        "@geometry": "center"
      },
      "geometry": {
        "type": "Point",
        "coordinates": [
          -78.8266304,
          39.7461827
        ]
      },
      "id": "relation/6162646"
    },
    {
      "type": "Feature",
      "properties": {
        "@id": "relation/6243459",
        "destination": "Hampton Roads",
        "gnis:feature_id": "1488853",
        "name": "James River",
        "type": "waterway",
        "waterway": "river",
        "wikidata": "Q422487",
        "wikipedia": "en:James River",
        "@geometry": "center"
      },
      "geometry": {
        "type": "Point",
        "coordinates": [
          -78.0779172,
          37.3664497
        ]
      },
      "id": "relation/6243459"
    },
    {
      "type": "Feature",
      "properties": {
        "@id": "relation/6294863",
        "name": "Crooked Creek",
        "type": "waterway",
        "waterway": "river",
        "wikidata": "Q5187791",
        "wikipedia": "en:Crooked Creek (Allegheny River tributary)",
        "@geometry": "center"
      },
      "geometry": {
        "type": "Point",
        "coordinates": [
          -79.3037324,
          40.6871403
        ]
      },
      "id": "relation/6294863"
    },
    {
      "type": "Feature",
      "properties": {
        "@id": "relation/6580053",
        "name": "Georges Creek",
        "type": "waterway",
        "waterway": "river",
        "@geometry": "center"
      },
      "geometry": {
        "type": "Point",
        "coordinates": [
          -79.8242563,
          39.7985254
        ]
      },
      "id": "relation/6580053"
    },
    {
      "type": "Feature",
      "properties": {
        "@id": "relation/6580054",
        "name": "York Run",
        "type": "waterway",
        "waterway": "river",
        "@geometry": "center"
      },
      "geometry": {
        "type": "Point",
        "coordinates": [
          -79.8272264,
          39.7986715
        ]
      },
      "id": "relation/6580054"
    },
    {
      "type": "Feature",
      "properties": {
        "@id": "relation/6674833",
        "destination": "Kanawha River",
        "name": "Pocatalico River",
        "type": "waterway",
        "waterway": "river",
        "wikidata": "Q7206292",
        "wikipedia": "en:Pocatalico River",
        "@geometry": "center"
      },
      "geometry": {
        "type": "Point",
        "coordinates": [
          -81.5342717,
          38.5596726
        ]
      },
      "id": "relation/6674833"
    },
    {
      "type": "Feature",
      "properties": {
        "@id": "relation/6678487",
        "destination": "Kanawha River",
        "name": "Elk River",
        "type": "waterway",
        "waterway": "river",
        "wikidata": "Q5364110",
        "wikipedia": "en:Elk River (West Virginia)",
        "@geometry": "center"
      },
      "geometry": {
        "type": "Point",
        "coordinates": [
          -80.8810086,
          38.5156346
        ]
      },
      "id": "relation/6678487"
    },
    {
      "type": "Feature",
      "properties": {
        "@id": "relation/6678488",
        "destination": "Kanawha River",
        "name": "Gauley River",
        "type": "waterway",
        "waterway": "river",
        "wikidata": "Q1496014",
        "wikipedia": "en:Gauley River",
        "@geometry": "center"
      },
      "geometry": {
        "type": "Point",
        "coordinates": [
          -80.7150192,
          38.3002784
        ]
      },
      "id": "relation/6678488"
    },
    {
      "type": "Feature",
      "properties": {
        "@id": "relation/6846661",
        "alt_name": "Tygart River",
        "destination": "Monongahela River",
        "destination:lang:es": "Río Monongahela",
        "gnis:feature_id": "1553309",
        "name": "Tygart Valley River",
        "name:es": "Río Tygart",
        "type": "waterway",
        "waterway": "river",
        "wikidata": "Q2462596",
        "wikipedia": "en:Tygart Valley River",
        "@geometry": "center"
      },
      "geometry": {
        "type": "Point",
        "coordinates": [
          -80.0228283,
          38.9616642
        ]
      },
      "id": "relation/6846661"
    },
    {
      "type": "Feature",
      "properties": {
        "@id": "relation/7163888",
        "destination": "Walhonding River",
        "name": "Kokosing River",
        "type": "waterway",
        "waterway": "river",
        "wikidata": "Q114629",
        "wikipedia": "en:Kokosing River",
        "@geometry": "center"
      },
      "geometry": {
        "type": "Point",
        "coordinates": [
          -82.4609353,
          40.4834413
        ]
      },
      "id": "relation/7163888"
    },
    {
      "type": "Feature",
      "properties": {
        "@id": "relation/7292049",
        "destination": "Walhonding River",
        "name": "Mohican River",
        "type": "waterway",
        "waterway": "river",
        "wikidata": "Q1647544",
        "wikipedia": "en:Mohican River",
        "@geometry": "center"
      },
      "geometry": {
        "type": "Point",
        "coordinates": [
          -82.4040188,
          40.6437928
        ]
      },
      "id": "relation/7292049"
    },
    {
      "type": "Feature",
      "properties": {
        "@id": "relation/7394843",
        "name": "Maple Creek",
        "type": "waterway",
        "waterway": "river",
        "@geometry": "center"
      },
      "geometry": {
        "type": "Point",
        "coordinates": [
          -79.920325,
          40.1326789
        ]
      },
      "id": "relation/7394843"
    },
    {
      "type": "Feature",
      "properties": {
        "@id": "relation/7423046",
        "destination": "Potamac River",
        "name": "Shenandoah River",
        "type": "waterway",
        "waterway": "river",
        "wikidata": "Q777907",
        "wikipedia": "en:Shenandoah River",
        "@geometry": "center"
      },
      "geometry": {
        "type": "Point",
        "coordinates": [
          -77.9573725,
          39.1334892
        ]
      },
      "id": "relation/7423046"
    },
    {
      "type": "Feature",
      "properties": {
        "@id": "relation/7471387",
        "name": "Little Conemaugh River",
        "type": "waterway",
        "waterway": "river",
        "wikidata": "Q16894189",
        "wikipedia": "en:Little Conemaugh River",
        "@geometry": "center"
      },
      "geometry": {
        "type": "Point",
        "coordinates": [
          -78.7636791,
          40.3911104
        ]
      },
      "id": "relation/7471387"
    },
    {
      "type": "Feature",
      "properties": {
        "@id": "relation/7731909",
        "gnis:feature_id": "1548931",
        "name": "West Fork River",
        "type": "waterway",
        "waterway": "river",
        "wikidata": "Q3388682",
        "wikipedia": "en:West Fork River",
        "@geometry": "center"
      },
      "geometry": {
        "type": "Point",
        "coordinates": [
          -80.3280204,
          39.164817
        ]
      },
      "id": "relation/7731909"
    },
    {
      "type": "Feature",
      "properties": {
        "@id": "relation/7970895",
        "destination": "Ohio River",
        "name": "Muskingum River",
        "type": "waterway",
        "waterway": "river",
        "wikidata": "Q1595409",
        "wikipedia": "en:Muskingum River",
        "@geometry": "center"
      },
      "geometry": {
        "type": "Point",
        "coordinates": [
          -81.7343732,
          39.8406449
        ]
      },
      "id": "relation/7970895"
    },
    {
      "type": "Feature",
      "properties": {
        "@id": "relation/7970896",
        "destination": "Walhonding River",
        "name": "Killbuck Creek",
        "type": "waterway",
        "waterway": "river",
        "wikidata": "Q1741339",
        "wikipedia": "en:Killbuck Creek",
        "@geometry": "center"
      },
      "geometry": {
        "type": "Point",
        "coordinates": [
          -81.9714558,
          40.6622152
        ]
      },
      "id": "relation/7970896"
    },
    {
      "type": "Feature",
      "properties": {
        "@id": "relation/7970897",
        "destination": "Muskingum River",
        "name": "Walhonding River",
        "type": "waterway",
        "waterway": "river",
        "wikidata": "Q1138366",
        "wikipedia": "en:Walhonding River",
        "@geometry": "center"
      },
      "geometry": {
        "type": "Point",
        "coordinates": [
          -82.015057,
          40.319075
        ]
      },
      "id": "relation/7970897"
    },
    {
      "type": "Feature",
      "properties": {
        "@id": "relation/7986526",
        "name": "Mill Creek",
        "type": "waterway",
        "waterway": "river",
        "@geometry": "center"
      },
      "geometry": {
        "type": "Point",
        "coordinates": [
          -77.9090765,
          40.4814523
        ]
      },
      "id": "relation/7986526"
    },
    {
      "type": "Feature",
      "properties": {
        "@id": "relation/8262070",
        "name": "Captina Creek",
        "type": "waterway",
        "waterway": "river",
        "wikidata": "Q5036906",
        "@geometry": "center"
      },
      "geometry": {
        "type": "Point",
        "coordinates": [
          -80.9207437,
          39.8882351
        ]
      },
      "id": "relation/8262070"
    },
    {
      "type": "Feature",
      "properties": {
        "@id": "relation/8709875",
        "name": "Tuscarora Creek",
        "type": "waterway",
        "waterway": "river",
        "wikidata": "Q7856694",
        "wikipedia": "en:Tuscarora Creek (Juniata River tributary)",
        "@geometry": "center"
      },
      "geometry": {
        "type": "Point",
        "coordinates": [
          -77.5842608,
          40.3680004
        ]
      },
      "id": "relation/8709875"
    },
    {
      "type": "Feature",
      "properties": {
        "@id": "relation/8792396",
        "gnis:feature_id": "1542136",
        "name": "Little Kanawha River",
        "type": "waterway",
        "waterway": "river",
        "wikidata": "Q671902",
        "wikipedia": "en:Little Kanawha River",
        "@geometry": "center"
      },
      "geometry": {
        "type": "Point",
        "coordinates": [
          -80.9245602,
          38.9968683
        ]
      },
      "id": "relation/8792396"
    },
    {
      "type": "Feature",
      "properties": {
        "@id": "relation/8898600",
        "name": "Shavers Fork",
        "type": "waterway",
        "waterway": "river",
        "wikidata": "Q2277445",
        "wikipedia": "en:Shavers Fork",
        "@geometry": "center"
      },
      "geometry": {
        "type": "Point",
        "coordinates": [
          -79.8293351,
          38.7542531
        ]
      },
      "id": "relation/8898600"
    },
    {
      "type": "Feature",
      "properties": {
        "@id": "relation/9337667",
        "name": "Little Juniata River",
        "type": "waterway",
        "waterway": "river",
        "wikidata": "Q6650566",
        "wikipedia": "en:Little Juniata River",
        "@geometry": "center"
      },
      "geometry": {
        "type": "Point",
        "coordinates": [
          -78.2257537,
          40.5998759
        ]
      },
      "id": "relation/9337667"
    },
    {
      "type": "Feature",
      "properties": {
        "@id": "relation/9405704",
        "name": "Beaverdam Creek",
        "type": "waterway",
        "waterway": "river",
        "wikidata": "Q49852524",
        "@geometry": "center"
      },
      "geometry": {
        "type": "Point",
        "coordinates": [
          -78.4999122,
          40.2745106
        ]
      },
      "id": "relation/9405704"
    },
    {
      "type": "Feature",
      "properties": {
        "@id": "relation/9405705",
        "name": "Frankstown Branch Juniata River",
        "type": "waterway",
        "waterway": "river",
        "wikidata": "Q5492276",
        "wikipedia": "en:Frankstown Branch Juniata River",
        "@geometry": "center"
      },
      "geometry": {
        "type": "Point",
        "coordinates": [
          -78.257832,
          40.4317652
        ]
      },
      "id": "relation/9405705"
    },
    {
      "type": "Feature",
      "properties": {
        "@id": "relation/9505158",
        "destination": "Kanawha River",
        "gnis:feature_id": "1552301",
        "name": "New River",
        "type": "waterway",
        "waterway": "river",
        "wikidata": "Q952823",
        "wikipedia": "en:New River (Kanawha River tributary)",
        "@geometry": "center"
      },
      "geometry": {
        "type": "Point",
        "coordinates": [
          -80.9348845,
          37.3537873
        ]
      },
      "id": "relation/9505158"
    },
    {
      "type": "Feature",
      "properties": {
        "@id": "relation/9838493",
        "gnis:feature_id": "1187035",
        "name": "Saw Mill Run",
        "type": "waterway",
        "waterway": "river",
        "wikidata": "Q7428497",
        "wikipedia": "en:Saw Mill Run",
        "@geometry": "center"
      },
      "geometry": {
        "type": "Point",
        "coordinates": [
          -80.0147689,
          40.3968688
        ]
      },
      "id": "relation/9838493"
    },
    {
      "type": "Feature",
      "properties": {
        "@id": "relation/10398537",
        "gnis:feature_id": "1181332",
        "name": "Mingo Creek",
        "type": "waterway",
        "waterway": "river",
        "wikidata": "Q78100671",
        "@geometry": "center"
      },
      "geometry": {
        "type": "Point",
        "coordinates": [
          -80.0251902,
          40.2034714
        ]
      },
      "id": "relation/10398537"
    },
    {
      "type": "Feature",
      "properties": {
        "@id": "relation/11109654",
        "gnis:feature_id": "1066153",
        "name": "Pratts Fork",
        "type": "waterway",
        "waterway": "river",
        "@geometry": "center"
      },
      "geometry": {
        "type": "Point",
        "coordinates": [
          -82.0328861,
          39.2180306
        ]
      },
      "id": "relation/11109654"
    },
    {
      "type": "Feature",
      "properties": {
        "@id": "relation/11111642",
        "gnis:feature_id": "1076299",
        "name": "Long Run",
        "type": "waterway",
        "waterway": "river",
        "@geometry": "center"
      },
      "geometry": {
        "type": "Point",
        "coordinates": [
          -82.0531709,
          39.2836087
        ]
      },
      "id": "relation/11111642"
    },
    {
      "type": "Feature",
      "properties": {
        "@id": "relation/11116066",
        "gnis:feature_id": "1075196",
        "name": "Middle Branch Shade River",
        "type": "waterway",
        "waterway": "river",
        "wikidata": "Q34696070",
        "@geometry": "center"
      },
      "geometry": {
        "type": "Point",
        "coordinates": [
          -82.0010528,
          39.2044024
        ]
      },
      "id": "relation/11116066"
    },
    {
      "type": "Feature",
      "properties": {
        "@id": "relation/11122743",
        "gnis:feature_id": "1067045",
        "name": "West Branch Shade River",
        "type": "waterway",
        "waterway": "river",
        "wikidata": "Q94701135",
        "@geometry": "center"
      },
      "geometry": {
        "type": "Point",
        "coordinates": [
          -82.0397187,
          39.1446524
        ]
      },
      "id": "relation/11122743"
    },
    {
      "type": "Feature",
      "properties": {
        "@id": "relation/11190140",
        "destination": "Gauley River",
        "name": "Cherry River",
        "type": "waterway",
        "waterway": "river",
        "@geometry": "center"
      },
      "geometry": {
        "type": "Point",
        "coordinates": [
          -80.5813057,
          38.2543732
        ]
      },
      "id": "relation/11190140"
    },
    {
      "type": "Feature",
      "properties": {
        "@id": "relation/11544140",
        "destination": "Shenandoah River",
        "name": "North Fork Shenandoah River",
        "type": "waterway",
        "waterway": "river",
        "@geometry": "center"
      },
      "geometry": {
        "type": "Point",
        "coordinates": [
          -78.5641898,
          38.8035127
        ]
      },
      "id": "relation/11544140"
    },
    {
      "type": "Feature",
      "properties": {
        "@id": "relation/11544141",
        "destination": "Shenandoah River",
        "name": "South Fork Shenandoah River",
        "type": "waterway",
        "waterway": "river",
        "@geometry": "center"
      },
      "geometry": {
        "type": "Point",
        "coordinates": [
          -78.4977863,
          38.6202711
        ]
      },
      "id": "relation/11544141"
    },
    {
      "type": "Feature",
      "properties": {
        "@id": "relation/11634007",
        "destination": "Ohio River",
        "gnis:feature_id": "1076055",
        "name": "Hocking River",
        "type": "waterway",
        "waterway": "river",
        "wikidata": "Q1574319",
        "wikipedia": "en:Hocking River",
        "@geometry": "center"
      },
      "geometry": {
        "type": "Point",
        "coordinates": [
          -82.266867,
          39.4788501
        ]
      },
      "id": "relation/11634007"
    },
    {
      "type": "Feature",
      "properties": {
        "@id": "relation/11798556",
        "name": "West Branch Little Hocking River",
        "type": "waterway",
        "waterway": "river",
        "@geometry": "center"
      },
      "geometry": {
        "type": "Point",
        "coordinates": [
          -81.7493277,
          39.3303415
        ]
      },
      "id": "relation/11798556"
    },
    {
      "type": "Feature",
      "properties": {
        "@id": "relation/11806277",
        "name": "Olive Green Creek",
        "type": "waterway",
        "waterway": "river",
        "wikidata": "Q49936665",
        "@geometry": "center"
      },
      "geometry": {
        "type": "Point",
        "coordinates": [
          -81.6295333,
          39.6534651
        ]
      },
      "id": "relation/11806277"
    },
    {
      "type": "Feature",
      "properties": {
        "@id": "relation/11968645",
        "NHD:FCode": "55800",
        "destination": "Albemarle Sound",
        "gnis:feature_id": "1502110",
        "name": "Roanoke River",
        "type": "waterway",
        "waterway": "river",
        "wikidata": "Q1584933",
        "wikipedia": "en:Roanoke River",
        "@geometry": "center"
      },
      "geometry": {
        "type": "Point",
        "coordinates": [
          -78.4538209,
          36.549454
        ]
      },
      "id": "relation/11968645"
    },
    {
      "type": "Feature",
      "properties": {
        "@id": "relation/11968646",
        "destination": "James River",
        "name": "Craig Creek",
        "type": "waterway",
        "waterway": "river",
        "wikidata": "Q5180854",
        "wikipedia": "en:Craig Creek",
        "@geometry": "center"
      },
      "geometry": {
        "type": "Point",
        "coordinates": [
          -80.1345822,
          37.4876606
        ]
      },
      "id": "relation/11968646"
    },
    {
      "type": "Feature",
      "properties": {
        "@id": "relation/12089637",
        "alt_name": "Sand Creek",
        "destination": "Symmes Creek",
        "gnis:feature_id": "1076818",
        "name": "Sand Fork",
        "source": "United States Geological Survey",
        "type": "waterway",
        "waterway": "river",
        "@geometry": "center"
      },
      "geometry": {
        "type": "Point",
        "coordinates": [
          -82.3910186,
          38.7001435
        ]
      },
      "id": "relation/12089637"
    },
    {
      "type": "Feature",
      "properties": {
        "@id": "relation/12187695",
        "gnis:feature_id": "1058137",
        "name": "Whites Run",
        "type": "waterway",
        "waterway": "river",
        "wikidata": "Q34730820",
        "@geometry": "center"
      },
      "geometry": {
        "type": "Point",
        "coordinates": [
          -81.7105713,
          39.2416499
        ]
      },
      "id": "relation/12187695"
    },
    {
      "type": "Feature",
      "properties": {
        "@id": "relation/12189763",
        "gnis:feature_id": "1060546",
        "name": "Sawyer Run",
        "type": "waterway",
        "waterway": "river",
        "wikidata": "Q65050955",
        "wikipedia": "en:Sawyer Run",
        "@geometry": "center"
      },
      "geometry": {
        "type": "Point",
        "coordinates": [
          -81.7187388,
          39.2579767
        ]
      },
      "id": "relation/12189763"
    },
    {
      "type": "Feature",
      "properties": {
        "@id": "relation/12193778",
        "gnis:feature_id": "1076386",
        "name": "Mile Run",
        "type": "waterway",
        "waterway": "river",
        "wikidata": "Q34696704",
        "@geometry": "center"
      },
      "geometry": {
        "type": "Point",
        "coordinates": [
          -81.4955954,
          39.4042528
        ]
      },
      "id": "relation/12193778"
    },
    {
      "type": "Feature",
      "properties": {
        "@id": "relation/12207276",
        "gnis:feature_id": "1075746",
        "name": "Duck Creek",
        "type": "waterway",
        "waterway": "river",
        "wikidata": "Q1263478",
        "wikipedia": "en:Duck Creek (Ohio)",
        "@geometry": "center"
      },
      "geometry": {
        "type": "Point",
        "coordinates": [
          -81.4082078,
          39.4827716
        ]
      },
      "id": "relation/12207276"
    },
    {
      "type": "Feature",
      "properties": {
        "@id": "relation/12207388",
        "gnis:feature_id": "1076383",
        "name": "Middle Fork Duck Creek",
        "type": "waterway",
        "waterway": "river",
        "wikidata": "Q34696147",
        "@geometry": "center"
      },
      "geometry": {
        "type": "Point",
        "coordinates": [
          -81.4169222,
          39.6857136
        ]
      },
      "id": "relation/12207388"
    },
    {
      "type": "Feature",
      "properties": {
        "@id": "relation/12211233",
        "gnis:feature_id": "1047719",
        "name": "West Fork Duck Creek",
        "type": "waterway",
        "waterway": "river",
        "wikidata": "Q104889854",
        "@geometry": "center"
      },
      "geometry": {
        "type": "Point",
        "coordinates": [
          -81.5024057,
          39.7104806
        ]
      },
      "id": "relation/12211233"
    },
    {
      "type": "Feature",
      "properties": {
        "@id": "relation/12215586",
        "gnis:feature_id": "1075765",
        "name": "East Fork Duck Creek",
        "type": "waterway",
        "waterway": "river",
        "wikidata": "Q49899132",
        "@geometry": "center"
      },
      "geometry": {
        "type": "Point",
        "coordinates": [
          -81.3563749,
          39.6906404
        ]
      },
      "id": "relation/12215586"
    },
    {
      "type": "Feature",
      "properties": {
        "@id": "relation/12653177",
        "name": "Little Sandy Creek",
        "type": "waterway",
        "waterway": "river",
        "@geometry": "center"
      },
      "geometry": {
        "type": "Point",
        "coordinates": [
          -81.5110983,
          38.4460087
        ]
      },
      "id": "relation/12653177"
    },
    {
      "type": "Feature",
      "properties": {
        "@id": "relation/12664039",
        "name": "Marsh Fork",
        "source:name": "USGS Topo Maps",
        "type": "waterway",
        "waterway": "river",
        "@geometry": "center"
      },
      "geometry": {
        "type": "Point",
        "coordinates": [
          -81.434336,
          37.8682086
        ]
      },
      "id": "relation/12664039"
    },
    {
      "type": "Feature",
      "properties": {
        "@id": "relation/13123516",
        "gnis:feature_id": "1076603",
        "name": "Pawpaw Creek",
        "type": "waterway",
        "waterway": "river",
        "wikidata": "Q34705361",
        "@geometry": "center"
      },
      "geometry": {
        "type": "Point",
        "coordinates": [
          -81.3476237,
          39.574618
        ]
      },
      "id": "relation/13123516"
    },
    {
      "type": "Feature",
      "properties": {
        "@id": "relation/13136894",
        "gnis:feature_id": "1192945",
        "name": "Millers Run",
        "type": "waterway",
        "waterway": "river",
        "wikidata": "Q66442988",
        "wikipedia": "en:Millers Run (Chartiers Creek tributary)",
        "@geometry": "center"
      },
      "geometry": {
        "type": "Point",
        "coordinates": [
          -80.2064256,
          40.3414304
        ]
      },
      "id": "relation/13136894"
    },
    {
      "type": "Feature",
      "properties": {
        "@id": "relation/13466747",
        "destination": "James River",
        "name": "Cowpasture River",
        "type": "waterway",
        "waterway": "river",
        "wikidata": "Q5179786",
        "wikipedia": "en:Cowpasture River",
        "@geometry": "center"
      },
      "geometry": {
        "type": "Point",
        "coordinates": [
          -79.5874763,
          38.086157
        ]
      },
      "id": "relation/13466747"
    },
    {
      "type": "Feature",
      "properties": {
        "@id": "relation/13466921",
        "destination": "Cowpasture River",
        "name": "Bullpasture River",
        "type": "waterway",
        "waterway": "river",
        "wikidata": "Q4997018",
        "wikipedia": "en:Bullpasture River",
        "@geometry": "center"
      },
      "geometry": {
        "type": "Point",
        "coordinates": [
          -79.5208326,
          38.322705
        ]
      },
      "id": "relation/13466921"
    },
    {
      "type": "Feature",
      "properties": {
        "@id": "relation/13469617",
        "destination": "James River",
        "name": "Blackwater Creek",
        "type": "waterway",
        "waterway": "river",
        "@geometry": "center"
      },
      "geometry": {
        "type": "Point",
        "coordinates": [
          -79.1742033,
          37.4058258
        ]
      },
      "id": "relation/13469617"
    },
    {
      "type": "Feature",
      "properties": {
        "@id": "relation/13470181",
        "name": "Licking River",
        "type": "waterway",
        "waterway": "river",
        "wikidata": "Q1823611",
        "wikipedia": "en:Licking River (Ohio)",
        "@geometry": "center"
      },
      "geometry": {
        "type": "Point",
        "coordinates": [
          -82.202607,
          40.002899
        ]
      },
      "id": "relation/13470181"
    },
    {
      "type": "Feature",
      "properties": {
        "@id": "relation/13507151",
        "gnis:feature_id": "1540627",
        "name": "Hurricane Creek",
        "type": "waterway",
        "waterway": "river",
        "wikidata": "Q109910499",
        "@geometry": "center"
      },
      "geometry": {
        "type": "Point",
        "coordinates": [
          -81.9877961,
          38.4786262
        ]
      },
      "id": "relation/13507151"
    },
    {
      "type": "Feature",
      "properties": {
        "@id": "relation/14049871",
        "destination": "James River",
        "name": "Jackson River",
        "type": "waterway",
        "waterway": "river",
        "wikidata": "Q6117354",
        "@geometry": "center"
      },
      "geometry": {
        "type": "Point",
        "coordinates": [
          -79.829468,
          38.0945222
        ]
      },
      "id": "relation/14049871"
    },
    {
      "type": "Feature",
      "properties": {
        "@id": "relation/14113024",
        "gnis:feature_id": "1181141",
        "name": "Mill Creek",
        "type": "waterway",
        "waterway": "river",
        "wikidata": "Q1466928",
        "@geometry": "center"
      },
      "geometry": {
        "type": "Point",
        "coordinates": [
          -80.4980453,
          40.6093992
        ]
      },
      "id": "relation/14113024"
    },
    {
      "type": "Feature",
      "properties": {
        "@id": "relation/14214984",
        "name": "Antietam Creek",
        "type": "waterway",
        "waterway": "river",
        "wikidata": "Q575145",
        "wikipedia": "en:Antietam Creek",
        "@geometry": "center"
      },
      "geometry": {
        "type": "Point",
        "coordinates": [
          -77.6762731,
          39.5703187
        ]
      },
      "id": "relation/14214984"
    },
    {
      "type": "Feature",
      "properties": {
        "@id": "relation/14321179",
        "name": "Little Muskingum River",
        "type": "waterway",
        "waterway": "river",
        "wikidata": "Q1865732",
        "wikipedia": "en:Little Muskingum River",
        "@geometry": "center"
      },
      "geometry": {
        "type": "Point",
        "coordinates": [
          -81.2346974,
          39.5389697
        ]
      },
      "id": "relation/14321179"
    },
    {
      "type": "Feature",
      "properties": {
        "@id": "relation/14748763",
        "gnis:feature_id": "1192382",
        "name": "Dunlap Creek",
        "type": "waterway",
        "waterway": "river",
        "wikidata": "Q49898550",
        "@geometry": "center"
      },
      "geometry": {
        "type": "Point",
        "coordinates": [
          -79.8451238,
          39.9702148
        ]
      },
      "id": "relation/14748763"
    },
    {
      "type": "Feature",
      "properties": {
        "@id": "relation/15339675",
        "name": "Black Fork Mohican River",
        "type": "waterway",
        "waterway": "river",
        "@geometry": "center"
      },
      "geometry": {
        "type": "Point",
        "coordinates": [
          -82.4490162,
          40.7679257
        ]
      },
      "id": "relation/15339675"
    },
    {
      "type": "Feature",
      "properties": {
        "@id": "relation/15342715",
        "name": "Clear Fork Mohican River",
        "type": "waterway",
        "waterway": "river",
        "wikidata": "Q5130717",
        "wikipedia": "en:Clear Fork Mohican River",
        "@geometry": "center"
      },
      "geometry": {
        "type": "Point",
        "coordinates": [
          -82.4541232,
          40.6843341
        ]
      },
      "id": "relation/15342715"
    },
    {
      "type": "Feature",
      "properties": {
        "@id": "relation/15342768",
        "name": "Conotton Creek",
        "type": "waterway",
        "waterway": "river",
        "wikidata": "Q1126550",
        "wikipedia": "en:Conotton Creek",
        "@geometry": "center"
      },
      "geometry": {
        "type": "Point",
        "coordinates": [
          -81.1759528,
          40.4629044
        ]
      },
      "id": "relation/15342768"
    },
    {
      "type": "Feature",
      "properties": {
        "@id": "relation/15342886",
        "name": "Federal Creek",
        "type": "waterway",
        "waterway": "river",
        "wikidata": "Q5440174",
        "wikipedia": "en:Federal Creek",
        "@geometry": "center"
      },
      "geometry": {
        "type": "Point",
        "coordinates": [
          -81.9169735,
          39.3614396
        ]
      },
      "id": "relation/15342886"
    },
    {
      "type": "Feature",
      "properties": {
        "@id": "relation/15349198",
        "fixme": "incomplete trace",
        "gnis:feature_id": "1066759",
        "name": "Huff Run",
        "type": "waterway",
        "waterway": "river",
        "wikidata": "Q5929496",
        "wikipedia": "en:Huff Run",
        "@geometry": "center"
      },
      "geometry": {
        "type": "Point",
        "coordinates": [
          -81.2986038,
          40.6145513
        ]
      },
      "id": "relation/15349198"
    },
    {
      "type": "Feature",
      "properties": {
        "@id": "relation/15514486",
        "name": "Mill Creek",
        "type": "waterway",
        "waterway": "river",
        "@geometry": "center"
      },
      "geometry": {
        "type": "Point",
        "coordinates": [
          -81.0515679,
          39.5329506
        ]
      },
      "id": "relation/15514486"
    },
    {
      "type": "Feature",
      "properties": {
        "@id": "relation/15613911",
        "name": "Big Run",
        "type": "waterway",
        "waterway": "river",
        "@geometry": "center"
      },
      "geometry": {
        "type": "Point",
        "coordinates": [
          -81.5335102,
          39.5730309
        ]
      },
      "id": "relation/15613911"
    },
    {
      "type": "Feature",
      "properties": {
        "@id": "relation/15613912",
        "fixme": "incomplete trace",
        "name": "Mason Run",
        "type": "waterway",
        "waterway": "river",
        "@geometry": "center"
      },
      "geometry": {
        "type": "Point",
        "coordinates": [
          -81.5474409,
          39.5415164
        ]
      },
      "id": "relation/15613912"
    },
    {
      "type": "Feature",
      "properties": {
        "@id": "relation/15626680",
        "fixme": "incomplete trace",
        "name": "Cushing Run",
        "type": "waterway",
        "waterway": "river",
        "@geometry": "center"
      },
      "geometry": {
        "type": "Point",
        "coordinates": [
          -81.5846639,
          39.565601
        ]
      },
      "id": "relation/15626680"
    },
    {
      "type": "Feature",
      "properties": {
        "@id": "relation/15627117",
        "name": "Straight Run",
        "type": "waterway",
        "waterway": "river",
        "@geometry": "center"
      },
      "geometry": {
        "type": "Point",
        "coordinates": [
          -81.5461515,
          39.5712169
        ]
      },
      "id": "relation/15627117"
    },
    {
      "type": "Feature",
      "properties": {
        "@id": "relation/15687419",
        "fixme": "incomplete to source",
        "name": "Wheeling Creek",
        "type": "waterway",
        "waterway": "river",
        "wikidata": "Q2566664",
        "wikimedia_commons": "File:Wheeling Creek Ohio.jpg",
        "wikipedia": "en:Wheeling Creek (Ohio)",
        "@geometry": "center"
      },
      "geometry": {
        "type": "Point",
        "coordinates": [
          -80.8547198,
          40.0974023
        ]
      },
      "id": "relation/15687419"
    },
    {
      "type": "Feature",
      "properties": {
        "@id": "relation/15687454",
        "name": "Danas Run",
        "type": "waterway",
        "waterway": "river",
        "wikidata": "Q34666909",
        "wikipedia": "en:Danas Run",
        "@geometry": "center"
      },
      "geometry": {
        "type": "Point",
        "coordinates": [
          -81.2339763,
          39.4151953
        ]
      },
      "id": "relation/15687454"
    },
    {
      "type": "Feature",
      "properties": {
        "@id": "relation/15884417",
        "destination": "Rivanna River",
        "name": "Meadow Creek",
        "type": "waterway",
        "waterway": "river",
        "@geometry": "center"
      },
      "geometry": {
        "type": "Point",
        "coordinates": [
          -78.4763438,
          38.0550089
        ]
      },
      "id": "relation/15884417"
    },
    {
      "type": "Feature",
      "properties": {
        "@id": "relation/16073244",
        "destination": "Rivanna River",
        "name": "Moores Creek",
        "type": "waterway",
        "waterway": "river",
        "@geometry": "center"
      },
      "geometry": {
        "type": "Point",
        "coordinates": [
          -78.5179547,
          38.0108448
        ]
      },
      "id": "relation/16073244"
    },
    {
      "type": "Feature",
      "properties": {
        "@id": "relation/16075025",
        "destination": "Rivanna River",
        "name": "South Fork Rivanna River",
        "type": "waterway",
        "waterway": "river",
        "@geometry": "center"
      },
      "geometry": {
        "type": "Point",
        "coordinates": [
          -78.4955032,
          38.108697
        ]
      },
      "id": "relation/16075025"
    },
    {
      "type": "Feature",
      "properties": {
        "@id": "relation/16076649",
        "destination": "James River",
        "name": "Rivanna River",
        "type": "waterway",
        "waterway": "river",
        "wikidata": "Q7336992",
        "wikipedia": "en:Rivanna River",
        "@geometry": "center"
      },
      "geometry": {
        "type": "Point",
        "coordinates": [
          -78.3118257,
          37.9120449
        ]
      },
      "id": "relation/16076649"
    },
    {
      "type": "Feature",
      "properties": {
        "@id": "relation/16320653",
        "destination": "Muskingum River",
        "name": "Wills Creek",
        "type": "waterway",
        "waterway": "river",
        "wikidata": "Q4470029",
        "wikipedia": "en:Wills Creek (Ohio)",
        "@geometry": "center"
      },
      "geometry": {
        "type": "Point",
        "coordinates": [
          -81.7210918,
          40.0646927
        ]
      },
      "id": "relation/16320653"
    },
    {
      "type": "Feature",
      "properties": {
        "@id": "relation/16682606",
        "destination": "South Fork Rivanna Reservoir",
        "name": "Ivy Creek",
        "type": "waterway",
        "waterway": "river",
        "@geometry": "center"
      },
      "geometry": {
        "type": "Point",
        "coordinates": [
          -78.5600939,
          38.0658176
        ]
      },
      "id": "relation/16682606"
    },
    {
      "type": "Feature",
      "properties": {
        "@id": "relation/16753612",
        "destination": "Maury River",
        "name": "Hays Creek",
        "type": "waterway",
        "waterway": "river",
        "@geometry": "center"
      },
      "geometry": {
        "type": "Point",
        "coordinates": [
          -79.3492028,
          37.9209534
        ]
      },
      "id": "relation/16753612"
    },
    {
      "type": "Feature",
      "properties": {
        "@id": "relation/16753790",
        "destination": "James River",
        "name": "Maury River",
        "type": "waterway",
        "waterway": "river",
        "wikidata": "Q12061518",
        "wikipedia": "en:Maury River",
        "@geometry": "center"
      },
      "geometry": {
        "type": "Point",
        "coordinates": [
          -79.4091823,
          37.7863286
        ]
      },
      "id": "relation/16753790"
    },
    {
      "type": "Feature",
      "properties": {
        "@id": "relation/16761185",
        "destination": "Maury River",
        "name": "Buffalo Creek",
        "type": "waterway",
        "waterway": "river",
        "wikidata": "Q4985710",
        "@geometry": "center"
      },
      "geometry": {
        "type": "Point",
        "coordinates": [
          -79.4987625,
          37.71683
        ]
      },
      "id": "relation/16761185"
    },
    {
      "type": "Feature",
      "properties": {
        "@id": "relation/16761186",
        "destination": "Buffalo Creek",
        "name": "Colliers Creek",
        "type": "waterway",
        "waterway": "river",
        "@geometry": "center"
      },
      "geometry": {
        "type": "Point",
        "coordinates": [
          -79.5725786,
          37.7963975
        ]
      },
      "id": "relation/16761186"
    },
    {
      "type": "Feature",
      "properties": {
        "@id": "relation/16776505",
        "destination": "South River",
        "name": "Irish Creek",
        "type": "waterway",
        "waterway": "river",
        "@geometry": "center"
      },
      "geometry": {
        "type": "Point",
        "coordinates": [
          -79.232174,
          37.828734
        ]
      },
      "id": "relation/16776505"
    },
    {
      "type": "Feature",
      "properties": {
        "@id": "relation/16776513",
        "destination": "South River",
        "name": "Saint Marys River",
        "type": "waterway",
        "waterway": "river",
        "@geometry": "center"
      },
      "geometry": {
        "type": "Point",
        "coordinates": [
          -79.1109036,
          37.9272479
        ]
      },
      "id": "relation/16776513"
    },
    {
      "type": "Feature",
      "properties": {
        "@id": "relation/16776515",
        "destination": "Maury River",
        "fixme": "sort out side streams",
        "name": "South River",
        "type": "waterway",
        "waterway": "river",
        "wikidata": "Q7568321",
        "@geometry": "center"
      },
      "geometry": {
        "type": "Point",
        "coordinates": [
          -79.2730424,
          37.8578742
        ]
      },
      "id": "relation/16776515"
    },
    {
      "type": "Feature",
      "properties": {
        "@id": "relation/16776529",
        "destination": "Maury River",
        "name": "Little Calfpasture River",
        "type": "waterway",
        "waterway": "river",
        "@geometry": "center"
      },
      "geometry": {
        "type": "Point",
        "coordinates": [
          -79.3632269,
          38.0566616
        ]
      },
      "id": "relation/16776529"
    },
    {
      "type": "Feature",
      "properties": {
        "@id": "relation/16776541",
        "destination": "Calfpasture River",
        "name": "Mill Creek",
        "type": "waterway",
        "waterway": "river",
        "@geometry": "center"
      },
      "geometry": {
        "type": "Point",
        "coordinates": [
          -79.524974,
          38.0750266
        ]
      },
      "id": "relation/16776541"
    },
    {
      "type": "Feature",
      "properties": {
        "@id": "relation/16776543",
        "destination": "Maury River",
        "name": "Calfpasture River",
        "type": "waterway",
        "waterway": "river",
        "@geometry": "center"
      },
      "geometry": {
        "type": "Point",
        "coordinates": [
          -79.3913147,
          38.1462841
        ]
      },
      "id": "relation/16776543"
    },
    {
      "type": "Feature",
      "properties": {
        "@id": "relation/16776544",
        "destination": "Maury River",
        "name": "Whistle Creek",
        "type": "waterway",
        "waterway": "river",
        "@geometry": "center"
      },
      "geometry": {
        "type": "Point",
        "coordinates": [
          -79.4962414,
          37.8169605
        ]
      },
      "id": "relation/16776544"
    },
    {
      "type": "Feature",
      "properties": {
        "@id": "relation/16776550",
        "destination": "Maury River",
        "name": "Kerrs Creek",
        "type": "waterway",
        "waterway": "river",
        "@geometry": "center"
      },
      "geometry": {
        "type": "Point",
        "coordinates": [
          -79.505573,
          37.8406164
        ]
      },
      "id": "relation/16776550"
    },
    {
      "type": "Feature",
      "properties": {
        "@id": "relation/16784450",
        "destination": "James River",
        "name": "Reed Creek",
        "type": "waterway",
        "waterway": "river",
        "@geometry": "center"
      },
      "geometry": {
        "type": "Point",
        "coordinates": [
          -79.4226222,
          37.5078221
        ]
      },
      "id": "relation/16784450"
    },
    {
      "type": "Feature",
      "properties": {
        "@id": "relation/16784453",
        "destination": "James River",
        "name": "Otter Creek",
        "type": "waterway",
        "waterway": "river",
        "@geometry": "center"
      },
      "geometry": {
        "type": "Point",
        "coordinates": [
          -79.3424948,
          37.6042937
        ]
      },
      "id": "relation/16784453"
    },
    {
      "type": "Feature",
      "properties": {
        "@id": "relation/16827081",
        "destination": "Ohio River",
        "name": "Levisa Fork",
        "type": "waterway",
        "waterway": "river",
        "@geometry": "center"
      },
      "geometry": {
        "type": "Point",
        "coordinates": [
          -82.3738202,
          37.4973705
        ]
      },
      "id": "relation/16827081"
    },
    {
      "type": "Feature",
      "properties": {
        "@id": "relation/17058351",
        "name": "Coal Run",
        "type": "waterway",
        "waterway": "river",
        "@geometry": "center"
      },
      "geometry": {
        "type": "Point",
        "coordinates": [
          -81.8124965,
          39.4493006
        ]
      },
      "id": "relation/17058351"
    },
    {
      "type": "Feature",
      "properties": {
        "@id": "relation/17238492",
        "destination": "James River",
        "name": "Pedlar River",
        "type": "waterway",
        "waterway": "river",
        "wikidata": "Q7159318",
        "wikipedia": "en:Pedlar River",
        "@geometry": "center"
      },
      "geometry": {
        "type": "Point",
        "coordinates": [
          -79.2522543,
          37.6527064
        ]
      },
      "id": "relation/17238492"
    },
    {
      "type": "Feature",
      "properties": {
        "@id": "relation/17239875",
        "destination": "Pedlar River",
        "name": "Horsley Creek",
        "type": "waterway",
        "waterway": "river",
        "@geometry": "center"
      },
      "geometry": {
        "type": "Point",
        "coordinates": [
          -79.2366157,
          37.6156114
        ]
      },
      "id": "relation/17239875"
    },
    {
      "type": "Feature",
      "properties": {
        "@id": "relation/17268988",
        "name": "Raystown Branch Juniata River",
        "type": "waterway",
        "waterway": "river",
        "wikidata": "Q7299385",
        "wikipedia": "en:Raystown Branch Juniata River",
        "@geometry": "center"
      },
      "geometry": {
        "type": "Point",
        "coordinates": [
          -78.4269434,
          40.1855955
        ]
      },
      "id": "relation/17268988"
    },
    {
      "type": "Feature",
      "properties": {
        "@id": "relation/17345939",
        "gnis:feature_id": "1170602",
        "name": "Buffalo Creek",
        "type": "waterway",
        "waterway": "river",
        "wikidata": "Q48743910",
        "wikipedia": "en:Buffalo Creek (Ohio River tributary)",
        "@geometry": "center"
      },
      "geometry": {
        "type": "Point",
        "coordinates": [
          -80.4886756,
          40.1711433
        ]
      },
      "id": "relation/17345939"
    },
    {
      "type": "Feature",
      "properties": {
        "@id": "relation/17409690",
        "destination": "Ohio River",
        "name": "Indian Run",
        "type": "waterway",
        "waterway": "river",
        "@geometry": "center"
      },
      "geometry": {
        "type": "Point",
        "coordinates": [
          -81.7601313,
          39.1668935
        ]
      },
      "id": "relation/17409690"
    },
    {
      "type": "Feature",
      "properties": {
        "@id": "relation/17409714",
        "destination": "Ohio River",
        "name": "Sugarcamp Run",
        "type": "waterway",
        "waterway": "river",
        "@geometry": "center"
      },
      "geometry": {
        "type": "Point",
        "coordinates": [
          -81.7500082,
          39.1433657
        ]
      },
      "id": "relation/17409714"
    },
    {
      "type": "Feature",
      "properties": {
        "@id": "relation/17620620",
        "destination": "Chesapeake Bay",
        "gnis:feature_id": "1479404",
        "name": "Rappahannock River",
        "name:etymology:wikidata": "Q7294310",
        "type": "waterway",
        "waterway": "river",
        "wikidata": "Q1333499",
        "@geometry": "center"
      },
      "geometry": {
        "type": "Point",
        "coordinates": [
          -77.2062033,
          38.2327735
        ]
      },
      "id": "relation/17620620"
    },
    {
      "type": "Feature",
      "properties": {
        "@id": "relation/17846274",
        "gnis:feature_id": "1077000",
        "name": "Sunday Creek",
        "type": "waterway",
        "waterway": "river",
        "wikidata": "Q1468946",
        "wikipedia": "en:Sunday Creek (Ohio)",
        "@geometry": "center"
      },
      "geometry": {
        "type": "Point",
        "coordinates": [
          -82.093119,
          39.5248474
        ]
      },
      "id": "relation/17846274"
    },
    {
      "type": "Feature",
      "properties": {
        "@id": "relation/18149760",
        "name": "Kings Creek",
        "type": "waterway",
        "waterway": "river",
        "wikidata": "Q35499335",
        "wikipedia": "en:Kings Creek (Ohio River tributary)",
        "@geometry": "center"
      },
      "geometry": {
        "type": "Point",
        "coordinates": [
          -80.5847262,
          40.4403652
        ]
      },
      "id": "relation/18149760"
    },
    {
      "type": "Feature",
      "properties": {
        "@id": "relation/18488068",
        "name": "South Anna River",
        "type": "waterway",
        "waterway": "river",
        "wikidata": "Q7565992",
        "@geometry": "center"
      },
      "geometry": {
        "type": "Point",
        "coordinates": [
          -77.813068,
          37.9572871
        ]
      },
      "id": "relation/18488068"
    },
    {
      "type": "Feature",
      "properties": {
        "@id": "relation/18488078",
        "name": "Lynch River",
        "type": "waterway",
        "waterway": "river",
        "wikidata": "Q6708442",
        "@geometry": "center"
      },
      "geometry": {
        "type": "Point",
        "coordinates": [
          -78.5464783,
          38.2415314
        ]
      },
      "id": "relation/18488078"
    },
    {
      "type": "Feature",
      "properties": {
        "@id": "relation/18488086",
        "name": "Willis River",
        "type": "waterway",
        "waterway": "river",
        "wikidata": "Q14713542",
        "@geometry": "center"
      },
      "geometry": {
        "type": "Point",
        "coordinates": [
          -78.2379681,
          37.5675518
        ]
      },
      "id": "relation/18488086"
    },
    {
      "type": "Feature",
      "properties": {
        "@id": "relation/18488091",
        "name": "Roach River",
        "type": "waterway",
        "waterway": "river",
        "wikidata": "Q7339238",
        "@geometry": "center"
      },
      "geometry": {
        "type": "Point",
        "coordinates": [
          -78.5294725,
          38.2729875
        ]
      },
      "id": "relation/18488091"
    },
    {
      "type": "Feature",
      "properties": {
        "@id": "relation/18488093",
        "name": "Slate River",
        "type": "waterway",
        "waterway": "river",
        "wikidata": "Q7538855",
        "@geometry": "center"
      },
      "geometry": {
        "type": "Point",
        "coordinates": [
          -78.5183276,
          37.5886646
        ]
      },
      "id": "relation/18488093"
    },
    {
      "type": "Feature",
      "properties": {
        "@id": "relation/18559270",
        "gnis:feature_id": "1542208",
        "name": "Little Sandy Creek",
        "type": "waterway",
        "waterway": "river",
        "wikidata": "Q35320910",
        "@geometry": "center"
      },
      "geometry": {
        "type": "Point",
        "coordinates": [
          -81.7594265,
          38.9900008
        ]
      },
      "id": "relation/18559270"
    },
    {
      "type": "Feature",
      "properties": {
        "@id": "relation/18657625",
        "name": "Bluestone River",
        "type": "waterway",
        "waterway": "river",
        "wikidata": "Q886078",
        "wikipedia": "en:Bluestone River",
        "@geometry": "center"
      },
      "geometry": {
        "type": "Point",
        "coordinates": [
          -81.123481,
          37.4453135
        ]
      },
      "id": "relation/18657625"
    },
    {
      "type": "Feature",
      "properties": {
        "@id": "relation/18657626",
        "name": "Greenbrier River",
        "type": "waterway",
        "waterway": "river",
        "wikidata": "Q1544689",
        "wikipedia": "en:Greenbrier River",
        "@geometry": "center"
      },
      "geometry": {
        "type": "Point",
        "coordinates": [
          -80.364106,
          38.073161
        ]
      },
      "id": "relation/18657626"
    },
    {
      "type": "Feature",
      "properties": {
        "@id": "relation/18657627",
        "name": "West Fork Greenbrier River",
        "type": "waterway",
        "waterway": "river",
        "wikidata": "Q34870891",
        "@geometry": "center"
      },
      "geometry": {
        "type": "Point",
        "coordinates": [
          -79.7936997,
          38.6393718
        ]
      },
      "id": "relation/18657627"
    },
    {
      "type": "Feature",
      "properties": {
        "@id": "relation/18657628",
        "name": "East Fork Greenbrier River",
        "type": "waterway",
        "waterway": "river",
        "wikidata": "Q56568942",
        "@geometry": "center"
      },
      "geometry": {
        "type": "Point",
        "coordinates": [
          -79.7325385,
          38.597073
        ]
      },
      "id": "relation/18657628"
    },
    {
      "type": "Feature",
      "properties": {
        "@id": "relation/18825298",
        "destination": "Elk River",
        "name": "Birch River",
        "type": "waterway",
        "waterway": "river",
        "wikidata": "Q4915686",
        "wikipedia": "en:Birch River (West Virginia)",
        "@geometry": "center"
      },
      "geometry": {
        "type": "Point",
        "coordinates": [
          -80.732037,
          38.5095872
        ]
      },
      "id": "relation/18825298"
    },
    {
      "type": "Feature",
      "properties": {
        "@id": "relation/19232403",
        "destination": "Ohio River",
        "name": "Sheets Run",
        "type": "waterway",
        "waterway": "river",
        "@geometry": "center"
      },
      "geometry": {
        "type": "Point",
        "coordinates": [
          -81.1341,
          39.4467387
        ]
      },
      "id": "relation/19232403"
    },
    {
      "type": "Feature",
      "properties": {
        "@id": "relation/19361998",
        "destination": "James River",
        "name": "Harris Creek",
        "type": "waterway",
        "waterway": "river",
        "@geometry": "center"
      },
      "geometry": {
        "type": "Point",
        "coordinates": [
          -79.1480217,
          37.5212328
        ]
      },
      "id": "relation/19361998"
    },
    {
      "type": "Feature",
      "properties": {
        "@id": "relation/19361999",
        "destination": "Harris Creek",
        "name": "Graham Creek",
        "type": "waterway",
        "waterway": "river",
        "@geometry": "center"
      },
      "geometry": {
        "type": "Point",
        "coordinates": [
          -79.175105,
          37.5102943
        ]
      },
      "id": "relation/19361999"
    },
    {
      "type": "Feature",
      "properties": {
        "@id": "relation/19380676",
        "destination": "Youghiogheny River",
        "name": "Little Youghiogheny River",
        "type": "waterway",
        "waterway": "river",
        "@geometry": "center"
      },
      "geometry": {
        "type": "Point",
        "coordinates": [
          -79.3566963,
          39.4075652
        ]
      },
      "id": "relation/19380676"
    },
    {
      "type": "Feature",
      "properties": {
        "@id": "relation/19380677",
        "destination": "Youghiogheny River",
        "name": "Cherry Creek",
        "type": "waterway",
        "waterway": "river",
        "@geometry": "center"
      },
      "geometry": {
        "type": "Point",
        "coordinates": [
          -79.4420638,
          39.331376
        ]
      },
      "id": "relation/19380677"
    },
    {
      "type": "Feature",
      "properties": {
        "@id": "relation/19435824",
        "destination": "Youghiogheny River",
        "name": "Snowy Creek",
        "type": "waterway",
        "waterway": "river",
        "@geometry": "center"
      },
      "geometry": {
        "type": "Point",
        "coordinates": [
          -79.4782247,
          39.4008106
        ]
      },
      "id": "relation/19435824"
    },
    {
      "type": "Feature",
      "properties": {
        "@id": "relation/19437458",
        "name": "Pigeon Creek",
        "type": "waterway",
        "waterway": "river",
        "wikidata": "Q135660801",
        "@geometry": "center"
      },
      "geometry": {
        "type": "Point",
        "coordinates": [
          -79.9724372,
          40.1523598
        ]
      },
      "id": "relation/19437458"
    },
    {
      "type": "Feature",
      "properties": {
        "@id": "relation/19450554",
        "name": "South Fork Tenmile Creek",
        "type": "waterway",
        "waterway": "river",
        "wikidata": "Q85802276",
        "wikipedia": "en:South Fork Tenmile Creek (Tenmile Creek tributary)",
        "@geometry": "center"
      },
      "geometry": {
        "type": "Point",
        "coordinates": [
          -80.1903193,
          39.9246011
        ]
      },
      "id": "relation/19450554"
    },
    {
      "type": "Feature",
      "properties": {
        "@id": "relation/19450676",
        "destination": "South Fork Shenandoah River",
        "name": "North River",
        "type": "waterway",
        "waterway": "river",
        "@geometry": "center"
      },
      "geometry": {
        "type": "Point",
        "coordinates": [
          -79.0523965,
          38.3647066
        ]
      },
      "id": "relation/19450676"
    },
    {
      "type": "Feature",
      "properties": {
        "@id": "relation/19450677",
        "destination": "North River",
        "name": "Little River",
        "type": "waterway",
        "waterway": "river",
        "@geometry": "center"
      },
      "geometry": {
        "type": "Point",
        "coordinates": [
          -79.1869234,
          38.3865237
        ]
      },
      "id": "relation/19450677"
    },
    {
      "type": "Feature",
      "properties": {
        "@id": "relation/19560862",
        "destination": "Piney River",
        "name": "South Fork Piney River",
        "type": "waterway",
        "waterway": "river",
        "@geometry": "center"
      },
      "geometry": {
        "type": "Point",
        "coordinates": [
          -79.1545378,
          37.7803617
        ]
      },
      "id": "relation/19560862"
    },
    {
      "type": "Feature",
      "properties": {
        "@id": "relation/19560865",
        "destination": "Tye River",
        "name": "Piney River",
        "type": "waterway",
        "waterway": "river",
        "@geometry": "center"
      },
      "geometry": {
        "type": "Point",
        "coordinates": [
          -79.042405,
          37.7344551
        ]
      },
      "id": "relation/19560865"
    },
    {
      "type": "Feature",
      "properties": {
        "@id": "relation/19560866",
        "destination": "Piney River",
        "name": "North Fork Piney River",
        "type": "waterway",
        "waterway": "river",
        "@geometry": "center"
      },
      "geometry": {
        "type": "Point",
        "coordinates": [
          -79.1450301,
          37.8022184
        ]
      },
      "id": "relation/19560866"
    },
    {
      "type": "Feature",
      "properties": {
        "@id": "relation/19560995",
        "destination": "Piney River",
        "name": "Little Piney River",
        "type": "waterway",
        "waterway": "river",
        "@geometry": "center"
      },
      "geometry": {
        "type": "Point",
        "coordinates": [
          -79.1177454,
          37.7500628
        ]
      },
      "id": "relation/19560995"
    },
    {
      "type": "Feature",
      "properties": {
        "@id": "relation/19561254",
        "destination": "Tye River",
        "name": "North Fork Tye River",
        "type": "waterway",
        "waterway": "river",
        "@geometry": "center"
      },
      "geometry": {
        "type": "Point",
        "coordinates": [
          -79.0850892,
          37.8762056
        ]
      },
      "id": "relation/19561254"
    },
    {
      "type": "Feature",
      "properties": {
        "@id": "relation/19561786",
        "destination": "Tye River",
        "name": "South Fork Tye River",
        "type": "waterway",
        "waterway": "river",
        "@geometry": "center"
      },
      "geometry": {
        "type": "Point",
        "coordinates": [
          -79.0916461,
          37.8549819
        ]
      },
      "id": "relation/19561786"
    },
    {
      "type": "Feature",
      "properties": {
        "@id": "relation/19570943",
        "destination": "Rapidan River",
        "name": "Conway River",
        "type": "waterway",
        "waterway": "river",
        "@geometry": "center"
      },
      "geometry": {
        "type": "Point",
        "coordinates": [
          -78.4109172,
          38.3943431
        ]
      },
      "id": "relation/19570943"
    },
    {
      "type": "Feature",
      "properties": {
        "@id": "relation/19577083",
        "destination": "South Fork Rivanna River",
        "name": "Moormans River",
        "type": "waterway",
        "waterway": "river",
        "@geometry": "center"
      },
      "geometry": {
        "type": "Point",
        "coordinates": [
          -78.6492141,
          38.1298085
        ]
      },
      "id": "relation/19577083"
    },
    {
      "type": "Feature",
      "properties": {
        "@id": "relation/19577084",
        "destination": "Moormans River",
        "name": "Doyles River",
        "type": "waterway",
        "waterway": "river",
        "@geometry": "center"
      },
      "geometry": {
        "type": "Point",
        "coordinates": [
          -78.6826002,
          38.1897403
        ]
      },
      "id": "relation/19577084"
    },
    {
      "type": "Feature",
      "properties": {
        "@id": "relation/19577369",
        "destination": "Rapidan River",
        "name": "Staunton River",
        "type": "waterway",
        "waterway": "river",
        "@geometry": "center"
      },
      "geometry": {
        "type": "Point",
        "coordinates": [
          -78.3949619,
          38.4579745
        ]
      },
      "id": "relation/19577369"
    },
    {
      "type": "Feature",
      "properties": {
        "@id": "relation/19577372",
        "destination": "Rappahannock River",
        "name": "Rapidan River",
        "type": "waterway",
        "waterway": "river",
        "@geometry": "center"
      },
      "geometry": {
        "type": "Point",
        "coordinates": [
          -78.230817,
          38.2736351
        ]
      },
      "id": "relation/19577372"
    },
    {
      "type": "Feature",
      "properties": {
        "@id": "relation/19581371",
        "destination": "South Branch Potomac River",
        "name": "North Fork South Branch Potomac River",
        "type": "waterway",
        "waterway": "river",
        "@geometry": "center"
      },
      "geometry": {
        "type": "Point",
        "coordinates": [
          -79.3817129,
          38.7836071
        ]
      },
      "id": "relation/19581371"
    },
    {
      "type": "Feature",
      "properties": {
        "@id": "relation/19581372",
        "destination": "South Fork Shenandoah River",
        "name": "South River",
        "type": "waterway",
        "waterway": "river",
        "@geometry": "center"
      },
      "geometry": {
        "type": "Point",
        "coordinates": [
          -79.0079511,
          38.1292267
        ]
      },
      "id": "relation/19581372"
    },
    {
      "type": "Feature",
      "properties": {
        "@id": "relation/19581494",
        "destination": "North Fork Shenandoah River",
        "name": "Little Dry River",
        "type": "waterway",
        "waterway": "river",
        "@geometry": "center"
      },
      "geometry": {
        "type": "Point",
        "coordinates": [
          -79.001752,
          38.6545842
        ]
      },
      "id": "relation/19581494"
    },
    {
      "type": "Feature",
      "properties": {
        "@id": "relation/19581496",
        "destination": "North Fork Shenandoah River",
        "name": "German River",
        "type": "waterway",
        "waterway": "river",
        "@geometry": "center"
      },
      "geometry": {
        "type": "Point",
        "coordinates": [
          -79.0140599,
          38.714882
        ]
      },
      "id": "relation/19581496"
    },
    {
      "type": "Feature",
      "properties": {
        "@id": "relation/19584285",
        "destination": "German RIver",
        "name": "Cold Springs River",
        "type": "waterway",
        "waterway": "river",
        "@geometry": "center"
      },
      "geometry": {
        "type": "Point",
        "coordinates": [
          -79.0514948,
          38.7315253
        ]
      },
      "id": "relation/19584285"
    },
    {
      "type": "Feature",
      "properties": {
        "@id": "relation/19591475",
        "gnis:feature_id": "1076188",
        "name": "Kitchen Run",
        "type": "waterway",
        "waterway": "river",
        "wikidata": "Q23018097",
        "wikipedia": "en:Kitchen Run",
        "@geometry": "center"
      },
      "geometry": {
        "type": "Point",
        "coordinates": [
          -82.286761,
          39.5329346
        ]
      },
      "id": "relation/19591475"
    },
    {
      "type": "Feature",
      "properties": {
        "@id": "relation/19598274",
        "destination": "Monongahela River",
        "name": "Cheat River",
        "type": "waterway",
        "waterway": "river",
        "@geometry": "center"
      },
      "geometry": {
        "type": "Point",
        "coordinates": [
          -79.7489371,
          39.42737
        ]
      },
      "id": "relation/19598274"
    },
    {
      "type": "Feature",
      "properties": {
        "@id": "relation/19610102",
        "destination": "North River",
        "name": "Dry River",
        "type": "waterway",
        "waterway": "river",
        "@geometry": "center"
      },
      "geometry": {
        "type": "Point",
        "coordinates": [
          -79.0647496,
          38.5029458
        ]
      },
      "id": "relation/19610102"
    },
    {
      "type": "Feature",
      "properties": {
        "@id": "relation/19610188",
        "destination": "West Fork Greenbrier River",
        "name": "Little River",
        "type": "waterway",
        "waterway": "river",
        "@geometry": "center"
      },
      "geometry": {
        "type": "Point",
        "coordinates": [
          -79.7559213,
          38.6483918
        ]
      },
      "id": "relation/19610188"
    },
    {
      "type": "Feature",
      "properties": {
        "@id": "relation/19610253",
        "destination": "East Fork Greenbrier River",
        "name": "Little River",
        "type": "waterway",
        "waterway": "river",
        "@geometry": "center"
      },
      "geometry": {
        "type": "Point",
        "coordinates": [
          -79.7105778,
          38.5141972
        ]
      },
      "id": "relation/19610253"
    },
    {
      "type": "Feature",
      "properties": {
        "@id": "relation/19659117",
        "name": "Hazel River",
        "type": "waterway",
        "waterway": "river",
        "@geometry": "center"
      },
      "geometry": {
        "type": "Point",
        "coordinates": [
          -78.0843174,
          38.5772898
        ]
      },
      "id": "relation/19659117"
    },
    {
      "type": "Feature",
      "properties": {
        "@id": "relation/19662964",
        "destination": "Cherry River",
        "name": "North Fork Cherry River",
        "type": "waterway",
        "waterway": "river",
        "@geometry": "center"
      },
      "geometry": {
        "type": "Point",
        "coordinates": [
          -80.4317325,
          38.2202095
        ]
      },
      "id": "relation/19662964"
    },
    {
      "type": "Feature",
      "properties": {
        "@id": "relation/19662965",
        "destination": "Cherry River",
        "name": "South Fork Cherry River",
        "type": "waterway",
        "waterway": "river",
        "@geometry": "center"
      },
      "geometry": {
        "type": "Point",
        "coordinates": [
          -80.4383773,
          38.1736996
        ]
      },
      "id": "relation/19662965"
    },
    {
      "type": "Feature",
      "properties": {
        "@id": "relation/19715822",
        "destination": "Gauley River",
        "name": "Cranberry River",
        "type": "waterway",
        "waterway": "river",
        "@geometry": "center"
      },
      "geometry": {
        "type": "Point",
        "coordinates": [
          -80.4693353,
          38.2953653
        ]
      },
      "id": "relation/19715822"
    },
    {
      "type": "Feature",
      "properties": {
        "@id": "relation/19715825",
        "destination": "Cranberry River",
        "name": "South Fork Cranberry River",
        "type": "waterway",
        "waterway": "river",
        "@geometry": "center"
      },
      "geometry": {
        "type": "Point",
        "coordinates": [
          -80.2724223,
          38.2298023
        ]
      },
      "id": "relation/19715825"
    },
    {
      "type": "Feature",
      "properties": {
        "@id": "relation/19715833",
        "destination": "Cranberry River",
        "name": "North Fork Cranberry River",
        "type": "waterway",
        "waterway": "river",
        "@geometry": "center"
      },
      "geometry": {
        "type": "Point",
        "coordinates": [
          -80.2839675,
          38.2519504
        ]
      },
      "id": "relation/19715833"
    },
    {
      "type": "Feature",
      "properties": {
        "@id": "relation/19736822",
        "destination": "Pamunkey River",
        "name": "North Anna River",
        "type": "waterway",
        "waterway": "river",
        "@geometry": "center"
      },
      "geometry": {
        "type": "Point",
        "coordinates": [
          -77.7502401,
          37.9773675
        ]
      },
      "id": "relation/19736822"
    },
    {
      "type": "Feature",
      "properties": {
        "@id": "relation/19740600",
        "destination": "Gauley River",
        "name": "Williams River",
        "type": "waterway",
        "waterway": "river",
        "@geometry": "center"
      },
      "geometry": {
        "type": "Point",
        "coordinates": [
          -80.3497449,
          38.3076086
        ]
      },
      "id": "relation/19740600"
    },
    {
      "type": "Feature",
      "properties": {
        "@id": "relation/19975454",
        "gnis:feature_id": "1541419",
        "name": "Laurel Creek",
        "type": "waterway",
        "waterway": "river",
        "@geometry": "center"
      },
      "geometry": {
        "type": "Point",
        "coordinates": [
          -81.6576086,
          38.0732984
        ]
      },
      "id": "relation/19975454"
    },
    {
      "type": "Feature",
      "properties": {
        "@id": "relation/19983212",
        "gnis:feature_id": "1542099",
        "name": "Little Fishing Creek",
        "type": "waterway",
        "waterway": "river",
        "@geometry": "center"
      },
      "geometry": {
        "type": "Point",
        "coordinates": [
          -80.70419,
          39.6159738
        ]
      },
      "id": "relation/19983212"
    },
    {
      "type": "Feature",
      "properties": {
        "@id": "relation/20088391",
        "destination": "Hocking River",
        "gnis:feature_id": "1076906",
        "name": "Skunk Run",
        "type": "waterway",
        "waterway": "river",
        "wikidata": "Q138790486",
        "@geometry": "center"
      },
      "geometry": {
        "type": "Point",
        "coordinates": [
          -81.782938,
          39.2395033
        ]
      },
      "id": "relation/20088391"
    },
    {
      "type": "Feature",
      "properties": {
        "@id": "relation/20161337",
        "alt_name": "Junius River",
        "gnis:feature_id": "1540572",
        "name": "Hughes River",
        "type": "waterway",
        "waterway": "river",
        "wikidata": "Q14714073",
        "wikipedia": "en:Hughes River (West Virginia)",
        "@geometry": "center"
      },
      "geometry": {
        "type": "Point",
        "coordinates": [
          -81.3368489,
          39.1331957
        ]
      },
      "id": "relation/20161337"
    },
    {
      "type": "Feature",
      "properties": {
        "@id": "relation/20182471",
        "gnis:feature_id": "1552067",
        "name": "Middle Island Creek",
        "type": "waterway",
        "waterway": "river",
        "wikidata": "Q6841472",
        "wikipedia": "en:Middle Island Creek",
        "@geometry": "center"
      },
      "geometry": {
        "type": "Point",
        "coordinates": [
          -80.96547,
          39.3961306
        ]
      },
      "id": "relation/20182471"
    },
    {
      "type": "Feature",
      "properties": {
        "@id": "relation/20275566",
        "destination": "James River",
        "gnis:feature_id": "1501617",
        "name": "Appomattox River",
        "type": "waterway",
        "waterway": "river",
        "wikidata": "Q621682",
        "wikipedia": "en:Appomattox River",
        "@geometry": "center"
      },
      "geometry": {
        "type": "Point",
        "coordinates": [
          -78.0519467,
          37.3575407
        ]
      },
      "id": "relation/20275566"
    },
    {
      "type": "Feature",
      "properties": {
        "@id": "relation/20378113",
        "name": "Mud Fork",
        "type": "waterway",
        "waterway": "river",
        "@geometry": "center"
      },
      "geometry": {
        "type": "Point",
        "coordinates": [
          -82.0591956,
          37.8650925
        ]
      },
      "id": "relation/20378113"
    },
    {
      "type": "Feature",
      "properties": {
        "@id": "relation/20378169",
        "gnis:feature_id": "1535848",
        "name": "Big Harts Creek",
        "type": "waterway",
        "waterway": "river",
        "@geometry": "center"
      },
      "geometry": {
        "type": "Point",
        "coordinates": [
          -82.1400398,
          37.9727178
        ]
      },
      "id": "relation/20378169"
    }
  ]
}