{
  "type": "FeatureCollection",
  "generator": "overpass-turbo",
  "copyright": "The data included in this document is from www.openstreetmap.org. The data is made available under ODbL.",
  "timestamp": "2026-06-28T00:01:00Z",
  "features": [
    {
      "type": "Feature",
      "properties": {
        "@id": "relation/1101516",
        "destination": "Atlantic Ocean",
        "name": "Saint Johns River",
        "type": "waterway",
        "waterway": "river",
        "wikidata": "Q1677915",
        "wikipedia": "en:St. Johns River",
        "@geometry": "center"
      },
      "geometry": {
        "type": "Point",
        "coordinates": [
          -81.2230952,
          29.0293358
        ]
      },
      "id": "relation/1101516"
    },
    {
      "type": "Feature",
      "properties": {
        "@id": "relation/2182455",
        "destination": "Apalachicola Bay",
        "name": "Apalachicola River",
        "type": "waterway",
        "waterway": "river",
        "wikidata": "Q617414",
        "wikipedia": "en:Apalachicola River",
        "@geometry": "center"
      },
      "geometry": {
        "type": "Point",
        "coordinates": [
          -85.0055322,
          30.2162325
        ]
      },
      "id": "relation/2182455"
    },
    {
      "type": "Feature",
      "properties": {
        "@id": "relation/2182457",
        "destination": "Apalachicola River",
        "gnis:feature_id": "354236",
        "name": "Chattahoochee River",
        "type": "waterway",
        "waterway": "river",
        "wikidata": "Q1068297",
        "wikipedia": "en:Chattahoochee River",
        "@geometry": "center"
      },
      "geometry": {
        "type": "Point",
        "coordinates": [
          -84.4073798,
          32.7667875
        ]
      },
      "id": "relation/2182457"
    },
    {
      "type": "Feature",
      "properties": {
        "@id": "relation/2182458",
        "destination": "Apalachicola River",
        "gnis:feature_id": "358207",
        "name": "Flint River",
        "type": "waterway",
        "waterway": "river",
        "wikidata": "Q1428859",
        "wikipedia": "en:Flint River",
        "@geometry": "center"
      },
      "geometry": {
        "type": "Point",
        "coordinates": [
          -84.3955232,
          32.1901047
        ]
      },
      "id": "relation/2182458"
    },
    {
      "type": "Feature",
      "properties": {
        "@id": "relation/2193465",
        "destination": "Suwannee River",
        "name": "Alapaha River",
        "type": "waterway",
        "waterway": "river",
        "wikidata": "Q2830643",
        "wikipedia": "en:Alapaha River",
        "@geometry": "center"
      },
      "geometry": {
        "type": "Point",
        "coordinates": [
          -83.3249645,
          31.246831
        ]
      },
      "id": "relation/2193465"
    },
    {
      "type": "Feature",
      "properties": {
        "@id": "relation/2193468",
        "destination": "Apalachee Bay",
        "name": "Aucilla River",
        "type": "waterway",
        "waterway": "river",
        "wikidata": "Q2870670",
        "wikipedia": "en:Aucilla River",
        "@geometry": "center"
      },
      "geometry": {
        "type": "Point",
        "coordinates": [
          -83.8544453,
          30.5069535
        ]
      },
      "id": "relation/2193468"
    },
    {
      "type": "Feature",
      "properties": {
        "@id": "relation/2193474",
        "destination": "St. Johns River",
        "name": "Broward River",
        "type": "waterway",
        "waterway": "river",
        "@geometry": "center"
      },
      "geometry": {
        "type": "Point",
        "coordinates": [
          -81.6226262,
          30.4245834
        ]
      },
      "id": "relation/2193474"
    },
    {
      "type": "Feature",
      "properties": {
        "@id": "relation/2193478",
        "destination": "Apalachicola River",
        "name": "Chipola River",
        "type": "waterway",
        "waterway": "river",
        "wikidata": "Q5101630",
        "wikipedia": "en:Chipola River",
        "@geometry": "center"
      },
      "geometry": {
        "type": "Point",
        "coordinates": [
          -85.1810665,
          30.4593754
        ]
      },
      "id": "relation/2193478"
    },
    {
      "type": "Feature",
      "properties": {
        "@id": "relation/2193479",
        "destination": "Choctawhatchee Bay",
        "name": "Choctawhatchee River",
        "type": "waterway",
        "waterway": "river",
        "wikidata": "Q4272077",
        "wikipedia": "en:Choctawhatchee River",
        "@geometry": "center"
      },
      "geometry": {
        "type": "Point",
        "coordinates": [
          -85.8349587,
          30.8769543
        ]
      },
      "id": "relation/2193479"
    },
    {
      "type": "Feature",
      "properties": {
        "@id": "relation/2193518",
        "destination": "Aucilla River",
        "name": "Little Aucilla River",
        "type": "waterway",
        "waterway": "river",
        "@geometry": "center"
      },
      "geometry": {
        "type": "Point",
        "coordinates": [
          -83.6151125,
          30.5436926
        ]
      },
      "id": "relation/2193518"
    },
    {
      "type": "Feature",
      "properties": {
        "@id": "relation/2193521",
        "destination": "Ochlockonee River",
        "name": "Little River",
        "type": "waterway",
        "waterway": "river",
        "@geometry": "center"
      },
      "geometry": {
        "type": "Point",
        "coordinates": [
          -84.511898,
          30.5419145
        ]
      },
      "id": "relation/2193521"
    },
    {
      "type": "Feature",
      "properties": {
        "@id": "relation/2193527",
        "destination": "Nassau Sound",
        "name": "Nassau River",
        "type": "waterway",
        "waterway": "river",
        "@geometry": "center"
      },
      "geometry": {
        "type": "Point",
        "coordinates": [
          -81.5995702,
          30.5653332
        ]
      },
      "id": "relation/2193527"
    },
    {
      "type": "Feature",
      "properties": {
        "@id": "relation/2193534",
        "destination": "Ochlockonee Bay",
        "name": "Ochlockonee River",
        "type": "waterway",
        "waterway": "river",
        "wikidata": "Q3348721",
        "wikipedia": "en:Ochlockonee River",
        "@geometry": "center"
      },
      "geometry": {
        "type": "Point",
        "coordinates": [
          -84.366066,
          30.4533113
        ]
      },
      "id": "relation/2193534"
    },
    {
      "type": "Feature",
      "properties": {
        "@id": "relation/2193540",
        "destination": "Choctawhatchee River",
        "name": "Pea River",
        "type": "waterway",
        "waterway": "river",
        "wikidata": "Q7157190",
        "wikipedia": "en:Pea River",
        "@geometry": "center"
      },
      "geometry": {
        "type": "Point",
        "coordinates": [
          -85.8394545,
          31.5514
        ]
      },
      "id": "relation/2193540"
    },
    {
      "type": "Feature",
      "properties": {
        "@id": "relation/2193559",
        "destination": "Apalachee Bay",
        "name": "Saint Marks River",
        "type": "waterway",
        "waterway": "river",
        "wikidata": "Q7589999",
        "wikipedia": "en:St. Marks River",
        "@geometry": "center"
      },
      "geometry": {
        "type": "Point",
        "coordinates": [
          -84.135614,
          30.2796749
        ]
      },
      "id": "relation/2193559"
    },
    {
      "type": "Feature",
      "properties": {
        "@id": "relation/2193560",
        "destination": "Atlantic Ocean",
        "name": "Saint Marys River",
        "type": "waterway",
        "waterway": "river",
        "wikidata": "Q2886123",
        "wikipedia": "en:St. Marys River (Florida–Georgia)",
        "@geometry": "center"
      },
      "geometry": {
        "type": "Point",
        "coordinates": [
          -81.7658665,
          30.5929161
        ]
      },
      "id": "relation/2193560"
    },
    {
      "type": "Feature",
      "properties": {
        "@id": "relation/2193563",
        "destination": "Suwannee Sound",
        "name": "Suwannee River",
        "type": "waterway",
        "waterway": "river",
        "wikidata": "Q2299655",
        "wikipedia": "en:Suwannee River",
        "@geometry": "center"
      },
      "geometry": {
        "type": "Point",
        "coordinates": [
          -82.7646591,
          30.1707588
        ]
      },
      "id": "relation/2193563"
    },
    {
      "type": "Feature",
      "properties": {
        "@id": "relation/2193564",
        "destination": "St. Johns River",
        "name": "Trout River",
        "type": "waterway",
        "waterway": "river",
        "@geometry": "center"
      },
      "geometry": {
        "type": "Point",
        "coordinates": [
          -81.7087606,
          30.4141666
        ]
      },
      "id": "relation/2193564"
    },
    {
      "type": "Feature",
      "properties": {
        "@id": "relation/2193572",
        "destination": "Suwannee River",
        "name": "Withlacoochee River",
        "type": "waterway",
        "waterway": "river",
        "wikidata": "Q3569502",
        "wikipedia": "en:Withlacoochee River (Suwannee River tributary)",
        "@geometry": "center"
      },
      "geometry": {
        "type": "Point",
        "coordinates": [
          -83.3280654,
          30.855096
        ]
      },
      "id": "relation/2193572"
    },
    {
      "type": "Feature",
      "properties": {
        "@id": "relation/2250876",
        "destination": "Alabama River",
        "name": "Tallapoosa River",
        "type": "waterway",
        "waterway": "river",
        "wikidata": "Q1424101",
        "wikipedia": "en:Tallapoosa River",
        "@geometry": "center"
      },
      "geometry": {
        "type": "Point",
        "coordinates": [
          -85.6452456,
          33.1461941
        ]
      },
      "id": "relation/2250876"
    },
    {
      "type": "Feature",
      "properties": {
        "@id": "relation/3809023",
        "alt_name": "Toccoa River",
        "destination": "Hiwassee River",
        "name": "Ocoee River",
        "type": "waterway",
        "waterway": "river",
        "wikidata": "Q7811968",
        "wikipedia": "en:Toccoa/Ocoee River",
        "@geometry": "center"
      },
      "geometry": {
        "type": "Point",
        "coordinates": [
          -84.3804225,
          34.936501
        ]
      },
      "id": "relation/3809023"
    },
    {
      "type": "Feature",
      "properties": {
        "@id": "relation/3857413",
        "name": "Cartecay River",
        "type": "waterway",
        "waterway": "river",
        "wikidata": "Q5047069",
        "wikipedia": "en:Cartecay River",
        "@geometry": "center"
      },
      "geometry": {
        "type": "Point",
        "coordinates": [
          -84.410299,
          34.6595377
        ]
      },
      "id": "relation/3857413"
    },
    {
      "type": "Feature",
      "properties": {
        "@id": "relation/3857427",
        "name": "Ellijay River",
        "type": "waterway",
        "waterway": "river",
        "wikidata": "Q5365374",
        "wikipedia": "en:Ellijay River",
        "@geometry": "center"
      },
      "geometry": {
        "type": "Point",
        "coordinates": [
          -84.4436647,
          34.7398871
        ]
      },
      "id": "relation/3857427"
    },
    {
      "type": "Feature",
      "properties": {
        "@id": "relation/3857430",
        "name": "Coosawattee River",
        "type": "waterway",
        "waterway": "river",
        "wikidata": "Q5168080",
        "wikipedia": "en:Coosawattee River",
        "@geometry": "center"
      },
      "geometry": {
        "type": "Point",
        "coordinates": [
          -84.6936147,
          34.6123126
        ]
      },
      "id": "relation/3857430"
    },
    {
      "type": "Feature",
      "properties": {
        "@id": "relation/3857491",
        "name": "Oostanaula River",
        "type": "waterway",
        "waterway": "river",
        "wikidata": "Q2024844",
        "wikipedia": "en:Oostanaula River",
        "@geometry": "center"
      },
      "geometry": {
        "type": "Point",
        "coordinates": [
          -85.0402382,
          34.4158381
        ]
      },
      "id": "relation/3857491"
    },
    {
      "type": "Feature",
      "properties": {
        "@id": "relation/3857536",
        "destination": "Coosa River",
        "gnis:feature_id": "355719",
        "name": "Etowah River",
        "type": "waterway",
        "waterway": "river",
        "wikidata": "Q968071",
        "wikipedia": "en:Etowah River",
        "@geometry": "center"
      },
      "geometry": {
        "type": "Point",
        "coordinates": [
          -84.5975436,
          34.3910211
        ]
      },
      "id": "relation/3857536"
    },
    {
      "type": "Feature",
      "properties": {
        "@id": "relation/3857775",
        "name": "Conasauga River",
        "type": "waterway",
        "waterway": "river",
        "wikidata": "Q5158226",
        "wikipedia": "en:Conasauga River",
        "@geometry": "center"
      },
      "geometry": {
        "type": "Point",
        "coordinates": [
          -84.7682738,
          34.7772398
        ]
      },
      "id": "relation/3857775"
    },
    {
      "type": "Feature",
      "properties": {
        "@id": "relation/5994004",
        "name": "Coosa River",
        "type": "waterway",
        "waterway": "river",
        "wikidata": "Q1129913",
        "wikipedia": "en:Coosa River",
        "@geometry": "center"
      },
      "geometry": {
        "type": "Point",
        "coordinates": [
          -85.8493882,
          33.3724806
        ]
      },
      "id": "relation/5994004"
    },
    {
      "type": "Feature",
      "properties": {
        "@id": "relation/6066914",
        "fixme": "incomplete",
        "name": "Hiwassee River",
        "name:chr": "ᎭᏳᏩᏒ ᎡᏉᏂ ᏄᏪᏴᎢ",
        "type": "waterway",
        "waterway": "river",
        "wikidata": "Q3138706",
        "wikipedia": "en:Hiwassee River",
        "@geometry": "center"
      },
      "geometry": {
        "type": "Point",
        "coordinates": [
          -84.3590204,
          35.1075219
        ]
      },
      "id": "relation/6066914"
    },
    {
      "type": "Feature",
      "properties": {
        "@id": "relation/6099407",
        "gnis:feature_id": "329069",
        "name": "Nottely River",
        "type": "waterway",
        "waterway": "river",
        "wikidata": "Q7063559",
        "wikipedia": "en:Nottely River",
        "@geometry": "center"
      },
      "geometry": {
        "type": "Point",
        "coordinates": [
          -83.996144,
          34.9203545
        ]
      },
      "id": "relation/6099407"
    },
    {
      "type": "Feature",
      "properties": {
        "@id": "relation/6165029",
        "destination": "Wateree River",
        "name": "Catawba River",
        "type": "waterway",
        "waterway": "river",
        "wikidata": "Q1050460",
        "wikipedia": "en:Catawba River",
        "@geometry": "center"
      },
      "geometry": {
        "type": "Point",
        "coordinates": [
          -81.5720544,
          35.1484239
        ]
      },
      "id": "relation/6165029"
    },
    {
      "type": "Feature",
      "properties": {
        "@id": "relation/6702115",
        "name": "Sherman Creek",
        "type": "waterway",
        "waterway": "river",
        "@geometry": "center"
      },
      "geometry": {
        "type": "Point",
        "coordinates": [
          -81.4269378,
          30.3570164
        ]
      },
      "id": "relation/6702115"
    },
    {
      "type": "Feature",
      "properties": {
        "@id": "relation/7122002",
        "destination": "Atlantic Ocean",
        "gnis:feature_id": "354294",
        "name": "Altamaha River",
        "type": "waterway",
        "waterway": "river",
        "wikidata": "Q434188",
        "wikipedia": "en:Altamaha River",
        "@geometry": "center"
      },
      "geometry": {
        "type": "Point",
        "coordinates": [
          -81.8890533,
          31.6373732
        ]
      },
      "id": "relation/7122002"
    },
    {
      "type": "Feature",
      "properties": {
        "@id": "relation/7128700",
        "name": "Upatoi Creek",
        "type": "waterway",
        "waterway": "river",
        "@geometry": "center"
      },
      "geometry": {
        "type": "Point",
        "coordinates": [
          -84.8479361,
          32.4380502
        ]
      },
      "id": "relation/7128700"
    },
    {
      "type": "Feature",
      "properties": {
        "@id": "relation/8258648",
        "destination": "Tugaloo River",
        "gnis:feature_id": "1010187",
        "name": "Chattooga River",
        "type": "waterway",
        "waterway": "river",
        "wikidata": "Q834880",
        "wikipedia": "en:Chattooga River",
        "@geometry": "center"
      },
      "geometry": {
        "type": "Point",
        "coordinates": [
          -83.2258313,
          34.9178044
        ]
      },
      "id": "relation/8258648"
    },
    {
      "type": "Feature",
      "properties": {
        "@id": "relation/8258682",
        "destination": "Savannah River",
        "name": "Tugaloo River",
        "type": "waterway",
        "waterway": "river",
        "wikidata": "Q2459279",
        "wikipedia": "de:Tugaloo River",
        "@geometry": "center"
      },
      "geometry": {
        "type": "Point",
        "coordinates": [
          -83.1047608,
          34.5799402
        ]
      },
      "id": "relation/8258682"
    },
    {
      "type": "Feature",
      "properties": {
        "@id": "relation/8261816",
        "destination": "Atlantic Ocean",
        "fixme": "Check overall alignment, and merge shared admin boundaries (corp. county, state) where applicable",
        "gnis:feature_id": "1253486",
        "name": "Savannah River",
        "type": "waterway",
        "waterway": "river",
        "wikidata": "Q370750",
        "wikipedia": "en:Savannah River",
        "@geometry": "center"
      },
      "geometry": {
        "type": "Point",
        "coordinates": [
          -81.8520732,
          33.2392799
        ]
      },
      "id": "relation/8261816"
    },
    {
      "type": "Feature",
      "properties": {
        "@id": "relation/8262568",
        "name": "Seneca River",
        "type": "waterway",
        "waterway": "river",
        "wikidata": "Q2270860",
        "wikipedia": "en:Seneca River (South Carolina)",
        "@geometry": "center"
      },
      "geometry": {
        "type": "Point",
        "coordinates": [
          -82.8426662,
          34.5699027
        ]
      },
      "id": "relation/8262568"
    },
    {
      "type": "Feature",
      "properties": {
        "@id": "relation/8265894",
        "name": "Dead River",
        "type": "waterway",
        "waterway": "river",
        "@geometry": "center"
      },
      "geometry": {
        "type": "Point",
        "coordinates": [
          -81.9175308,
          33.4174587
        ]
      },
      "id": "relation/8265894"
    },
    {
      "type": "Feature",
      "properties": {
        "@id": "relation/8268450",
        "name": "Lightwood Log Creek",
        "note": "Inundated.",
        "type": "waterway",
        "waterway": "river",
        "@geometry": "center"
      },
      "geometry": {
        "type": "Point",
        "coordinates": [
          -82.8676258,
          34.397136
        ]
      },
      "id": "relation/8268450"
    },
    {
      "type": "Feature",
      "properties": {
        "@id": "relation/8277317",
        "name": "Little Back River",
        "type": "waterway",
        "waterway": "river",
        "@geometry": "center"
      },
      "geometry": {
        "type": "Point",
        "coordinates": [
          -81.0949768,
          32.1528194
        ]
      },
      "id": "relation/8277317"
    },
    {
      "type": "Feature",
      "properties": {
        "@id": "relation/8277371",
        "gnis:feature_id": "318089",
        "name": "Middle River",
        "type": "waterway",
        "waterway": "river",
        "@geometry": "center"
      },
      "geometry": {
        "type": "Point",
        "coordinates": [
          -81.1383984,
          32.1913615
        ]
      },
      "id": "relation/8277371"
    },
    {
      "type": "Feature",
      "properties": {
        "@id": "relation/8277372",
        "gnis:feature_id": "314442",
        "name": "Front River",
        "type": "waterway",
        "waterway": "river",
        "@geometry": "center"
      },
      "geometry": {
        "type": "Point",
        "coordinates": [
          -81.1482012,
          32.1598552
        ]
      },
      "id": "relation/8277372"
    },
    {
      "type": "Feature",
      "properties": {
        "@id": "relation/10083907",
        "name": "Broad River",
        "type": "waterway",
        "waterway": "river",
        "wikidata": "Q921949",
        "@geometry": "center"
      },
      "geometry": {
        "type": "Point",
        "coordinates": [
          -81.6753611,
          34.7771432
        ]
      },
      "id": "relation/10083907"
    },
    {
      "type": "Feature",
      "properties": {
        "@id": "relation/10307706",
        "name": "Congaree River",
        "type": "waterway",
        "waterway": "river",
        "wikidata": "Q2992976",
        "wikipedia": "en:Congaree River",
        "@geometry": "center"
      },
      "geometry": {
        "type": "Point",
        "coordinates": [
          -80.8391629,
          33.8738728
        ]
      },
      "id": "relation/10307706"
    },
    {
      "type": "Feature",
      "properties": {
        "@id": "relation/12733147",
        "gnis:feature_id": "1250734",
        "name": "Salkehatchie River",
        "type": "waterway",
        "waterway": "river",
        "wikidata": "Q1486708",
        "wikipedia": "en:Salkehatchie River",
        "@geometry": "center"
      },
      "geometry": {
        "type": "Point",
        "coordinates": [
          -81.044705,
          32.9631071
        ]
      },
      "id": "relation/12733147"
    },
    {
      "type": "Feature",
      "properties": {
        "@id": "relation/13969352",
        "name": "Suwannee Creek",
        "type": "waterway",
        "waterway": "river",
        "@geometry": "center"
      },
      "geometry": {
        "type": "Point",
        "coordinates": [
          -84.0367023,
          34.0811798
        ]
      },
      "id": "relation/13969352"
    },
    {
      "type": "Feature",
      "properties": {
        "@id": "relation/14229469",
        "gnis:feature_id": "312018",
        "name": "Bull Creek",
        "type": "waterway",
        "waterway": "river",
        "wikidata": "Q32848819",
        "@geometry": "center"
      },
      "geometry": {
        "type": "Point",
        "coordinates": [
          -84.9262457,
          32.4738412
        ]
      },
      "id": "relation/14229469"
    },
    {
      "type": "Feature",
      "properties": {
        "@id": "relation/14263713",
        "name": "Little River",
        "type": "waterway",
        "waterway": "river",
        "@geometry": "center"
      },
      "geometry": {
        "type": "Point",
        "coordinates": [
          -82.4383383,
          34.1178666
        ]
      },
      "id": "relation/14263713"
    },
    {
      "type": "Feature",
      "properties": {
        "@id": "relation/14266997",
        "name": "Rocky River",
        "type": "waterway",
        "waterway": "river",
        "@geometry": "center"
      },
      "geometry": {
        "type": "Point",
        "coordinates": [
          -82.5977932,
          34.3310708
        ]
      },
      "id": "relation/14266997"
    },
    {
      "type": "Feature",
      "properties": {
        "@id": "relation/14267406",
        "name": "Hencoop Creek",
        "type": "waterway",
        "waterway": "river",
        "@geometry": "center"
      },
      "geometry": {
        "type": "Point",
        "coordinates": [
          -82.5558237,
          34.3818372
        ]
      },
      "id": "relation/14267406"
    },
    {
      "type": "Feature",
      "properties": {
        "@id": "relation/14267644",
        "name": "Stevens Creek",
        "type": "waterway",
        "waterway": "river",
        "@geometry": "center"
      },
      "geometry": {
        "type": "Point",
        "coordinates": [
          -82.1299968,
          33.7313915
        ]
      },
      "id": "relation/14267644"
    },
    {
      "type": "Feature",
      "properties": {
        "@id": "relation/14273241",
        "name": "Saluda River",
        "type": "waterway",
        "waterway": "river",
        "wikidata": "Q7406275",
        "wikipedia": "de:Saluda River",
        "@geometry": "center"
      },
      "geometry": {
        "type": "Point",
        "coordinates": [
          -81.7880779,
          34.473738
        ]
      },
      "id": "relation/14273241"
    },
    {
      "type": "Feature",
      "properties": {
        "@id": "relation/14297781",
        "name": "Tyger River",
        "type": "waterway",
        "waterway": "river",
        "@geometry": "center"
      },
      "geometry": {
        "type": "Point",
        "coordinates": [
          -81.6776981,
          34.6231214
        ]
      },
      "id": "relation/14297781"
    },
    {
      "type": "Feature",
      "properties": {
        "@id": "relation/14297818",
        "name": "North Tyger River",
        "type": "waterway",
        "waterway": "river",
        "@geometry": "center"
      },
      "geometry": {
        "type": "Point",
        "coordinates": [
          -82.0540678,
          34.9062261
        ]
      },
      "id": "relation/14297818"
    },
    {
      "type": "Feature",
      "properties": {
        "@id": "relation/14297838",
        "name": "South Tyger River",
        "type": "waterway",
        "waterway": "river",
        "@geometry": "center"
      },
      "geometry": {
        "type": "Point",
        "coordinates": [
          -82.1492116,
          34.9128896
        ]
      },
      "id": "relation/14297838"
    },
    {
      "type": "Feature",
      "properties": {
        "@id": "relation/14298082",
        "name": "Middle Tyger River",
        "type": "waterway",
        "waterway": "river",
        "@geometry": "center"
      },
      "geometry": {
        "type": "Point",
        "coordinates": [
          -82.1796352,
          34.9981667
        ]
      },
      "id": "relation/14298082"
    },
    {
      "type": "Feature",
      "properties": {
        "@id": "relation/14318854",
        "name": "Enoree River",
        "type": "waterway",
        "waterway": "river",
        "@geometry": "center"
      },
      "geometry": {
        "type": "Point",
        "coordinates": [
          -81.8494491,
          34.6645965
        ]
      },
      "id": "relation/14318854"
    },
    {
      "type": "Feature",
      "properties": {
        "@id": "relation/14319727",
        "name": "Edisto River",
        "type": "waterway",
        "waterway": "river",
        "@geometry": "center"
      },
      "geometry": {
        "type": "Point",
        "coordinates": [
          -80.6368003,
          32.9539113
        ]
      },
      "id": "relation/14319727"
    },
    {
      "type": "Feature",
      "properties": {
        "@id": "relation/14321773",
        "name": "South Fork Edisto River",
        "type": "waterway",
        "waterway": "river",
        "@geometry": "center"
      },
      "geometry": {
        "type": "Point",
        "coordinates": [
          -81.3400786,
          33.5404795
        ]
      },
      "id": "relation/14321773"
    },
    {
      "type": "Feature",
      "properties": {
        "@id": "relation/14321863",
        "name": "North Fork Edisto River",
        "type": "waterway",
        "waterway": "river",
        "@geometry": "center"
      },
      "geometry": {
        "type": "Point",
        "coordinates": [
          -81.1593491,
          33.5305007
        ]
      },
      "id": "relation/14321863"
    },
    {
      "type": "Feature",
      "properties": {
        "@id": "relation/14383721",
        "name": "South Fork Little River",
        "type": "waterway",
        "waterway": "river",
        "@geometry": "center"
      },
      "geometry": {
        "type": "Point",
        "coordinates": [
          -82.9650414,
          33.6392235
        ]
      },
      "id": "relation/14383721"
    },
    {
      "type": "Feature",
      "properties": {
        "@id": "relation/14383722",
        "name": "North Fork Little River",
        "type": "waterway",
        "waterway": "river",
        "@geometry": "center"
      },
      "geometry": {
        "type": "Point",
        "coordinates": [
          -83.0238909,
          33.7010479
        ]
      },
      "id": "relation/14383722"
    },
    {
      "type": "Feature",
      "properties": {
        "@id": "relation/14383723",
        "destination": "Savannah River",
        "name": "Little River",
        "type": "waterway",
        "waterway": "river",
        "@geometry": "center"
      },
      "geometry": {
        "type": "Point",
        "coordinates": [
          -82.5527569,
          33.6497312
        ]
      },
      "id": "relation/14383723"
    },
    {
      "type": "Feature",
      "properties": {
        "@id": "relation/14459365",
        "name": "Reedy River",
        "type": "waterway",
        "waterway": "river",
        "@geometry": "center"
      },
      "geometry": {
        "type": "Point",
        "coordinates": [
          -82.2743228,
          34.6395887
        ]
      },
      "id": "relation/14459365"
    },
    {
      "type": "Feature",
      "properties": {
        "@id": "relation/14463168",
        "destination": "Santee River",
        "name": "Wateree River",
        "type": "waterway",
        "waterway": "river",
        "wikidata": "Q3566675",
        "wikipedia": "en:Wateree River",
        "@geometry": "center"
      },
      "geometry": {
        "type": "Point",
        "coordinates": [
          -80.7632258,
          34.1071568
        ]
      },
      "id": "relation/14463168"
    },
    {
      "type": "Feature",
      "properties": {
        "@id": "relation/14464131",
        "destination": "Catawba River",
        "name": "Fishing Creek",
        "type": "waterway",
        "waterway": "river",
        "@geometry": "center"
      },
      "geometry": {
        "type": "Point",
        "coordinates": [
          -81.0773889,
          34.8207486
        ]
      },
      "id": "relation/14464131"
    },
    {
      "type": "Feature",
      "properties": {
        "@id": "relation/14481044",
        "name": "Turkey Creek",
        "type": "waterway",
        "waterway": "river",
        "@geometry": "center"
      },
      "geometry": {
        "type": "Point",
        "coordinates": [
          -81.9990923,
          33.8342945
        ]
      },
      "id": "relation/14481044"
    },
    {
      "type": "Feature",
      "properties": {
        "@id": "relation/15021193",
        "destination": "Broad River",
        "gnis:feature_id": "328245",
        "name": "Hudson River",
        "type": "waterway",
        "waterway": "river",
        "wikidata": "Q5928826",
        "@geometry": "center"
      },
      "geometry": {
        "type": "Point",
        "coordinates": [
          -83.4077046,
          34.3324005
        ]
      },
      "id": "relation/15021193"
    },
    {
      "type": "Feature",
      "properties": {
        "@id": "relation/15640211",
        "name": "Dark Entry Creek",
        "type": "waterway",
        "waterway": "river",
        "wikidata": "Q56528278",
        "@geometry": "center"
      },
      "geometry": {
        "type": "Point",
        "coordinates": [
          -81.5838749,
          30.7540278
        ]
      },
      "id": "relation/15640211"
    },
    {
      "type": "Feature",
      "properties": {
        "@id": "relation/16453229",
        "destination": "Broad River",
        "gnis:feature_id": "329045",
        "name": "North Fork Broad River",
        "type": "waterway",
        "waterway": "river",
        "@geometry": "center"
      },
      "geometry": {
        "type": "Point",
        "coordinates": [
          -83.2944303,
          34.4368899
        ]
      },
      "id": "relation/16453229"
    },
    {
      "type": "Feature",
      "properties": {
        "@id": "relation/16453263",
        "destination": "Savanna River",
        "gnis:feature_id": "354860",
        "name": "Broad River",
        "type": "waterway",
        "waterway": "river",
        "@geometry": "center"
      },
      "geometry": {
        "type": "Point",
        "coordinates": [
          -82.8719028,
          34.123168
        ]
      },
      "id": "relation/16453263"
    },
    {
      "type": "Feature",
      "properties": {
        "@id": "relation/16454061",
        "destination": "Broad River",
        "gnis:feature_id": "356387",
        "name": "Middle Fork Broad River",
        "type": "waterway",
        "waterway": "river",
        "@geometry": "center"
      },
      "geometry": {
        "type": "Point",
        "coordinates": [
          -83.3311866,
          34.4326419
        ]
      },
      "id": "relation/16454061"
    },
    {
      "type": "Feature",
      "properties": {
        "@id": "relation/16454062",
        "destination": "Hudson River",
        "gnis:feature_id": "356118",
        "name": "Grove Creek",
        "type": "waterway",
        "waterway": "river",
        "@geometry": "center"
      },
      "geometry": {
        "type": "Point",
        "coordinates": [
          -83.4975368,
          34.3299998
        ]
      },
      "id": "relation/16454062"
    },
    {
      "type": "Feature",
      "properties": {
        "@id": "relation/16454077",
        "destination": "Broad River",
        "gnis:feature_id": "323243",
        "name": "South Fork Broad River",
        "type": "waterway",
        "waterway": "river",
        "@geometry": "center"
      },
      "geometry": {
        "type": "Point",
        "coordinates": [
          -83.1637967,
          34.0959419
        ]
      },
      "id": "relation/16454077"
    },
    {
      "type": "Feature",
      "properties": {
        "@id": "relation/16456853",
        "destination": "Broad River",
        "gnis:feature_id": "328630",
        "name": "Long Creek",
        "type": "waterway",
        "waterway": "river",
        "wikidata": "Q35360003",
        "@geometry": "center"
      },
      "geometry": {
        "type": "Point",
        "coordinates": [
          -82.9726261,
          33.8876692
        ]
      },
      "id": "relation/16456853"
    },
    {
      "type": "Feature",
      "properties": {
        "@id": "relation/16906288",
        "name": "Little Choctawatchee River",
        "type": "waterway",
        "waterway": "river",
        "@geometry": "center"
      },
      "geometry": {
        "type": "Point",
        "coordinates": [
          -85.5471672,
          31.2810726
        ]
      },
      "id": "relation/16906288"
    },
    {
      "type": "Feature",
      "properties": {
        "@id": "relation/17034174",
        "name": "Sandy Creek",
        "type": "waterway",
        "waterway": "river",
        "@geometry": "center"
      },
      "geometry": {
        "type": "Point",
        "coordinates": [
          -85.1703217,
          31.7378712
        ]
      },
      "id": "relation/17034174"
    },
    {
      "type": "Feature",
      "properties": {
        "@id": "relation/17057880",
        "gnis:feature_id": "121762",
        "name": "Little Creek",
        "type": "waterway",
        "waterway": "river",
        "@geometry": "center"
      },
      "geometry": {
        "type": "Point",
        "coordinates": [
          -85.6235258,
          31.1301097
        ]
      },
      "id": "relation/17057880"
    },
    {
      "type": "Feature",
      "properties": {
        "@id": "relation/17086401",
        "name": "Double Bridges Creek",
        "type": "waterway",
        "waterway": "river",
        "@geometry": "center"
      },
      "geometry": {
        "type": "Point",
        "coordinates": [
          -85.368914,
          31.1029069
        ]
      },
      "id": "relation/17086401"
    },
    {
      "type": "Feature",
      "properties": {
        "@id": "relation/17090224",
        "name": "Cowarts Creek",
        "type": "waterway",
        "waterway": "river",
        "@geometry": "center"
      },
      "geometry": {
        "type": "Point",
        "coordinates": [
          -85.2530125,
          31.0636529
        ]
      },
      "id": "relation/17090224"
    },
    {
      "type": "Feature",
      "properties": {
        "@id": "relation/17092546",
        "name": "Limestone Creek",
        "type": "waterway",
        "waterway": "river",
        "@geometry": "center"
      },
      "geometry": {
        "type": "Point",
        "coordinates": [
          -85.4169218,
          31.1324569
        ]
      },
      "id": "relation/17092546"
    },
    {
      "type": "Feature",
      "properties": {
        "@id": "relation/17126233",
        "name": "Little Rocky Creek",
        "type": "waterway",
        "waterway": "river",
        "@geometry": "center"
      },
      "geometry": {
        "type": "Point",
        "coordinates": [
          -85.215733,
          31.1240617
        ]
      },
      "id": "relation/17126233"
    },
    {
      "type": "Feature",
      "properties": {
        "@id": "relation/17138471",
        "name": "Spring Creek",
        "type": "waterway",
        "waterway": "river",
        "@geometry": "center"
      },
      "geometry": {
        "type": "Point",
        "coordinates": [
          -85.3900247,
          31.0035187
        ]
      },
      "id": "relation/17138471"
    },
    {
      "type": "Feature",
      "properties": {
        "@id": "relation/17154627",
        "name": "Bryans Creek",
        "type": "waterway",
        "waterway": "river",
        "@geometry": "center"
      },
      "geometry": {
        "type": "Point",
        "coordinates": [
          -85.0672874,
          31.0569418
        ]
      },
      "id": "relation/17154627"
    },
    {
      "type": "Feature",
      "properties": {
        "@id": "relation/17183655",
        "name": "Murphy Mill Branch",
        "type": "waterway",
        "waterway": "river",
        "@geometry": "center"
      },
      "geometry": {
        "type": "Point",
        "coordinates": [
          -85.4608166,
          31.2827593
        ]
      },
      "id": "relation/17183655"
    },
    {
      "type": "Feature",
      "properties": {
        "@id": "relation/17276047",
        "destination": "Middle Oconee River",
        "gnis:feature_id": "319136",
        "name": "Mulberry River",
        "type": "waterway",
        "waterway": "river",
        "wikidata": "Q6933827",
        "wikipedia": "en:Mulberry River (Georgia)",
        "@geometry": "center"
      },
      "geometry": {
        "type": "Point",
        "coordinates": [
          -83.7202037,
          34.0831077
        ]
      },
      "id": "relation/17276047"
    },
    {
      "type": "Feature",
      "properties": {
        "@id": "relation/17280771",
        "destination": "Altamaha River",
        "gnis:feature_id": "354253",
        "name": "Oconee River",
        "type": "waterway",
        "waterway": "river",
        "wikidata": "Q851368",
        "wikipedia": "en:Oconee River",
        "@geometry": "center"
      },
      "geometry": {
        "type": "Point",
        "coordinates": [
          -82.9443124,
          32.9191132
        ]
      },
      "id": "relation/17280771"
    },
    {
      "type": "Feature",
      "properties": {
        "@id": "relation/17280803",
        "destination": "Altamaha River",
        "gnis:feature_id": "356443",
        "name": "Ocmulgee River",
        "type": "waterway",
        "waterway": "river",
        "wikidata": "Q846627",
        "wikipedia": "en:Ocmulgee River",
        "@geometry": "center"
      },
      "geometry": {
        "type": "Point",
        "coordinates": [
          -83.2035242,
          32.5712276
        ]
      },
      "id": "relation/17280803"
    },
    {
      "type": "Feature",
      "properties": {
        "@id": "relation/17281432",
        "destination": "Oconee River",
        "gnis:feature_id": "354377",
        "name": "Apalachee River",
        "type": "waterway",
        "waterway": "river",
        "wikidata": "Q4779004",
        "wikipedia": "en:Apalachee River (Georgia)",
        "@geometry": "center"
      },
      "geometry": {
        "type": "Point",
        "coordinates": [
          -83.6143547,
          33.789796
        ]
      },
      "id": "relation/17281432"
    },
    {
      "type": "Feature",
      "properties": {
        "@id": "relation/17286528",
        "alt_name": "South Branch Ocmulgee River",
        "destination": "Ocmulgee River",
        "gnis:feature_id": "356546",
        "name": "South River",
        "type": "waterway",
        "waterway": "river",
        "wikidata": "Q4431935",
        "wikipedia": "en:South River (Ocmulgee River tributary)",
        "@geometry": "center"
      },
      "geometry": {
        "type": "Point",
        "coordinates": [
          -84.144518,
          33.531195
        ]
      },
      "id": "relation/17286528"
    },
    {
      "type": "Feature",
      "properties": {
        "@id": "relation/17286620",
        "destination": "South River",
        "gnis:feature_id": "326124",
        "name": "Yellow River",
        "type": "waterway",
        "waterway": "river",
        "wikidata": "Q8051806",
        "wikipedia": "en:Yellow River (Georgia)",
        "@geometry": "center"
      },
      "geometry": {
        "type": "Point",
        "coordinates": [
          -83.9824116,
          33.702924
        ]
      },
      "id": "relation/17286620"
    },
    {
      "type": "Feature",
      "properties": {
        "@id": "relation/17290522",
        "destination": "Ocmulgee River",
        "gnis:feature_id": "356363",
        "name": "Little Ocmulgee River",
        "type": "waterway",
        "waterway": "river",
        "wikidata": "Q6651208",
        "wikipedia": "en:Little Ocmulgee River",
        "@geometry": "center"
      },
      "geometry": {
        "type": "Point",
        "coordinates": [
          -82.7791766,
          32.0196526
        ]
      },
      "id": "relation/17290522"
    },
    {
      "type": "Feature",
      "properties": {
        "@id": "relation/17299218",
        "destination": "Oconee River",
        "gnis:feature_id": "356366",
        "name": "Little River",
        "type": "waterway",
        "waterway": "river",
        "wikidata": "Q6651659",
        "wikipedia": "en:Little River (Oconee River tributary)",
        "@geometry": "center"
      },
      "geometry": {
        "type": "Point",
        "coordinates": [
          -83.4931711,
          33.408459
        ]
      },
      "id": "relation/17299218"
    },
    {
      "type": "Feature",
      "properties": {
        "@id": "relation/17299274",
        "destination": "Atlantic Ocean",
        "gnis:feature_id": "354254",
        "name": "Ogeechee River",
        "type": "waterway",
        "waterway": "river",
        "wikidata": "Q130012",
        "wikipedia": "en:Ogeechee River",
        "@geometry": "center"
      },
      "geometry": {
        "type": "Point",
        "coordinates": [
          -81.9707925,
          32.6741076
        ]
      },
      "id": "relation/17299274"
    },
    {
      "type": "Feature",
      "properties": {
        "@id": "relation/17302264",
        "destination": "Tallapoosa River",
        "gnis:feature_id": "155140",
        "name": "Little Tallapoosa River",
        "type": "waterway",
        "waterway": "river",
        "wikidata": "Q6652165",
        "wikipedia": "en:Little Tallapoosa River",
        "@geometry": "center"
      },
      "geometry": {
        "type": "Point",
        "coordinates": [
          -85.2663678,
          33.5420756
        ]
      },
      "id": "relation/17302264"
    },
    {
      "type": "Feature",
      "properties": {
        "@id": "relation/17310831",
        "destination": "Coosa River",
        "gnis:feature_id": "155972",
        "name": "Chattooga River",
        "type": "waterway",
        "waterway": "river",
        "wikidata": "Q5087964",
        "wikipedia": "en:Chattooga River (Alabama–Georgia)",
        "@geometry": "center"
      },
      "geometry": {
        "type": "Point",
        "coordinates": [
          -85.466725,
          34.4638572
        ]
      },
      "id": "relation/17310831"
    },
    {
      "type": "Feature",
      "properties": {
        "@id": "relation/17311144",
        "destination": "Atlantic Ocean",
        "gnis:feature_id": "356520",
        "name": "Satilla River",
        "type": "waterway",
        "waterway": "river",
        "wikidata": "Q2386134",
        "wikipedia": "en:Satilla River",
        "@geometry": "center"
      },
      "geometry": {
        "type": "Point",
        "coordinates": [
          -82.244845,
          31.1954068
        ]
      },
      "id": "relation/17311144"
    },
    {
      "type": "Feature",
      "properties": {
        "@id": "relation/17316462",
        "destination": "Chattahoochee River",
        "gnis:feature_id": "355141",
        "name": "Chestatee River",
        "type": "waterway",
        "waterway": "river",
        "wikidata": "Q5093400",
        "wikipedia": "en:Chestatee River",
        "@geometry": "center"
      },
      "geometry": {
        "type": "Point",
        "coordinates": [
          -83.9332045,
          34.4780815
        ]
      },
      "id": "relation/17316462"
    },
    {
      "type": "Feature",
      "properties": {
        "@id": "relation/17325168",
        "destination": "Tugaloo River",
        "gnis:feature_id": "356581",
        "name": "Tallulah River",
        "type": "waterway",
        "waterway": "river",
        "wikidata": "Q4450532",
        "wikipedia": "en:Tallulah River",
        "@geometry": "center"
      },
      "geometry": {
        "type": "Point",
        "coordinates": [
          -83.4558304,
          34.875132
        ]
      },
      "id": "relation/17325168"
    },
    {
      "type": "Feature",
      "properties": {
        "@id": "relation/17329967",
        "destination": "Oconee River",
        "gnis:feature_id": "328761",
        "name": "Middle Oconee River",
        "type": "waterway",
        "waterway": "river",
        "wikidata": "Q131549923",
        "@geometry": "center"
      },
      "geometry": {
        "type": "Point",
        "coordinates": [
          -83.5025562,
          34.0172284
        ]
      },
      "id": "relation/17329967"
    },
    {
      "type": "Feature",
      "properties": {
        "@id": "relation/17336051",
        "name": "Irwin Mill Creek",
        "type": "waterway",
        "waterway": "river",
        "@geometry": "center"
      },
      "geometry": {
        "type": "Point",
        "coordinates": [
          -85.0445141,
          31.0010847
        ]
      },
      "id": "relation/17336051"
    },
    {
      "type": "Feature",
      "properties": {
        "@id": "relation/17405284",
        "name": "Rock Creek",
        "type": "waterway",
        "waterway": "river",
        "@geometry": "center"
      },
      "geometry": {
        "type": "Point",
        "coordinates": [
          -85.426952,
          31.2587029
        ]
      },
      "id": "relation/17405284"
    },
    {
      "type": "Feature",
      "properties": {
        "@id": "relation/18140300",
        "alt_name": "Vickery Creek",
        "destination": "Chattahoochee River",
        "name": "Big Creek",
        "type": "waterway",
        "waterway": "river",
        "wikidata": "Q7925353",
        "wikipedia": "en:Vickery Creek",
        "@geometry": "center"
      },
      "geometry": {
        "type": "Point",
        "coordinates": [
          -84.2512698,
          34.102994
        ]
      },
      "id": "relation/18140300"
    },
    {
      "type": "Feature",
      "properties": {
        "@id": "relation/18294816",
        "destination": "South Chickamauga Creek",
        "name": "West Chickamauga Creek",
        "type": "waterway",
        "waterway": "river",
        "wikidata": "Q34867164",
        "@geometry": "center"
      },
      "geometry": {
        "type": "Point",
        "coordinates": [
          -85.3056095,
          34.8596845
        ]
      },
      "id": "relation/18294816"
    }
  ]
}