{
  "type": "FeatureCollection",
  "generator": "overpass-turbo",
  "copyright": "The data included in this document is from www.openstreetmap.org. The data is made available under ODbL.",
  "timestamp": "2026-06-28T00:01:00Z",
  "features": [
    {
      "type": "Feature",
      "properties": {
        "@id": "node/331531531",
        "name": "Upper DeSoto Falls",
        "waterway": "waterfall"
      },
      "geometry": {
        "type": "Point",
        "coordinates": [
          -83.9157116,
          34.7170515
        ]
      },
      "id": "node/331531531"
    },
    {
      "type": "Feature",
      "properties": {
        "@id": "node/331531543",
        "name": "Lower DeSoto Falls",
        "waterway": "waterfall"
      },
      "geometry": {
        "type": "Point",
        "coordinates": [
          -83.9173303,
          34.7072183
        ]
      },
      "id": "node/331531543"
    },
    {
      "type": "Feature",
      "properties": {
        "@id": "node/331962593",
        "name": "L'Eau d'Or Falls",
        "waterway": "waterfall"
      },
      "geometry": {
        "type": "Point",
        "coordinates": [
          -83.3937836,
          34.739848
        ]
      },
      "id": "node/331962593"
    },
    {
      "type": "Feature",
      "properties": {
        "@id": "node/331962597",
        "name": "Tempesta Falls",
        "waterway": "waterfall"
      },
      "geometry": {
        "type": "Point",
        "coordinates": [
          -83.3927047,
          34.7390026
        ]
      },
      "id": "node/331962597"
    },
    {
      "type": "Feature",
      "properties": {
        "@id": "node/331962601",
        "name": "Hurricane Falls",
        "waterway": "waterfall"
      },
      "geometry": {
        "type": "Point",
        "coordinates": [
          -83.3911955,
          34.7385657
        ]
      },
      "id": "node/331962601"
    },
    {
      "type": "Feature",
      "properties": {
        "@id": "node/331962680",
        "name": "Oceana Falls",
        "waterway": "waterfall"
      },
      "geometry": {
        "type": "Point",
        "coordinates": [
          -83.3882591,
          34.7377451
        ]
      },
      "id": "node/331962680"
    },
    {
      "type": "Feature",
      "properties": {
        "@id": "node/331962692",
        "name": "Bridal Veil Falls",
        "waterway": "waterfall"
      },
      "geometry": {
        "type": "Point",
        "coordinates": [
          -83.3851635,
          34.7350526
        ]
      },
      "id": "node/331962692"
    },
    {
      "type": "Feature",
      "properties": {
        "@id": "node/346389109",
        "waterway": "waterfall"
      },
      "geometry": {
        "type": "Point",
        "coordinates": [
          -84.3184945,
          34.4727626
        ]
      },
      "id": "node/346389109"
    },
    {
      "type": "Feature",
      "properties": {
        "@id": "node/346428568",
        "name": "Amicalola Falls",
        "waterway": "waterfall",
        "wikidata": "Q37273",
        "wikipedia": "en:Amicalola Falls"
      },
      "geometry": {
        "type": "Point",
        "coordinates": [
          -84.2442749,
          34.567412
        ]
      },
      "id": "node/346428568"
    },
    {
      "type": "Feature",
      "properties": {
        "@id": "node/346457639",
        "height": "0.3",
        "name": "Wildcat Falls",
        "waterway": "waterfall",
        "width": "1.5"
      },
      "geometry": {
        "type": "Point",
        "coordinates": [
          -84.753496,
          33.976374
        ]
      },
      "id": "node/346457639"
    },
    {
      "type": "Feature",
      "properties": {
        "@id": "node/346483887",
        "name": "Waterfall #4",
        "waterway": "waterfall"
      },
      "geometry": {
        "type": "Point",
        "coordinates": [
          -84.2991559,
          34.509822
        ]
      },
      "id": "node/346483887"
    },
    {
      "type": "Feature",
      "properties": {
        "@id": "node/346503826",
        "name": "Fall Creek Waterfall",
        "waterway": "waterfall"
      },
      "geometry": {
        "type": "Point",
        "coordinates": [
          -84.318367,
          34.515107
        ]
      },
      "id": "node/346503826"
    },
    {
      "type": "Feature",
      "properties": {
        "@id": "node/346562838",
        "alt_name": "Toonigh Creek Falls",
        "height": "6.1",
        "name": "Allatoona Falls",
        "source": "https://www.gawaterfalls.com/allatoona-falls.html",
        "waterway": "waterfall"
      },
      "geometry": {
        "type": "Point",
        "coordinates": [
          -84.530628,
          34.143467
        ]
      },
      "id": "node/346562838"
    },
    {
      "type": "Feature",
      "properties": {
        "@id": "node/346642622",
        "name": "Hightower Falls",
        "waterway": "waterfall"
      },
      "geometry": {
        "type": "Point",
        "coordinates": [
          -85.144261,
          33.934446
        ]
      },
      "id": "node/346642622"
    },
    {
      "type": "Feature",
      "properties": {
        "@id": "node/348737422",
        "attribution": "NHD",
        "name": "Jacks River Falls 80",
        "source": "UTC Regional Resource Inventory",
        "waterway": "waterfall"
      },
      "geometry": {
        "type": "Point",
        "coordinates": [
          -84.5725715,
          34.9718762
        ]
      },
      "id": "node/348737422"
    },
    {
      "type": "Feature",
      "properties": {
        "@id": "node/348809500",
        "attribution": "NHD",
        "source": "NHD_import_v0.2_20090219152958",
        "waterway": "waterfall"
      },
      "geometry": {
        "type": "Point",
        "coordinates": [
          -84.6072966,
          34.6554068
        ]
      },
      "id": "node/348809500"
    },
    {
      "type": "Feature",
      "properties": {
        "@id": "node/348834702",
        "attribution": "NHD",
        "source": "NHD_import_v0.2_20090219152958",
        "waterway": "waterfall"
      },
      "geometry": {
        "type": "Point",
        "coordinates": [
          -84.712513,
          34.788338
        ]
      },
      "id": "node/348834702"
    },
    {
      "type": "Feature",
      "properties": {
        "@id": "node/348905535",
        "attribution": "NHD",
        "name": "Emery Creek Upper Falls (3,4,5) 15, 40, 15",
        "source": "UTC Regional Resource Inventory",
        "waterway": "waterfall"
      },
      "geometry": {
        "type": "Point",
        "coordinates": [
          -84.630114,
          34.833808
        ]
      },
      "id": "node/348905535"
    },
    {
      "type": "Feature",
      "properties": {
        "@id": "node/348905664",
        "attribution": "NHD",
        "name": "Emery Creek Lower Falls (1,2) 60, 15",
        "source": "UTC Regional Resource Inventory",
        "waterway": "waterfall"
      },
      "geometry": {
        "type": "Point",
        "coordinates": [
          -84.632367,
          34.831704
        ]
      },
      "id": "node/348905664"
    },
    {
      "type": "Feature",
      "properties": {
        "@id": "node/349362397",
        "waterway": "waterfall"
      },
      "geometry": {
        "type": "Point",
        "coordinates": [
          -83.1200627,
          34.957275
        ]
      },
      "id": "node/349362397"
    },
    {
      "type": "Feature",
      "properties": {
        "@id": "node/358715503",
        "ele": "706",
        "gnis:feature_id": "330432",
        "name": "Raven Cliff Falls",
        "waterway": "waterfall"
      },
      "geometry": {
        "type": "Point",
        "coordinates": [
          -83.8238445,
          34.7231789
        ]
      },
      "id": "node/358715503"
    },
    {
      "type": "Feature",
      "properties": {
        "@id": "node/374229943",
        "name": "Duke Creek Falls",
        "waterway": "waterfall"
      },
      "geometry": {
        "type": "Point",
        "coordinates": [
          -83.7922314,
          34.7027015
        ]
      },
      "id": "node/374229943"
    },
    {
      "type": "Feature",
      "properties": {
        "@id": "node/374449742",
        "waterway": "waterfall"
      },
      "geometry": {
        "type": "Point",
        "coordinates": [
          -83.806194,
          34.718118
        ]
      },
      "id": "node/374449742"
    },
    {
      "type": "Feature",
      "properties": {
        "@id": "node/374450117",
        "waterway": "waterfall"
      },
      "geometry": {
        "type": "Point",
        "coordinates": [
          -83.803231,
          34.71774
        ]
      },
      "id": "node/374450117"
    },
    {
      "type": "Feature",
      "properties": {
        "@id": "node/374530299",
        "waterway": "waterfall"
      },
      "geometry": {
        "type": "Point",
        "coordinates": [
          -83.920758,
          34.730261
        ]
      },
      "id": "node/374530299"
    },
    {
      "type": "Feature",
      "properties": {
        "@id": "node/374874250",
        "name": "Water Wheel",
        "waterway": "waterfall"
      },
      "geometry": {
        "type": "Point",
        "coordinates": [
          -84.189357,
          33.9875785
        ]
      },
      "id": "node/374874250"
    },
    {
      "type": "Feature",
      "properties": {
        "@id": "node/375062613",
        "waterway": "waterfall"
      },
      "geometry": {
        "type": "Point",
        "coordinates": [
          -83.921299,
          34.723544
        ]
      },
      "id": "node/375062613"
    },
    {
      "type": "Feature",
      "properties": {
        "@id": "node/375062788",
        "waterway": "waterfall"
      },
      "geometry": {
        "type": "Point",
        "coordinates": [
          -83.919041,
          34.722879
        ]
      },
      "id": "node/375062788"
    },
    {
      "type": "Feature",
      "properties": {
        "@id": "node/375062855",
        "waterway": "waterfall"
      },
      "geometry": {
        "type": "Point",
        "coordinates": [
          -83.9182,
          34.722382
        ]
      },
      "id": "node/375062855"
    },
    {
      "type": "Feature",
      "properties": {
        "@id": "node/375370026",
        "name": "Horse Trough Falls",
        "waterway": "waterfall",
        "wikidata": "Q37419"
      },
      "geometry": {
        "type": "Point",
        "coordinates": [
          -83.7874727,
          34.7920985
        ]
      },
      "id": "node/375370026"
    },
    {
      "type": "Feature",
      "properties": {
        "@id": "node/375416944",
        "name": "Blood Mountain Creek Falls",
        "waterway": "waterfall"
      },
      "geometry": {
        "type": "Point",
        "coordinates": [
          -83.943254,
          34.734888
        ]
      },
      "id": "node/375416944"
    },
    {
      "type": "Feature",
      "properties": {
        "@id": "node/376627557",
        "waterway": "waterfall"
      },
      "geometry": {
        "type": "Point",
        "coordinates": [
          -83.952019,
          34.699119
        ]
      },
      "id": "node/376627557"
    },
    {
      "type": "Feature",
      "properties": {
        "@id": "node/377137854",
        "waterway": "waterfall"
      },
      "geometry": {
        "type": "Point",
        "coordinates": [
          -83.921082,
          34.708064
        ]
      },
      "id": "node/377137854"
    },
    {
      "type": "Feature",
      "properties": {
        "@id": "node/377137999",
        "waterway": "waterfall"
      },
      "geometry": {
        "type": "Point",
        "coordinates": [
          -83.919763,
          34.708053
        ]
      },
      "id": "node/377137999"
    },
    {
      "type": "Feature",
      "properties": {
        "@id": "node/396266679",
        "name": "Rock Falls",
        "waterway": "waterfall"
      },
      "geometry": {
        "type": "Point",
        "coordinates": [
          -82.853592,
          31.732671
        ]
      },
      "id": "node/396266679"
    },
    {
      "type": "Feature",
      "properties": {
        "@id": "node/401105574",
        "waterway": "waterfall"
      },
      "geometry": {
        "type": "Point",
        "coordinates": [
          -82.8446088,
          34.9710797
        ]
      },
      "id": "node/401105574"
    },
    {
      "type": "Feature",
      "properties": {
        "@id": "node/401150019",
        "waterway": "waterfall"
      },
      "geometry": {
        "type": "Point",
        "coordinates": [
          -83.500212,
          34.947241
        ]
      },
      "id": "node/401150019"
    },
    {
      "type": "Feature",
      "properties": {
        "@id": "node/403920193",
        "name": "Hidden Falls",
        "waterway": "waterfall"
      },
      "geometry": {
        "type": "Point",
        "coordinates": [
          -83.0902663,
          34.8797476
        ]
      },
      "id": "node/403920193"
    },
    {
      "type": "Feature",
      "properties": {
        "@id": "node/403955043",
        "name": "Brasstown Falls",
        "waterway": "waterfall"
      },
      "geometry": {
        "type": "Point",
        "coordinates": [
          -83.304351,
          34.718622
        ]
      },
      "id": "node/403955043"
    },
    {
      "type": "Feature",
      "properties": {
        "@id": "node/403955071",
        "waterway": "waterfall"
      },
      "geometry": {
        "type": "Point",
        "coordinates": [
          -83.304795,
          34.718758
        ]
      },
      "id": "node/403955071"
    },
    {
      "type": "Feature",
      "properties": {
        "@id": "node/403955089",
        "waterway": "waterfall"
      },
      "geometry": {
        "type": "Point",
        "coordinates": [
          -83.305112,
          34.718802
        ]
      },
      "id": "node/403955089"
    },
    {
      "type": "Feature",
      "properties": {
        "@id": "node/404098781",
        "name": "Cedar Creek Falls",
        "waterway": "waterfall"
      },
      "geometry": {
        "type": "Point",
        "coordinates": [
          -83.1896875,
          34.7624216
        ]
      },
      "id": "node/404098781"
    },
    {
      "type": "Feature",
      "properties": {
        "@id": "node/404098791",
        "height": "2.5",
        "name": "Blue Hole Falls",
        "waterway": "waterfall",
        "website": "https://www.hdcarolina.com/episode/blue-hole-falls",
        "width": "0.5 m"
      },
      "geometry": {
        "type": "Point",
        "coordinates": [
          -83.1896004,
          34.7617273
        ]
      },
      "id": "node/404098791"
    },
    {
      "type": "Feature",
      "properties": {
        "@id": "node/404352485",
        "name": "Middle Poe Creek Falls",
        "waterway": "waterfall"
      },
      "geometry": {
        "type": "Point",
        "coordinates": [
          -82.8795365,
          34.9370334
        ]
      },
      "id": "node/404352485"
    },
    {
      "type": "Feature",
      "properties": {
        "@id": "node/404352512",
        "name": "Lower Poe Creek Falls",
        "waterway": "waterfall"
      },
      "geometry": {
        "type": "Point",
        "coordinates": [
          -82.8817693,
          34.9366211
        ]
      },
      "id": "node/404352512"
    },
    {
      "type": "Feature",
      "properties": {
        "@id": "node/404520991",
        "name": "Horsehead Point Falls",
        "waterway": "waterfall"
      },
      "geometry": {
        "type": "Point",
        "coordinates": [
          -82.865657,
          34.709144
        ]
      },
      "id": "node/404520991"
    },
    {
      "type": "Feature",
      "properties": {
        "@id": "node/404574986",
        "height": "56.7",
        "name": "Toccoa Falls",
        "waterway": "waterfall",
        "wikidata": "Q10842968",
        "wikipedia": "en:Toccoa Falls"
      },
      "geometry": {
        "type": "Point",
        "coordinates": [
          -83.3604954,
          34.5961896
        ]
      },
      "id": "node/404574986"
    },
    {
      "type": "Feature",
      "properties": {
        "@id": "node/405415643",
        "name": "Opossum Creek Falls",
        "waterway": "waterfall"
      },
      "geometry": {
        "type": "Point",
        "coordinates": [
          -83.3143643,
          34.7572711
        ]
      },
      "id": "node/405415643"
    },
    {
      "type": "Feature",
      "properties": {
        "@id": "node/405429389",
        "waterway": "waterfall"
      },
      "geometry": {
        "type": "Point",
        "coordinates": [
          -83.129363,
          34.803993
        ]
      },
      "id": "node/405429389"
    },
    {
      "type": "Feature",
      "properties": {
        "@id": "node/405483280",
        "name": "Deadfall Falls",
        "waterway": "waterfall"
      },
      "geometry": {
        "type": "Point",
        "coordinates": [
          -83.0912435,
          34.9285096
        ]
      },
      "id": "node/405483280"
    },
    {
      "type": "Feature",
      "properties": {
        "@id": "node/405483287",
        "name": "Prospector Falls",
        "waterway": "waterfall"
      },
      "geometry": {
        "type": "Point",
        "coordinates": [
          -83.0910501,
          34.928276
        ]
      },
      "id": "node/405483287"
    },
    {
      "type": "Feature",
      "properties": {
        "@id": "node/405483304",
        "name": "Yellow Jacket Falls",
        "waterway": "waterfall"
      },
      "geometry": {
        "type": "Point",
        "coordinates": [
          -83.0903851,
          34.9276396
        ]
      },
      "id": "node/405483304"
    },
    {
      "type": "Feature",
      "properties": {
        "@id": "node/405483342",
        "name": "Crane Creek Falls",
        "waterway": "waterfall"
      },
      "geometry": {
        "type": "Point",
        "coordinates": [
          -83.0899059,
          34.927083
        ]
      },
      "id": "node/405483342"
    },
    {
      "type": "Feature",
      "properties": {
        "@id": "node/405483452",
        "name": "Crane Falls",
        "waterway": "waterfall"
      },
      "geometry": {
        "type": "Point",
        "coordinates": [
          -83.082252,
          34.924999
        ]
      },
      "id": "node/405483452"
    },
    {
      "type": "Feature",
      "properties": {
        "@id": "node/405522543",
        "alt_name": "Burson's Falls",
        "name": "Reedy Branch Falls",
        "waterway": "waterfall"
      },
      "geometry": {
        "type": "Point",
        "coordinates": [
          -83.2813277,
          34.8050228
        ]
      },
      "id": "node/405522543"
    },
    {
      "type": "Feature",
      "properties": {
        "@id": "node/405579986",
        "name": "Minnehaha Falls",
        "waterway": "waterfall",
        "wikidata": "Q6868077"
      },
      "geometry": {
        "type": "Point",
        "coordinates": [
          -83.480228,
          34.747183
        ]
      },
      "id": "node/405579986"
    },
    {
      "type": "Feature",
      "properties": {
        "@id": "node/405686134",
        "name": "Meadow Falls",
        "waterway": "waterfall"
      },
      "geometry": {
        "type": "Point",
        "coordinates": [
          -82.8358925,
          34.7207711
        ]
      },
      "id": "node/405686134"
    },
    {
      "type": "Feature",
      "properties": {
        "@id": "node/405764667",
        "waterway": "waterfall"
      },
      "geometry": {
        "type": "Point",
        "coordinates": [
          -83.0511017,
          34.9736703
        ]
      },
      "id": "node/405764667"
    },
    {
      "type": "Feature",
      "properties": {
        "@id": "node/405803249",
        "name": "Long Creek Falls",
        "waterway": "waterfall"
      },
      "geometry": {
        "type": "Point",
        "coordinates": [
          -83.3225475,
          34.7855494
        ]
      },
      "id": "node/405803249"
    },
    {
      "type": "Feature",
      "properties": {
        "@id": "node/405807338",
        "name": "Lower Miuka Falls",
        "waterway": "waterfall"
      },
      "geometry": {
        "type": "Point",
        "coordinates": [
          -83.0852152,
          34.9324161
        ]
      },
      "id": "node/405807338"
    },
    {
      "type": "Feature",
      "properties": {
        "@id": "node/405833078",
        "name": "Silver Ribbon Falls",
        "waterway": "waterfall"
      },
      "geometry": {
        "type": "Point",
        "coordinates": [
          -82.8082008,
          34.9458936
        ]
      },
      "id": "node/405833078"
    },
    {
      "type": "Feature",
      "properties": {
        "@id": "node/405894974",
        "name": "Little Brasstown Falls",
        "waterway": "waterfall"
      },
      "geometry": {
        "type": "Point",
        "coordinates": [
          -83.302561,
          34.7171233
        ]
      },
      "id": "node/405894974"
    },
    {
      "type": "Feature",
      "properties": {
        "@id": "node/405920351",
        "name": "Hemlock Falls",
        "waterway": "waterfall",
        "wikidata": "Q37887"
      },
      "geometry": {
        "type": "Point",
        "coordinates": [
          -83.610809,
          34.852712
        ]
      },
      "id": "node/405920351"
    },
    {
      "type": "Feature",
      "properties": {
        "@id": "node/405946665",
        "name": "Spoonauger Falls",
        "waterway": "waterfall"
      },
      "geometry": {
        "type": "Point",
        "coordinates": [
          -83.1097782,
          34.9746114
        ]
      },
      "id": "node/405946665"
    },
    {
      "type": "Feature",
      "properties": {
        "@id": "node/405961060",
        "name": "Never Ending Falls",
        "waterway": "waterfall"
      },
      "geometry": {
        "type": "Point",
        "coordinates": [
          -82.8658393,
          34.9975923
        ]
      },
      "id": "node/405961060"
    },
    {
      "type": "Feature",
      "properties": {
        "@id": "node/405962538",
        "alt_name:1": "Sid's Falls",
        "name": "Sids Falls",
        "waterway": "waterfall"
      },
      "geometry": {
        "type": "Point",
        "coordinates": [
          -83.3077551,
          34.7557666
        ]
      },
      "id": "node/405962538"
    },
    {
      "type": "Feature",
      "properties": {
        "@id": "node/406003635",
        "name": "Station Cove Falls",
        "waterway": "waterfall"
      },
      "geometry": {
        "type": "Point",
        "coordinates": [
          -83.0858152,
          34.8495872
        ]
      },
      "id": "node/406003635"
    },
    {
      "type": "Feature",
      "properties": {
        "@id": "node/406194419",
        "name": "Jim Lee Falls",
        "waterway": "waterfall"
      },
      "geometry": {
        "type": "Point",
        "coordinates": [
          -83.0971966,
          34.8448066
        ]
      },
      "id": "node/406194419"
    },
    {
      "type": "Feature",
      "properties": {
        "@id": "node/406195847",
        "waterway": "waterfall"
      },
      "geometry": {
        "type": "Point",
        "coordinates": [
          -83.478253,
          34.7713795
        ]
      },
      "id": "node/406195847"
    },
    {
      "type": "Feature",
      "properties": {
        "@id": "node/406220969",
        "name": "Upper Long Creek Falls",
        "waterway": "waterfall"
      },
      "geometry": {
        "type": "Point",
        "coordinates": [
          -83.2913833,
          34.7792991
        ]
      },
      "id": "node/406220969"
    },
    {
      "type": "Feature",
      "properties": {
        "@id": "node/406220981",
        "name": "Middle Long Creek Falls",
        "waterway": "waterfall"
      },
      "geometry": {
        "type": "Point",
        "coordinates": [
          -83.2930505,
          34.7806276
        ]
      },
      "id": "node/406220981"
    },
    {
      "type": "Feature",
      "properties": {
        "@id": "node/406275883",
        "name": "Stonewall Falls",
        "waterway": "waterfall"
      },
      "geometry": {
        "type": "Point",
        "coordinates": [
          -83.450039,
          34.820854
        ]
      },
      "id": "node/406275883"
    },
    {
      "type": "Feature",
      "properties": {
        "@id": "node/406325514",
        "name": "Fall Creek Falls",
        "waterway": "waterfall"
      },
      "geometry": {
        "type": "Point",
        "coordinates": [
          -83.2664945,
          34.8189132
        ]
      },
      "id": "node/406325514"
    },
    {
      "type": "Feature",
      "properties": {
        "@id": "node/406337276",
        "name": "Maxie Duke Falls",
        "waterway": "waterfall"
      },
      "geometry": {
        "type": "Point",
        "coordinates": [
          -83.308652,
          34.7545054
        ]
      },
      "id": "node/406337276"
    },
    {
      "type": "Feature",
      "properties": {
        "@id": "node/406418982",
        "name": "Camp Branch Falls",
        "waterway": "waterfall"
      },
      "geometry": {
        "type": "Point",
        "coordinates": [
          -83.308907,
          34.764576
        ]
      },
      "id": "node/406418982"
    },
    {
      "type": "Feature",
      "properties": {
        "@id": "node/406419606",
        "alt_name": "Wildcat Falls",
        "name": "Wildcat Creek Falls",
        "waterway": "waterfall"
      },
      "geometry": {
        "type": "Point",
        "coordinates": [
          -82.85191,
          34.75872
        ]
      },
      "id": "node/406419606"
    },
    {
      "type": "Feature",
      "properties": {
        "@id": "node/406432329",
        "name": "Horse Bone Falls",
        "waterway": "waterfall"
      },
      "geometry": {
        "type": "Point",
        "coordinates": [
          -83.091269,
          34.8836697
        ]
      },
      "id": "node/406432329"
    },
    {
      "type": "Feature",
      "properties": {
        "@id": "node/406485810",
        "name": "Longnose Creek Falls",
        "waterway": "waterfall"
      },
      "geometry": {
        "type": "Point",
        "coordinates": [
          -83.253325,
          34.6456564
        ]
      },
      "id": "node/406485810"
    },
    {
      "type": "Feature",
      "properties": {
        "@id": "node/406539075",
        "name": "Clearwater Falls",
        "waterway": "waterfall"
      },
      "geometry": {
        "type": "Point",
        "coordinates": [
          -82.880911,
          34.920907
        ]
      },
      "id": "node/406539075"
    },
    {
      "type": "Feature",
      "properties": {
        "@id": "node/406556100",
        "name": "Battle Creek Falls",
        "waterway": "waterfall"
      },
      "geometry": {
        "type": "Point",
        "coordinates": [
          -83.341065,
          34.711642
        ]
      },
      "id": "node/406556100"
    },
    {
      "type": "Feature",
      "properties": {
        "@id": "node/406697761",
        "height": "40",
        "name": "Panther Creek Falls",
        "waterway": "waterfall"
      },
      "geometry": {
        "type": "Point",
        "coordinates": [
          -83.388032,
          34.676798
        ]
      },
      "id": "node/406697761"
    },
    {
      "type": "Feature",
      "properties": {
        "@id": "node/406709298",
        "name": "Double Spring Mountain Falls",
        "waterway": "waterfall"
      },
      "geometry": {
        "type": "Point",
        "coordinates": [
          -82.971171,
          34.996657
        ]
      },
      "id": "node/406709298"
    },
    {
      "type": "Feature",
      "properties": {
        "@id": "node/406711754",
        "name": "Mizelle Falls",
        "waterway": "waterfall"
      },
      "geometry": {
        "type": "Point",
        "coordinates": [
          -82.8113741,
          34.9472462
        ]
      },
      "id": "node/406711754"
    },
    {
      "type": "Feature",
      "properties": {
        "@id": "node/406879631",
        "name": "Lohr's Falls",
        "waterway": "waterfall"
      },
      "geometry": {
        "type": "Point",
        "coordinates": [
          -83.1362165,
          34.7973662
        ]
      },
      "id": "node/406879631"
    },
    {
      "type": "Feature",
      "properties": {
        "@id": "node/406930867",
        "name": "Isaqueena Falls",
        "waterway": "waterfall",
        "wikidata": "Q38258"
      },
      "geometry": {
        "type": "Point",
        "coordinates": [
          -83.121473,
          34.806862
        ]
      },
      "id": "node/406930867"
    },
    {
      "type": "Feature",
      "properties": {
        "@id": "node/406964014",
        "name": "Bone Camp Creek Falls",
        "waterway": "waterfall"
      },
      "geometry": {
        "type": "Point",
        "coordinates": [
          -83.177807,
          34.80478
        ]
      },
      "id": "node/406964014"
    },
    {
      "type": "Feature",
      "properties": {
        "@id": "node/406997450",
        "alt_name:1": "Fall Creek Waterfall",
        "name": "Fall Creek Falls",
        "waterway": "waterfall"
      },
      "geometry": {
        "type": "Point",
        "coordinates": [
          -82.912818,
          34.8890522
        ]
      },
      "id": "node/406997450"
    },
    {
      "type": "Feature",
      "properties": {
        "@id": "node/446317546",
        "name": "Pacolet Water Falls",
        "waterway": "waterfall"
      },
      "geometry": {
        "type": "Point",
        "coordinates": [
          -81.7461382,
          34.9218791
        ]
      },
      "id": "node/446317546"
    },
    {
      "type": "Feature",
      "properties": {
        "@id": "node/446428577",
        "NHD:ComID": "122313097",
        "NHD:FCode": "46006",
        "NHD:FType": "StreamRiver",
        "NHD:RESOLUTION": "High",
        "NHD:ReachCode": "3050109000165",
        "NHD:way_id": "122313097",
        "attribution": "NHD",
        "gnis:feature_id": "1225823",
        "height": "8.54",
        "name": "Reedy River Falls",
        "source": "NHD_import_v0.3_20090721150107",
        "tourism": "attraction",
        "waterway": "waterfall",
        "width": "16"
      },
      "geometry": {
        "type": "Point",
        "coordinates": [
          -82.4009308,
          34.8449933
        ]
      },
      "id": "node/446428577"
    },
    {
      "type": "Feature",
      "properties": {
        "@id": "node/450839251",
        "waterway": "waterfall"
      },
      "geometry": {
        "type": "Point",
        "coordinates": [
          -82.390625,
          34.9360498
        ]
      },
      "id": "node/450839251"
    },
    {
      "type": "Feature",
      "properties": {
        "@id": "node/451173833",
        "waterway": "waterfall"
      },
      "geometry": {
        "type": "Point",
        "coordinates": [
          -82.3980215,
          34.9410414
        ]
      },
      "id": "node/451173833"
    },
    {
      "type": "Feature",
      "properties": {
        "@id": "node/451173853",
        "waterway": "waterfall"
      },
      "geometry": {
        "type": "Point",
        "coordinates": [
          -82.39633,
          34.940595
        ]
      },
      "id": "node/451173853"
    },
    {
      "type": "Feature",
      "properties": {
        "@id": "node/451961862",
        "name": "Buffalo Creek Falls",
        "waterway": "waterfall"
      },
      "geometry": {
        "type": "Point",
        "coordinates": [
          -81.8847407,
          34.8724503
        ]
      },
      "id": "node/451961862"
    },
    {
      "type": "Feature",
      "properties": {
        "@id": "node/458457624",
        "waterway": "waterfall"
      },
      "geometry": {
        "type": "Point",
        "coordinates": [
          -82.4043335,
          34.8178588
        ]
      },
      "id": "node/458457624"
    },
    {
      "type": "Feature",
      "properties": {
        "@id": "node/555475979",
        "name": "Upper Garrett Branch Falls",
        "waterway": "waterfall"
      },
      "geometry": {
        "type": "Point",
        "coordinates": [
          -83.7672285,
          34.8408842
        ]
      },
      "id": "node/555475979"
    },
    {
      "type": "Feature",
      "properties": {
        "@id": "node/555542446",
        "name": "Upper Sorrels Branch Falls",
        "waterway": "waterfall"
      },
      "geometry": {
        "type": "Point",
        "coordinates": [
          -83.747111,
          34.8358425
        ]
      },
      "id": "node/555542446"
    },
    {
      "type": "Feature",
      "properties": {
        "@id": "node/555542448",
        "name": "Lower Sorrels Branch Falls",
        "waterway": "waterfall"
      },
      "geometry": {
        "type": "Point",
        "coordinates": [
          -83.7469132,
          34.8355423
        ]
      },
      "id": "node/555542448"
    },
    {
      "type": "Feature",
      "properties": {
        "@id": "node/555563031",
        "waterway": "waterfall"
      },
      "geometry": {
        "type": "Point",
        "coordinates": [
          -83.920441,
          34.742845
        ]
      },
      "id": "node/555563031"
    },
    {
      "type": "Feature",
      "properties": {
        "@id": "node/555563063",
        "name": "Nottely Falls",
        "waterway": "waterfall"
      },
      "geometry": {
        "type": "Point",
        "coordinates": [
          -83.92007,
          34.743385
        ]
      },
      "id": "node/555563063"
    },
    {
      "type": "Feature",
      "properties": {
        "@id": "node/556848430",
        "name": "Long Creek Falls",
        "waterway": "waterfall"
      },
      "geometry": {
        "type": "Point",
        "coordinates": [
          -84.170829,
          34.667824
        ]
      },
      "id": "node/556848430"
    },
    {
      "type": "Feature",
      "properties": {
        "@id": "node/556848463",
        "waterway": "waterfall"
      },
      "geometry": {
        "type": "Point",
        "coordinates": [
          -84.173592,
          34.667818
        ]
      },
      "id": "node/556848463"
    },
    {
      "type": "Feature",
      "properties": {
        "@id": "node/556848475",
        "waterway": "waterfall"
      },
      "geometry": {
        "type": "Point",
        "coordinates": [
          -84.1756595,
          34.6676076
        ]
      },
      "id": "node/556848475"
    },
    {
      "type": "Feature",
      "properties": {
        "@id": "node/556885042",
        "name": "Lower Canada Creek Falls",
        "waterway": "waterfall"
      },
      "geometry": {
        "type": "Point",
        "coordinates": [
          -84.042977,
          34.68986
        ]
      },
      "id": "node/556885042"
    },
    {
      "type": "Feature",
      "properties": {
        "@id": "node/556886379",
        "name": "Noontootla Falls",
        "waterway": "waterfall"
      },
      "geometry": {
        "type": "Point",
        "coordinates": [
          -84.194128,
          34.686239
        ]
      },
      "id": "node/556886379"
    },
    {
      "type": "Feature",
      "properties": {
        "@id": "node/556979832",
        "waterway": "waterfall"
      },
      "geometry": {
        "type": "Point",
        "coordinates": [
          -84.3058654,
          34.7868078
        ]
      },
      "id": "node/556979832"
    },
    {
      "type": "Feature",
      "properties": {
        "@id": "node/556979838",
        "waterway": "waterfall"
      },
      "geometry": {
        "type": "Point",
        "coordinates": [
          -84.305743,
          34.7865345
        ]
      },
      "id": "node/556979838"
    },
    {
      "type": "Feature",
      "properties": {
        "@id": "node/557010260",
        "name": "Little Rock Creek Falls",
        "waterway": "waterfall"
      },
      "geometry": {
        "type": "Point",
        "coordinates": [
          -84.14576,
          34.713865
        ]
      },
      "id": "node/557010260"
    },
    {
      "type": "Feature",
      "properties": {
        "@id": "node/806875647",
        "name": "Rock Quarry Falls",
        "tourism": "attraction",
        "waterway": "waterfall"
      },
      "geometry": {
        "type": "Point",
        "coordinates": [
          -82.3930858,
          34.8431667
        ]
      },
      "id": "node/806875647"
    },
    {
      "type": "Feature",
      "properties": {
        "@id": "node/909880576",
        "height": "18",
        "name": "Cherokee Falls",
        "source": "UTC Regional Resource Inventory",
        "waterway": "waterfall",
        "wikipedia": "en:Cherokee_Falls"
      },
      "geometry": {
        "type": "Point",
        "coordinates": [
          -85.484198,
          34.8339165
        ]
      },
      "id": "node/909880576"
    },
    {
      "type": "Feature",
      "properties": {
        "@id": "node/910199631",
        "name": "Lower Cascades Glen Falls 65",
        "source": "UTC Regional Resource Inventory",
        "waterway": "waterfall"
      },
      "geometry": {
        "type": "Point",
        "coordinates": [
          -85.3419324,
          34.9875273
        ]
      },
      "id": "node/910199631"
    },
    {
      "type": "Feature",
      "properties": {
        "@id": "node/910205876",
        "name": "Glen Falls 15",
        "source": "UTC Regional Resource Inventory",
        "waterway": "waterfall"
      },
      "geometry": {
        "type": "Point",
        "coordinates": [
          -85.3427142,
          34.9876742
        ]
      },
      "id": "node/910205876"
    },
    {
      "type": "Feature",
      "properties": {
        "@id": "node/2232199284",
        "name": "Barnes Creek Falls 25",
        "source": "UTC Regional Resource Inventory",
        "waterway": "waterfall"
      },
      "geometry": {
        "type": "Point",
        "coordinates": [
          -84.5822051,
          34.8262768
        ]
      },
      "id": "node/2232199284"
    },
    {
      "type": "Feature",
      "properties": {
        "@id": "node/2232199332",
        "height": "9",
        "name": "Keown Falls North 35",
        "source": "UTC Regional Resource Inventory",
        "waterway": "waterfall"
      },
      "geometry": {
        "type": "Point",
        "coordinates": [
          -85.0949953,
          34.6132209
        ]
      },
      "id": "node/2232199332"
    },
    {
      "type": "Feature",
      "properties": {
        "@id": "node/2232199333",
        "attribution": "NHD",
        "name": "Keown Falls South 25",
        "source": "UTC Regional Resource Inventory;NHD_import_v0.2_20090219152958",
        "waterway": "waterfall"
      },
      "geometry": {
        "type": "Point",
        "coordinates": [
          -85.0958794,
          34.6115629
        ]
      },
      "id": "node/2232199333"
    },
    {
      "type": "Feature",
      "properties": {
        "@id": "node/2232199378",
        "name": "Lula Falls 100",
        "source": "UTC Regional Resource Inventory",
        "waterway": "waterfall"
      },
      "geometry": {
        "type": "Point",
        "coordinates": [
          -85.3723666,
          34.9328717
        ]
      },
      "id": "node/2232199378"
    },
    {
      "type": "Feature",
      "properties": {
        "@id": "node/2232199383",
        "name": "Lula Lake Falls 30",
        "source": "UTC Regional Resource Inventory",
        "waterway": "waterfall"
      },
      "geometry": {
        "type": "Point",
        "coordinates": [
          -85.3736897,
          34.9311611
        ]
      },
      "id": "node/2232199383"
    },
    {
      "type": "Feature",
      "properties": {
        "@id": "node/2232199419",
        "name": "Mill Creek Falls (2) 50",
        "source": "UTC Regional Resource Inventory",
        "waterway": "waterfall"
      },
      "geometry": {
        "type": "Point",
        "coordinates": [
          -84.6986709,
          34.7746574
        ]
      },
      "id": "node/2232199419"
    },
    {
      "type": "Feature",
      "properties": {
        "@id": "node/2232199476",
        "name": "Upper Glen Falls 12",
        "source": "UTC Regional Resource Inventory",
        "waterway": "waterfall"
      },
      "geometry": {
        "type": "Point",
        "coordinates": [
          -85.343513,
          34.9881016
        ]
      },
      "id": "node/2232199476"
    },
    {
      "type": "Feature",
      "properties": {
        "@id": "node/2503351671",
        "alt_name:1": "Waldrop Falls",
        "alt_name:2": "Waldrop Stone Road Falls",
        "name": "Waldrop Stone Falls",
        "waterway": "waterfall"
      },
      "geometry": {
        "type": "Point",
        "coordinates": [
          -82.8203958,
          34.7394912
        ]
      },
      "id": "node/2503351671"
    },
    {
      "type": "Feature",
      "properties": {
        "@id": "node/2716415670",
        "name": "Caledonia Cascade",
        "waterway": "waterfall"
      },
      "geometry": {
        "type": "Point",
        "coordinates": [
          -83.3888808,
          34.7451083
        ]
      },
      "id": "node/2716415670"
    },
    {
      "type": "Feature",
      "properties": {
        "@id": "node/2834409404",
        "waterway": "waterfall"
      },
      "geometry": {
        "type": "Point",
        "coordinates": [
          -81.1999485,
          33.8313489
        ]
      },
      "id": "node/2834409404"
    },
    {
      "type": "Feature",
      "properties": {
        "@id": "node/3061273751",
        "name": "Alana Falls",
        "waterway": "waterfall"
      },
      "geometry": {
        "type": "Point",
        "coordinates": [
          -83.7318562,
          34.7016562
        ]
      },
      "id": "node/3061273751"
    },
    {
      "type": "Feature",
      "properties": {
        "@id": "node/3111154835",
        "name": "Conestee Falls",
        "waterway": "waterfall"
      },
      "geometry": {
        "type": "Point",
        "coordinates": [
          -82.3482182,
          34.771176
        ]
      },
      "id": "node/3111154835"
    },
    {
      "type": "Feature",
      "properties": {
        "@id": "node/3306432633",
        "name": "Etowah Falls",
        "waterway": "waterfall"
      },
      "geometry": {
        "type": "Point",
        "coordinates": [
          -84.0620543,
          34.489494
        ]
      },
      "id": "node/3306432633"
    },
    {
      "type": "Feature",
      "properties": {
        "@id": "node/3420180151",
        "name": "Arboretum Falls",
        "waterway": "waterfall"
      },
      "geometry": {
        "type": "Point",
        "coordinates": [
          -82.4030748,
          34.8437119
        ]
      },
      "id": "node/3420180151"
    },
    {
      "type": "Feature",
      "properties": {
        "@id": "node/3527230794",
        "waterway": "waterfall"
      },
      "geometry": {
        "type": "Point",
        "coordinates": [
          -84.7305474,
          33.5882613
        ]
      },
      "id": "node/3527230794"
    },
    {
      "type": "Feature",
      "properties": {
        "@id": "node/3572314425",
        "waterway": "waterfall"
      },
      "geometry": {
        "type": "Point",
        "coordinates": [
          -81.6442506,
          30.4038203
        ]
      },
      "id": "node/3572314425"
    },
    {
      "type": "Feature",
      "properties": {
        "@id": "node/3717449006",
        "name": "Todd Creek Falls",
        "waterway": "waterfall"
      },
      "geometry": {
        "type": "Point",
        "coordinates": [
          -82.8139254,
          34.7502837
        ]
      },
      "id": "node/3717449006"
    },
    {
      "type": "Feature",
      "properties": {
        "@id": "node/3761020257",
        "name": "Lee Falls",
        "waterway": "waterfall"
      },
      "geometry": {
        "type": "Point",
        "coordinates": [
          -83.1021601,
          34.8947325
        ]
      },
      "id": "node/3761020257"
    },
    {
      "type": "Feature",
      "properties": {
        "@id": "node/3761032061",
        "name": "Pigpen Falls",
        "waterway": "waterfall"
      },
      "geometry": {
        "type": "Point",
        "coordinates": [
          -83.1291664,
          34.9284608
        ]
      },
      "id": "node/3761032061"
    },
    {
      "type": "Feature",
      "properties": {
        "@id": "node/3761032062",
        "name": "Licklog Falls",
        "waterway": "waterfall"
      },
      "geometry": {
        "type": "Point",
        "coordinates": [
          -83.1308221,
          34.9296977
        ]
      },
      "id": "node/3761032062"
    },
    {
      "type": "Feature",
      "properties": {
        "@id": "node/3761034009",
        "name": "Secret Falls",
        "waterway": "waterfall"
      },
      "geometry": {
        "type": "Point",
        "coordinates": [
          -83.0868766,
          34.925251
        ]
      },
      "id": "node/3761034009"
    },
    {
      "type": "Feature",
      "properties": {
        "@id": "node/3761037068",
        "name": "Big Bend Falls",
        "waterway": "waterfall"
      },
      "geometry": {
        "type": "Point",
        "coordinates": [
          -83.1186796,
          34.9531368
        ]
      },
      "id": "node/3761037068"
    },
    {
      "type": "Feature",
      "properties": {
        "@id": "node/3761991050",
        "alt_name:1": "Kings Creek Falls",
        "height": "20",
        "intermittent": "no",
        "name": "King Creek Falls",
        "waterway": "waterfall",
        "wikidata": "Q37486",
        "wikimedia_commons": "File:Kings Creek Falls - 2017-08-12.jpg",
        "wikipedia": "en:Kings Creek Falls"
      },
      "geometry": {
        "type": "Point",
        "coordinates": [
          -83.1110264,
          34.9662525
        ]
      },
      "id": "node/3761991050"
    },
    {
      "type": "Feature",
      "properties": {
        "@id": "node/3764586806",
        "name": "Bee Cove Falls",
        "waterway": "waterfall"
      },
      "geometry": {
        "type": "Point",
        "coordinates": [
          -83.0524277,
          34.9744379
        ]
      },
      "id": "node/3764586806"
    },
    {
      "type": "Feature",
      "properties": {
        "@id": "node/3764719299",
        "name": "Yellow Branch Falls",
        "waterway": "waterfall"
      },
      "geometry": {
        "type": "Point",
        "coordinates": [
          -83.1342915,
          34.7951119
        ]
      },
      "id": "node/3764719299"
    },
    {
      "type": "Feature",
      "properties": {
        "@id": "node/3837514065",
        "height": "3.6",
        "name": "Riley Moore Falls",
        "waterway": "waterfall",
        "website": "https://www.hdcarolina.com/episode/riley-moore-falls",
        "width": "30"
      },
      "geometry": {
        "type": "Point",
        "coordinates": [
          -83.1795357,
          34.7412867
        ]
      },
      "id": "node/3837514065"
    },
    {
      "type": "Feature",
      "properties": {
        "@id": "node/4004696264",
        "waterway": "waterfall"
      },
      "geometry": {
        "type": "Point",
        "coordinates": [
          -84.487701,
          34.4511227
        ]
      },
      "id": "node/4004696264"
    },
    {
      "type": "Feature",
      "properties": {
        "@id": "node/4026800810",
        "name": "Adams Creek Falls",
        "waterway": "waterfall"
      },
      "geometry": {
        "type": "Point",
        "coordinates": [
          -82.6642473,
          34.9738943
        ]
      },
      "id": "node/4026800810"
    },
    {
      "type": "Feature",
      "properties": {
        "@id": "node/4154620807",
        "waterway": "waterfall"
      },
      "geometry": {
        "type": "Point",
        "coordinates": [
          -82.822162,
          34.7515826
        ]
      },
      "id": "node/4154620807"
    },
    {
      "type": "Feature",
      "properties": {
        "@id": "node/4166256177",
        "waterway": "waterfall"
      },
      "geometry": {
        "type": "Point",
        "coordinates": [
          -81.8377767,
          34.941163
        ]
      },
      "id": "node/4166256177"
    },
    {
      "type": "Feature",
      "properties": {
        "@id": "node/4243574306",
        "waterway": "waterfall"
      },
      "geometry": {
        "type": "Point",
        "coordinates": [
          -83.9223712,
          34.7238265
        ]
      },
      "id": "node/4243574306"
    },
    {
      "type": "Feature",
      "properties": {
        "@id": "node/4370507990",
        "name": "Walden Creek Waterfall",
        "name:en": "Walden Creek Waterfall",
        "waterway": "waterfall"
      },
      "geometry": {
        "type": "Point",
        "coordinates": [
          -84.0213504,
          34.6480668
        ]
      },
      "id": "node/4370507990"
    },
    {
      "type": "Feature",
      "properties": {
        "@id": "node/4701492628",
        "alt_name:1": "Falling Creek Falls",
        "name": "Frey Creek Falls",
        "waterway": "waterfall"
      },
      "geometry": {
        "type": "Point",
        "coordinates": [
          -82.0445483,
          34.9456048
        ]
      },
      "id": "node/4701492628"
    },
    {
      "type": "Feature",
      "properties": {
        "@id": "node/4772017433",
        "waterway": "waterfall"
      },
      "geometry": {
        "type": "Point",
        "coordinates": [
          -83.8492787,
          34.7086871
        ]
      },
      "id": "node/4772017433"
    },
    {
      "type": "Feature",
      "properties": {
        "@id": "node/4857916418",
        "waterway": "waterfall"
      },
      "geometry": {
        "type": "Point",
        "coordinates": [
          -83.3564269,
          34.8809729
        ]
      },
      "id": "node/4857916418"
    },
    {
      "type": "Feature",
      "properties": {
        "@id": "node/5052361039",
        "waterway": "waterfall"
      },
      "geometry": {
        "type": "Point",
        "coordinates": [
          -84.3058082,
          34.7866673
        ]
      },
      "id": "node/5052361039"
    },
    {
      "type": "Feature",
      "properties": {
        "@id": "node/5144130382",
        "waterway": "waterfall"
      },
      "geometry": {
        "type": "Point",
        "coordinates": [
          -83.9747816,
          34.6763961
        ]
      },
      "id": "node/5144130382"
    },
    {
      "type": "Feature",
      "properties": {
        "@id": "node/5275850250",
        "waterway": "waterfall"
      },
      "geometry": {
        "type": "Point",
        "coordinates": [
          -84.0159032,
          33.1781782
        ]
      },
      "id": "node/5275850250"
    },
    {
      "type": "Feature",
      "properties": {
        "@id": "node/5275850251",
        "waterway": "waterfall"
      },
      "geometry": {
        "type": "Point",
        "coordinates": [
          -84.0170378,
          33.1784746
        ]
      },
      "id": "node/5275850251"
    },
    {
      "type": "Feature",
      "properties": {
        "@id": "node/5316781051",
        "height": "3",
        "intermittent": "no",
        "name": "Anneewakee Falls",
        "waterway": "waterfall",
        "width": "33"
      },
      "geometry": {
        "type": "Point",
        "coordinates": [
          -84.6836133,
          33.6955789
        ]
      },
      "id": "node/5316781051"
    },
    {
      "type": "Feature",
      "properties": {
        "@id": "node/5339695528",
        "height": "1.5",
        "waterway": "waterfall",
        "width": "3"
      },
      "geometry": {
        "type": "Point",
        "coordinates": [
          -81.6265562,
          30.8576821
        ]
      },
      "id": "node/5339695528"
    },
    {
      "type": "Feature",
      "properties": {
        "@id": "node/5371338151",
        "name": "Limestone Falls",
        "waterway": "waterfall"
      },
      "geometry": {
        "type": "Point",
        "coordinates": [
          -83.1877005,
          34.8297981
        ]
      },
      "id": "node/5371338151"
    },
    {
      "type": "Feature",
      "properties": {
        "@id": "node/5562014787",
        "waterway": "waterfall"
      },
      "geometry": {
        "type": "Point",
        "coordinates": [
          -83.1285955,
          34.8063005
        ]
      },
      "id": "node/5562014787"
    },
    {
      "type": "Feature",
      "properties": {
        "@id": "node/5562035348",
        "waterway": "waterfall"
      },
      "geometry": {
        "type": "Point",
        "coordinates": [
          -83.1299055,
          34.799998
        ]
      },
      "id": "node/5562035348"
    },
    {
      "type": "Feature",
      "properties": {
        "@id": "node/5562035349",
        "waterway": "waterfall"
      },
      "geometry": {
        "type": "Point",
        "coordinates": [
          -83.1297351,
          34.8030431
        ]
      },
      "id": "node/5562035349"
    },
    {
      "type": "Feature",
      "properties": {
        "@id": "node/5562074241",
        "waterway": "waterfall"
      },
      "geometry": {
        "type": "Point",
        "coordinates": [
          -83.13451,
          34.7974486
        ]
      },
      "id": "node/5562074241"
    },
    {
      "type": "Feature",
      "properties": {
        "@id": "node/5562866087",
        "waterway": "waterfall"
      },
      "geometry": {
        "type": "Point",
        "coordinates": [
          -83.1287496,
          34.7943224
        ]
      },
      "id": "node/5562866087"
    },
    {
      "type": "Feature",
      "properties": {
        "@id": "node/5682527688",
        "waterway": "waterfall"
      },
      "geometry": {
        "type": "Point",
        "coordinates": [
          -82.8064361,
          34.9468461
        ]
      },
      "id": "node/5682527688"
    },
    {
      "type": "Feature",
      "properties": {
        "@id": "node/5693697321",
        "waterway": "waterfall"
      },
      "geometry": {
        "type": "Point",
        "coordinates": [
          -83.3532723,
          34.88193
        ]
      },
      "id": "node/5693697321"
    },
    {
      "type": "Feature",
      "properties": {
        "@id": "node/5735167829",
        "waterway": "waterfall"
      },
      "geometry": {
        "type": "Point",
        "coordinates": [
          -83.2497124,
          34.8164351
        ]
      },
      "id": "node/5735167829"
    },
    {
      "type": "Feature",
      "properties": {
        "@id": "node/5745560697",
        "name": "Horseshoe Falls",
        "waterway": "waterfall"
      },
      "geometry": {
        "type": "Point",
        "coordinates": [
          -81.8542445,
          34.5964975
        ]
      },
      "id": "node/5745560697"
    },
    {
      "type": "Feature",
      "properties": {
        "@id": "node/5877079988",
        "name": "Anna Ruby Falls",
        "waterway": "waterfall",
        "wikidata": "Q37410",
        "wikipedia": "en:Anna Ruby Falls"
      },
      "geometry": {
        "type": "Point",
        "coordinates": [
          -83.712489,
          34.7643023
        ]
      },
      "id": "node/5877079988"
    },
    {
      "type": "Feature",
      "properties": {
        "@id": "node/5954317358",
        "name": "Pristine Falls",
        "waterway": "waterfall"
      },
      "geometry": {
        "type": "Point",
        "coordinates": [
          -83.2565602,
          34.8219115
        ]
      },
      "id": "node/5954317358"
    },
    {
      "type": "Feature",
      "properties": {
        "@id": "node/5954337918",
        "alt_name:1": "Sidepocket Falls",
        "name": "Side Pocket Falls",
        "waterway": "waterfall"
      },
      "geometry": {
        "type": "Point",
        "coordinates": [
          -83.2679708,
          34.8193691
        ]
      },
      "id": "node/5954337918"
    },
    {
      "type": "Feature",
      "properties": {
        "@id": "node/5954337919",
        "name": "Final Falls",
        "waterway": "waterfall"
      },
      "geometry": {
        "type": "Point",
        "coordinates": [
          -83.2686637,
          34.8202845
        ]
      },
      "id": "node/5954337919"
    },
    {
      "type": "Feature",
      "properties": {
        "@id": "node/5954432898",
        "name": "Midway Falls",
        "waterway": "waterfall"
      },
      "geometry": {
        "type": "Point",
        "coordinates": [
          -83.2520595,
          34.8230411
        ]
      },
      "id": "node/5954432898"
    },
    {
      "type": "Feature",
      "properties": {
        "@id": "node/5954432899",
        "name": "Rhodo Falls",
        "waterway": "waterfall"
      },
      "geometry": {
        "type": "Point",
        "coordinates": [
          -83.253339,
          34.823405
        ]
      },
      "id": "node/5954432899"
    },
    {
      "type": "Feature",
      "properties": {
        "@id": "node/5954432901",
        "name": "Andrew Ramey Falls",
        "waterway": "waterfall"
      },
      "geometry": {
        "type": "Point",
        "coordinates": [
          -83.2511165,
          34.8225598
        ]
      },
      "id": "node/5954432901"
    },
    {
      "type": "Feature",
      "properties": {
        "@id": "node/5967457446",
        "name": "Double Branch Falls",
        "waterway": "waterfall"
      },
      "geometry": {
        "type": "Point",
        "coordinates": [
          -83.2242107,
          34.7867636
        ]
      },
      "id": "node/5967457446"
    },
    {
      "type": "Feature",
      "properties": {
        "@id": "node/5972153144",
        "waterway": "waterfall"
      },
      "geometry": {
        "type": "Point",
        "coordinates": [
          -83.2494347,
          34.8162645
        ]
      },
      "id": "node/5972153144"
    },
    {
      "type": "Feature",
      "properties": {
        "@id": "node/5972176607",
        "waterway": "waterfall"
      },
      "geometry": {
        "type": "Point",
        "coordinates": [
          -83.2491432,
          34.8161028
        ]
      },
      "id": "node/5972176607"
    },
    {
      "type": "Feature",
      "properties": {
        "@id": "node/6097331281",
        "waterway": "waterfall"
      },
      "geometry": {
        "type": "Point",
        "coordinates": [
          -83.0119851,
          34.9865967
        ]
      },
      "id": "node/6097331281"
    },
    {
      "type": "Feature",
      "properties": {
        "@id": "node/6101799268",
        "name": "Upper Pigpen Falls",
        "waterway": "waterfall"
      },
      "geometry": {
        "type": "Point",
        "coordinates": [
          -83.1286119,
          34.9284069
        ]
      },
      "id": "node/6101799268"
    },
    {
      "type": "Feature",
      "properties": {
        "@id": "node/6206159460",
        "name": "Little Fall Creek Falls",
        "waterway": "waterfall"
      },
      "geometry": {
        "type": "Point",
        "coordinates": [
          -83.2519119,
          34.8190949
        ]
      },
      "id": "node/6206159460"
    },
    {
      "type": "Feature",
      "properties": {
        "@id": "node/6238802299",
        "name": "Miuka Falls",
        "waterway": "waterfall"
      },
      "geometry": {
        "type": "Point",
        "coordinates": [
          -83.08566,
          34.9330517
        ]
      },
      "id": "node/6238802299"
    },
    {
      "type": "Feature",
      "properties": {
        "@id": "node/6238802319",
        "name": "Little Miuka Falls",
        "waterway": "waterfall"
      },
      "geometry": {
        "type": "Point",
        "coordinates": [
          -83.0840198,
          34.9308153
        ]
      },
      "id": "node/6238802319"
    },
    {
      "type": "Feature",
      "properties": {
        "@id": "node/6335907541",
        "waterway": "waterfall"
      },
      "geometry": {
        "type": "Point",
        "coordinates": [
          -81.9583781,
          34.9854177
        ]
      },
      "id": "node/6335907541"
    },
    {
      "type": "Feature",
      "properties": {
        "@id": "node/6395080325",
        "name": "Poe Creek Falls",
        "waterway": "waterfall"
      },
      "geometry": {
        "type": "Point",
        "coordinates": [
          -82.8788611,
          34.9370313
        ]
      },
      "id": "node/6395080325"
    },
    {
      "type": "Feature",
      "properties": {
        "@id": "node/6480929502",
        "waterway": "waterfall"
      },
      "geometry": {
        "type": "Point",
        "coordinates": [
          -82.7232519,
          34.7247507
        ]
      },
      "id": "node/6480929502"
    },
    {
      "type": "Feature",
      "properties": {
        "@id": "node/6495452626",
        "waterway": "waterfall"
      },
      "geometry": {
        "type": "Point",
        "coordinates": [
          -83.1319945,
          34.7928204
        ]
      },
      "id": "node/6495452626"
    },
    {
      "type": "Feature",
      "properties": {
        "@id": "node/6563304720",
        "name": "Disappearing Falls",
        "waterway": "waterfall"
      },
      "geometry": {
        "type": "Point",
        "coordinates": [
          -83.0947403,
          34.8782689
        ]
      },
      "id": "node/6563304720"
    },
    {
      "type": "Feature",
      "properties": {
        "@id": "node/7055820608",
        "name": "Upper Sloan Bridge Falls",
        "waterway": "waterfall"
      },
      "geometry": {
        "type": "Point",
        "coordinates": [
          -83.056179,
          35.000454
        ]
      },
      "id": "node/7055820608"
    },
    {
      "type": "Feature",
      "properties": {
        "@id": "node/7055820609",
        "name": "Lower Sloan Bridge Falls",
        "waterway": "waterfall"
      },
      "geometry": {
        "type": "Point",
        "coordinates": [
          -83.055429,
          34.9994705
        ]
      },
      "id": "node/7055820609"
    },
    {
      "type": "Feature",
      "properties": {
        "@id": "node/7055820610",
        "waterway": "waterfall"
      },
      "geometry": {
        "type": "Point",
        "coordinates": [
          -83.05522,
          34.9975244
        ]
      },
      "id": "node/7055820610"
    },
    {
      "type": "Feature",
      "properties": {
        "@id": "node/7312494359",
        "alt_name:1": "Ramsey Creek Falls",
        "name": "Chau Ram Falls",
        "waterway": "waterfall"
      },
      "geometry": {
        "type": "Point",
        "coordinates": [
          -83.1449095,
          34.6825192
        ]
      },
      "id": "node/7312494359"
    },
    {
      "type": "Feature",
      "properties": {
        "@id": "node/7367866822",
        "name": "Homer's Falls",
        "waterway": "waterfall"
      },
      "geometry": {
        "type": "Point",
        "coordinates": [
          -83.3209409,
          34.7794969
        ]
      },
      "id": "node/7367866822"
    },
    {
      "type": "Feature",
      "properties": {
        "@id": "node/7589363460",
        "name": "Helton Creek Falls",
        "waterway": "waterfall",
        "wikidata": "Q37436"
      },
      "geometry": {
        "type": "Point",
        "coordinates": [
          -83.8956844,
          34.7527145
        ]
      },
      "id": "node/7589363460"
    },
    {
      "type": "Feature",
      "properties": {
        "@id": "node/7589425216",
        "name": "Dicks Creek Falls",
        "waterway": "waterfall"
      },
      "geometry": {
        "type": "Point",
        "coordinates": [
          -83.9371236,
          34.6798024
        ]
      },
      "id": "node/7589425216"
    },
    {
      "type": "Feature",
      "properties": {
        "@id": "node/7592683899",
        "name": "Divinity Falls",
        "waterway": "waterfall"
      },
      "geometry": {
        "type": "Point",
        "coordinates": [
          -82.8656267,
          34.9967761
        ]
      },
      "id": "node/7592683899"
    },
    {
      "type": "Feature",
      "properties": {
        "@id": "node/7612890029",
        "name": "Triple Falls",
        "waterway": "waterfall"
      },
      "geometry": {
        "type": "Point",
        "coordinates": [
          -82.8573744,
          34.9542095
        ]
      },
      "id": "node/7612890029"
    },
    {
      "type": "Feature",
      "properties": {
        "@id": "node/7924546979",
        "name": "Crossland Creek Falls",
        "waterway": "waterfall"
      },
      "geometry": {
        "type": "Point",
        "coordinates": [
          -83.0827222,
          34.9162993
        ]
      },
      "id": "node/7924546979"
    },
    {
      "type": "Feature",
      "properties": {
        "@id": "node/7965699059",
        "waterway": "waterfall"
      },
      "geometry": {
        "type": "Point",
        "coordinates": [
          -85.1014769,
          31.3662775
        ]
      },
      "id": "node/7965699059"
    },
    {
      "type": "Feature",
      "properties": {
        "@id": "node/8285222392",
        "name": "Hiker's Peril Falls",
        "waterway": "waterfall"
      },
      "geometry": {
        "type": "Point",
        "coordinates": [
          -83.0546592,
          34.9973168
        ]
      },
      "id": "node/8285222392"
    },
    {
      "type": "Feature",
      "properties": {
        "@id": "node/8285231411",
        "waterway": "waterfall"
      },
      "geometry": {
        "type": "Point",
        "coordinates": [
          -83.1188672,
          34.9169241
        ]
      },
      "id": "node/8285231411"
    },
    {
      "type": "Feature",
      "properties": {
        "@id": "node/8421919312",
        "waterway": "waterfall"
      },
      "geometry": {
        "type": "Point",
        "coordinates": [
          -83.1073433,
          34.9069879
        ]
      },
      "id": "node/8421919312"
    },
    {
      "type": "Feature",
      "properties": {
        "@id": "node/8481101470",
        "name": "Chauga Narrows",
        "waterway": "waterfall"
      },
      "geometry": {
        "type": "Point",
        "coordinates": [
          -83.1722235,
          34.8273414
        ]
      },
      "id": "node/8481101470"
    },
    {
      "type": "Feature",
      "properties": {
        "@id": "node/8511675513",
        "name": "Sparkle Falls",
        "waterway": "waterfall"
      },
      "geometry": {
        "type": "Point",
        "coordinates": [
          -83.3096672,
          34.7557878
        ]
      },
      "id": "node/8511675513"
    },
    {
      "type": "Feature",
      "properties": {
        "@id": "node/8561319356",
        "name": "Lower Reedy River Falls",
        "waterway": "waterfall"
      },
      "geometry": {
        "type": "Point",
        "coordinates": [
          -82.4005267,
          34.8441101
        ]
      },
      "id": "node/8561319356"
    },
    {
      "type": "Feature",
      "properties": {
        "@id": "node/8561319358",
        "waterway": "waterfall"
      },
      "geometry": {
        "type": "Point",
        "coordinates": [
          -82.3971969,
          34.9408163
        ]
      },
      "id": "node/8561319358"
    },
    {
      "type": "Feature",
      "properties": {
        "@id": "node/8561319389",
        "waterway": "waterfall"
      },
      "geometry": {
        "type": "Point",
        "coordinates": [
          -83.0522043,
          34.9742783
        ]
      },
      "id": "node/8561319389"
    },
    {
      "type": "Feature",
      "properties": {
        "@id": "node/8561319390",
        "waterway": "waterfall"
      },
      "geometry": {
        "type": "Point",
        "coordinates": [
          -83.0514981,
          34.9739143
        ]
      },
      "id": "node/8561319390"
    },
    {
      "type": "Feature",
      "properties": {
        "@id": "node/8561319397",
        "name": "Upper Wash Branch Falls",
        "waterway": "waterfall"
      },
      "geometry": {
        "type": "Point",
        "coordinates": [
          -83.09564,
          34.921246
        ]
      },
      "id": "node/8561319397"
    },
    {
      "type": "Feature",
      "properties": {
        "@id": "node/8561319398",
        "name": "Lower Wash Branch Falls",
        "waterway": "waterfall"
      },
      "geometry": {
        "type": "Point",
        "coordinates": [
          -83.093564,
          34.9200569
        ]
      },
      "id": "node/8561319398"
    },
    {
      "type": "Feature",
      "properties": {
        "@id": "node/8561319400",
        "name": "Cheohee Road Falls",
        "waterway": "waterfall"
      },
      "geometry": {
        "type": "Point",
        "coordinates": [
          -83.1068793,
          34.9137788
        ]
      },
      "id": "node/8561319400"
    },
    {
      "type": "Feature",
      "properties": {
        "@id": "node/8561319402",
        "name": "Ira Branch Falls",
        "waterway": "waterfall"
      },
      "geometry": {
        "type": "Point",
        "coordinates": [
          -83.1439072,
          34.9211127
        ]
      },
      "id": "node/8561319402"
    },
    {
      "type": "Feature",
      "properties": {
        "@id": "node/8561319403",
        "name": "Triple Falls",
        "waterway": "waterfall"
      },
      "geometry": {
        "type": "Point",
        "coordinates": [
          -83.2589073,
          34.8134874
        ]
      },
      "id": "node/8561319403"
    },
    {
      "type": "Feature",
      "properties": {
        "@id": "node/8561319404",
        "name": "Norm's Falls",
        "waterway": "waterfall"
      },
      "geometry": {
        "type": "Point",
        "coordinates": [
          -83.2953994,
          34.8069018
        ]
      },
      "id": "node/8561319404"
    },
    {
      "type": "Feature",
      "properties": {
        "@id": "node/8604635092",
        "name": "Upper Opossum Creek Falls",
        "waterway": "waterfall"
      },
      "geometry": {
        "type": "Point",
        "coordinates": [
          -83.3142333,
          34.756785
        ]
      },
      "id": "node/8604635092"
    },
    {
      "type": "Feature",
      "properties": {
        "@id": "node/8604642894",
        "name": "Shoulder Bone Falls",
        "waterway": "waterfall"
      },
      "geometry": {
        "type": "Point",
        "coordinates": [
          -83.3019814,
          34.7557201
        ]
      },
      "id": "node/8604642894"
    },
    {
      "type": "Feature",
      "properties": {
        "@id": "node/8666162947",
        "name": "Boyer Falls",
        "waterway": "waterfall"
      },
      "geometry": {
        "type": "Point",
        "coordinates": [
          -83.3053087,
          34.6898
        ]
      },
      "id": "node/8666162947"
    },
    {
      "type": "Feature",
      "properties": {
        "@id": "node/8758054049",
        "name": "John Danner Falls",
        "waterway": "waterfall"
      },
      "geometry": {
        "type": "Point",
        "coordinates": [
          -83.3124348,
          34.7537581
        ]
      },
      "id": "node/8758054049"
    },
    {
      "type": "Feature",
      "properties": {
        "@id": "node/8819299431",
        "name": "Bad Creek Falls",
        "waterway": "waterfall"
      },
      "geometry": {
        "type": "Point",
        "coordinates": [
          -82.9868607,
          34.9736732
        ]
      },
      "id": "node/8819299431"
    },
    {
      "type": "Feature",
      "properties": {
        "@id": "node/8837371906",
        "waterway": "waterfall"
      },
      "geometry": {
        "type": "Point",
        "coordinates": [
          -82.9856619,
          34.9737994
        ]
      },
      "id": "node/8837371906"
    },
    {
      "type": "Feature",
      "properties": {
        "@id": "node/8865813923",
        "name": "Land Bridge Falls",
        "waterway": "waterfall"
      },
      "geometry": {
        "type": "Point",
        "coordinates": [
          -83.1641258,
          34.8311665
        ]
      },
      "id": "node/8865813923"
    },
    {
      "type": "Feature",
      "properties": {
        "@id": "node/8986971847",
        "height": "30.48",
        "intermittent": "no",
        "name": "High Falls",
        "waterway": "waterfall"
      },
      "geometry": {
        "type": "Point",
        "coordinates": [
          -85.3477311,
          34.973881
        ]
      },
      "id": "node/8986971847"
    },
    {
      "type": "Feature",
      "properties": {
        "@id": "node/9049475139",
        "name": "Upper Canada Creek Falls",
        "waterway": "waterfall"
      },
      "geometry": {
        "type": "Point",
        "coordinates": [
          -84.0314592,
          34.6898758
        ]
      },
      "id": "node/9049475139"
    },
    {
      "type": "Feature",
      "properties": {
        "@id": "node/9213120377",
        "waterway": "waterfall"
      },
      "geometry": {
        "type": "Point",
        "coordinates": [
          -82.8528436,
          34.9574879
        ]
      },
      "id": "node/9213120377"
    },
    {
      "type": "Feature",
      "properties": {
        "@id": "node/9561226891",
        "waterway": "waterfall"
      },
      "geometry": {
        "type": "Point",
        "coordinates": [
          -81.6434745,
          30.3996226
        ]
      },
      "id": "node/9561226891"
    },
    {
      "type": "Feature",
      "properties": {
        "@id": "node/9741561647",
        "waterway": "waterfall"
      },
      "geometry": {
        "type": "Point",
        "coordinates": [
          -83.4051563,
          34.7501484
        ]
      },
      "id": "node/9741561647"
    },
    {
      "type": "Feature",
      "properties": {
        "@id": "node/9894275811",
        "name": "Spelunker Falls",
        "waterway": "waterfall"
      },
      "geometry": {
        "type": "Point",
        "coordinates": [
          -82.8553902,
          34.9370471
        ]
      },
      "id": "node/9894275811"
    },
    {
      "type": "Feature",
      "properties": {
        "@id": "node/9894275812",
        "name": "Crosscut Falls",
        "waterway": "waterfall"
      },
      "geometry": {
        "type": "Point",
        "coordinates": [
          -82.8566686,
          34.9372711
        ]
      },
      "id": "node/9894275812"
    },
    {
      "type": "Feature",
      "properties": {
        "@id": "node/9894323506",
        "name": "Allie's Falls",
        "waterway": "waterfall"
      },
      "geometry": {
        "type": "Point",
        "coordinates": [
          -82.8114275,
          34.9462292
        ]
      },
      "id": "node/9894323506"
    },
    {
      "type": "Feature",
      "properties": {
        "@id": "node/9894333470",
        "name": "Pork Chop Falls",
        "waterway": "waterfall"
      },
      "geometry": {
        "type": "Point",
        "coordinates": [
          -82.862055,
          34.9516519
        ]
      },
      "id": "node/9894333470"
    },
    {
      "type": "Feature",
      "properties": {
        "@id": "node/9938045738",
        "waterway": "waterfall"
      },
      "geometry": {
        "type": "Point",
        "coordinates": [
          -85.0385837,
          32.5029641
        ]
      },
      "id": "node/9938045738"
    },
    {
      "type": "Feature",
      "properties": {
        "@id": "node/9953389997",
        "waterway": "waterfall"
      },
      "geometry": {
        "type": "Point",
        "coordinates": [
          -81.6425502,
          30.4003316
        ]
      },
      "id": "node/9953389997"
    },
    {
      "type": "Feature",
      "properties": {
        "@id": "node/9953390000",
        "waterway": "waterfall"
      },
      "geometry": {
        "type": "Point",
        "coordinates": [
          -81.6448662,
          30.4040285
        ]
      },
      "id": "node/9953390000"
    },
    {
      "type": "Feature",
      "properties": {
        "@id": "node/10240728783",
        "name": "501 Falls",
        "waterway": "waterfall"
      },
      "geometry": {
        "type": "Point",
        "coordinates": [
          -83.5458115,
          34.9977234
        ]
      },
      "id": "node/10240728783"
    },
    {
      "type": "Feature",
      "properties": {
        "@id": "node/10607915499",
        "name": "Falling Water Sink",
        "waterway": "waterfall"
      },
      "geometry": {
        "type": "Point",
        "coordinates": [
          -85.530108,
          30.724981
        ]
      },
      "id": "node/10607915499"
    },
    {
      "type": "Feature",
      "properties": {
        "@id": "node/10945275628",
        "height": "27",
        "name": "Hemlock Falls",
        "source": "UTC Regional Resource Inventory",
        "waterway": "waterfall",
        "wikipedia": "en:Hemlock_Falls_(Cloudland_Canyon)"
      },
      "geometry": {
        "type": "Point",
        "coordinates": [
          -85.4827911,
          34.8351776
        ]
      },
      "id": "node/10945275628"
    },
    {
      "type": "Feature",
      "properties": {
        "@id": "node/11008123845",
        "name": "Cascade Falls",
        "waterway": "waterfall"
      },
      "geometry": {
        "type": "Point",
        "coordinates": [
          -84.6952224,
          32.8701566
        ]
      },
      "id": "node/11008123845"
    },
    {
      "type": "Feature",
      "properties": {
        "@id": "node/11490213352",
        "name": "Prince Cove Falls",
        "waterway": "waterfall"
      },
      "geometry": {
        "type": "Point",
        "coordinates": [
          -82.8779246,
          34.9942941
        ]
      },
      "id": "node/11490213352"
    },
    {
      "type": "Feature",
      "properties": {
        "@id": "node/11532675519",
        "waterway": "waterfall"
      },
      "geometry": {
        "type": "Point",
        "coordinates": [
          -83.1332022,
          34.7895418
        ]
      },
      "id": "node/11532675519"
    },
    {
      "type": "Feature",
      "properties": {
        "@id": "node/11550689515",
        "waterway": "waterfall"
      },
      "geometry": {
        "type": "Point",
        "coordinates": [
          -83.1239118,
          34.8105713
        ]
      },
      "id": "node/11550689515"
    },
    {
      "type": "Feature",
      "properties": {
        "@id": "node/11659862175",
        "waterway": "waterfall"
      },
      "geometry": {
        "type": "Point",
        "coordinates": [
          -84.7444195,
          33.5136988
        ]
      },
      "id": "node/11659862175"
    },
    {
      "type": "Feature",
      "properties": {
        "@id": "node/11774624494",
        "name": "DeSoto Falls",
        "waterway": "waterfall",
        "wikidata": "Q38622",
        "wikipedia": "en:DeSoto Falls (Alabama)"
      },
      "geometry": {
        "type": "Point",
        "coordinates": [
          -85.5907225,
          34.5488114
        ]
      },
      "id": "node/11774624494"
    },
    {
      "type": "Feature",
      "properties": {
        "@id": "node/11988960352",
        "name": "Saranac Lake Waterfall",
        "waterway": "waterfall"
      },
      "geometry": {
        "type": "Point",
        "coordinates": [
          -81.8651237,
          34.9888698
        ]
      },
      "id": "node/11988960352"
    },
    {
      "type": "Feature",
      "properties": {
        "@id": "node/12062024230",
        "name": "Vickery Creek Falls",
        "waterway": "waterfall"
      },
      "geometry": {
        "type": "Point",
        "coordinates": [
          -84.3552327,
          34.0132327
        ]
      },
      "id": "node/12062024230"
    },
    {
      "type": "Feature",
      "properties": {
        "@id": "node/12482321612",
        "name": "Snider Falls",
        "waterway": "waterfall"
      },
      "geometry": {
        "type": "Point",
        "coordinates": [
          -83.1922062,
          34.8901614
        ]
      },
      "id": "node/12482321612"
    },
    {
      "type": "Feature",
      "properties": {
        "@id": "node/12697626898",
        "height": "2",
        "waterway": "waterfall"
      },
      "geometry": {
        "type": "Point",
        "coordinates": [
          -84.3481714,
          33.9240116
        ]
      },
      "id": "node/12697626898"
    },
    {
      "type": "Feature",
      "properties": {
        "@id": "node/12707734651",
        "name": "Lower Garrett Branch Falls",
        "waterway": "waterfall"
      },
      "geometry": {
        "type": "Point",
        "coordinates": [
          -83.7673564,
          34.8406011
        ]
      },
      "id": "node/12707734651"
    },
    {
      "type": "Feature",
      "properties": {
        "@id": "node/13002149277",
        "name": "High Shoals Falls",
        "waterway": "waterfall"
      },
      "geometry": {
        "type": "Point",
        "coordinates": [
          -84.893604,
          33.9834405
        ]
      },
      "id": "node/13002149277"
    },
    {
      "type": "Feature",
      "properties": {
        "@id": "node/13115590708",
        "intermittent": "no",
        "waterway": "waterfall"
      },
      "geometry": {
        "type": "Point",
        "coordinates": [
          -84.2283566,
          33.8632598
        ]
      },
      "id": "node/13115590708"
    },
    {
      "type": "Feature",
      "properties": {
        "@id": "node/13277709197",
        "waterway": "waterfall"
      },
      "geometry": {
        "type": "Point",
        "coordinates": [
          -83.4772291,
          34.7681395
        ]
      },
      "id": "node/13277709197"
    },
    {
      "type": "Feature",
      "properties": {
        "@id": "node/13500733922",
        "waterway": "waterfall"
      },
      "geometry": {
        "type": "Point",
        "coordinates": [
          -83.6880817,
          32.5497539
        ]
      },
      "id": "node/13500733922"
    },
    {
      "type": "Feature",
      "properties": {
        "@id": "node/13732830201",
        "waterway": "waterfall"
      },
      "geometry": {
        "type": "Point",
        "coordinates": [
          -83.3525892,
          34.8838818
        ]
      },
      "id": "node/13732830201"
    },
    {
      "type": "Feature",
      "properties": {
        "@id": "node/13826220558",
        "waterway": "waterfall"
      },
      "geometry": {
        "type": "Point",
        "coordinates": [
          -83.4007505,
          33.8759464
        ]
      },
      "id": "node/13826220558"
    },
    {
      "type": "Feature",
      "properties": {
        "@id": "node/13826234596",
        "waterway": "waterfall"
      },
      "geometry": {
        "type": "Point",
        "coordinates": [
          -83.0913686,
          34.9286594
        ]
      },
      "id": "node/13826234596"
    },
    {
      "type": "Feature",
      "properties": {
        "@id": "node/13916781593",
        "waterway": "waterfall"
      },
      "geometry": {
        "type": "Point",
        "coordinates": [
          -84.162429,
          34.2056237
        ]
      },
      "id": "node/13916781593"
    }
  ]
}