{
  "type": "FeatureCollection",
  "generator": "overpass-turbo",
  "copyright": "The data included in this document is from www.openstreetmap.org. The data is made available under ODbL.",
  "timestamp": "2026-06-27T22:31:37Z",
  "features": [
    {
      "type": "Feature",
      "properties": {
        "@id": "node/154170738",
        "highway": "trailhead",
        "name": "Mendota Trail Trailhead"
      },
      "geometry": {
        "type": "Point",
        "coordinates": [
          -82.3084999,
          36.7040096
        ]
      },
      "id": "node/154170738"
    },
    {
      "type": "Feature",
      "properties": {
        "@id": "node/163086043",
        "highway": "trailhead",
        "name": "Peabody Trailhead"
      },
      "geometry": {
        "type": "Point",
        "coordinates": [
          -83.591862,
          37.140586
        ]
      },
      "id": "node/163086043"
    },
    {
      "type": "Feature",
      "properties": {
        "@id": "node/163143025",
        "highway": "trailhead",
        "name": "Bear Creek Trailhead"
      },
      "geometry": {
        "type": "Point",
        "coordinates": [
          -83.5337973,
          37.0208122
        ]
      },
      "id": "node/163143025"
    },
    {
      "type": "Feature",
      "properties": {
        "@id": "node/164985972",
        "highway": "trailhead",
        "name": "Swamp Branch Trailhead"
      },
      "geometry": {
        "type": "Point",
        "coordinates": [
          -82.9067882,
          37.7378803
        ]
      },
      "id": "node/164985972"
    },
    {
      "type": "Feature",
      "properties": {
        "@id": "node/165082648",
        "highway": "trailhead"
      },
      "geometry": {
        "type": "Point",
        "coordinates": [
          -85.753524,
          38.0849186
        ]
      },
      "id": "node/165082648"
    },
    {
      "type": "Feature",
      "properties": {
        "@id": "node/165544760",
        "highway": "trailhead",
        "name": "Rockcastle Connector Trail #401A"
      },
      "geometry": {
        "type": "Point",
        "coordinates": [
          -84.3207756,
          37.0276636
        ]
      },
      "id": "node/165544760"
    },
    {
      "type": "Feature",
      "properties": {
        "@id": "node/166333441",
        "highway": "trailhead",
        "name": "Swain Ridge Trailhead"
      },
      "geometry": {
        "type": "Point",
        "coordinates": [
          -84.423605,
          36.909117
        ]
      },
      "id": "node/166333441"
    },
    {
      "type": "Feature",
      "properties": {
        "@id": "node/166336771",
        "highway": "trailhead",
        "name": "Middle Ridge Trailhead"
      },
      "geometry": {
        "type": "Point",
        "coordinates": [
          -84.4833625,
          36.868973
        ]
      },
      "id": "node/166336771"
    },
    {
      "type": "Feature",
      "properties": {
        "@id": "node/166515919",
        "access": "yes",
        "highway": "trailhead",
        "name": "Jane Beshear Trailhead"
      },
      "geometry": {
        "type": "Point",
        "coordinates": [
          -83.0310789,
          37.6804595
        ]
      },
      "id": "node/166515919"
    },
    {
      "type": "Feature",
      "properties": {
        "@id": "node/167794137",
        "highway": "trailhead",
        "name": "Nathan McClure Trail #530"
      },
      "geometry": {
        "type": "Point",
        "coordinates": [
          -84.3987966,
          36.9631522
        ]
      },
      "id": "node/167794137"
    },
    {
      "type": "Feature",
      "properties": {
        "@id": "node/167810162",
        "highway": "trailhead",
        "name": "Rockcastle Narrows Trail #503"
      },
      "geometry": {
        "type": "Point",
        "coordinates": [
          -84.3163808,
          37.0256235
        ]
      },
      "id": "node/167810162"
    },
    {
      "type": "Feature",
      "properties": {
        "@id": "node/167810223",
        "highway": "trailhead",
        "name": "Bee Rock Loop #529"
      },
      "geometry": {
        "type": "Point",
        "coordinates": [
          -84.325159,
          37.029656
        ]
      },
      "id": "node/167810223"
    },
    {
      "type": "Feature",
      "properties": {
        "@id": "node/167886497",
        "highway": "trailhead",
        "name": "Nathan McClure Trail #530"
      },
      "geometry": {
        "type": "Point",
        "coordinates": [
          -84.3591611,
          37.0159564
        ]
      },
      "id": "node/167886497"
    },
    {
      "type": "Feature",
      "properties": {
        "@id": "node/168030375",
        "highway": "trailhead",
        "name": "Alpine Trail #520"
      },
      "geometry": {
        "type": "Point",
        "coordinates": [
          -84.5166228,
          36.9156118
        ]
      },
      "id": "node/168030375"
    },
    {
      "type": "Feature",
      "properties": {
        "@id": "node/168919184",
        "fee": "no",
        "highway": "trailhead",
        "name": "Dog Slaughter Falls Trailhead (Lower)"
      },
      "geometry": {
        "type": "Point",
        "coordinates": [
          -84.2998243,
          36.8593766
        ]
      },
      "id": "node/168919184"
    },
    {
      "type": "Feature",
      "properties": {
        "@id": "node/169106225",
        "highway": "trailhead",
        "name": "Bark Camp Trail #413"
      },
      "geometry": {
        "type": "Point",
        "coordinates": [
          -84.281083,
          36.904399
        ]
      },
      "id": "node/169106225"
    },
    {
      "type": "Feature",
      "properties": {
        "@id": "node/197410241",
        "highway": "trailhead",
        "name": "89"
      },
      "geometry": {
        "type": "Point",
        "coordinates": [
          -84.4122957,
          39.1343058
        ]
      },
      "id": "node/197410241"
    },
    {
      "type": "Feature",
      "properties": {
        "@id": "node/198054198",
        "highway": "trailhead",
        "name": "Paddle Creek Horse Camp"
      },
      "geometry": {
        "type": "Point",
        "coordinates": [
          -82.5819047,
          38.6304112
        ]
      },
      "id": "node/198054198"
    },
    {
      "type": "Feature",
      "properties": {
        "@id": "node/237213889",
        "highway": "trailhead",
        "name": "Cross Country Trailhead"
      },
      "geometry": {
        "type": "Point",
        "coordinates": [
          -89.3462781,
          37.4890238
        ]
      },
      "id": "node/237213889"
    },
    {
      "type": "Feature",
      "properties": {
        "@id": "node/293329657",
        "fee": "no",
        "highway": "trailhead",
        "name": "Saddle Dam Trailhead",
        "operator": "USACE"
      },
      "geometry": {
        "type": "Point",
        "coordinates": [
          -84.144987,
          39.03715
        ]
      },
      "id": "node/293329657"
    },
    {
      "type": "Feature",
      "properties": {
        "@id": "node/1422672303",
        "highway": "trailhead",
        "name": "Avoca Trailhead",
        "operator": "Great Parks of Hamilton County",
        "operator:wikidata": "Q19863721"
      },
      "geometry": {
        "type": "Point",
        "coordinates": [
          -84.3415456,
          39.1393035
        ]
      },
      "id": "node/1422672303"
    },
    {
      "type": "Feature",
      "properties": {
        "@id": "node/1666925576",
        "amenity": "parking",
        "highway": "trailhead",
        "name": "New Chapel Trailhead for Knobstone Trail"
      },
      "geometry": {
        "type": "Point",
        "coordinates": [
          -85.8730586,
          38.5762805
        ]
      },
      "id": "node/1666925576"
    },
    {
      "type": "Feature",
      "properties": {
        "@id": "node/1668188957",
        "access": "yes",
        "highway": "trailhead",
        "name": "Kintner Road Disabled Hunter Trail",
        "operator": "Indiana Department of Natural Resources"
      },
      "geometry": {
        "type": "Point",
        "coordinates": [
          -86.2423705,
          38.184021
        ]
      },
      "id": "node/1668188957"
    },
    {
      "type": "Feature",
      "properties": {
        "@id": "node/1787715049",
        "highway": "trailhead"
      },
      "geometry": {
        "type": "Point",
        "coordinates": [
          -85.7765606,
          38.0850789
        ]
      },
      "id": "node/1787715049"
    },
    {
      "type": "Feature",
      "properties": {
        "@id": "node/1787741870",
        "highway": "trailhead"
      },
      "geometry": {
        "type": "Point",
        "coordinates": [
          -85.7719284,
          38.0865052
        ]
      },
      "id": "node/1787741870"
    },
    {
      "type": "Feature",
      "properties": {
        "@id": "node/2071246108",
        "highway": "trailhead",
        "name": "Newtown Trailhead",
        "operator": "Great Parks of Hamilton County",
        "operator:wikidata": "Q19863721"
      },
      "geometry": {
        "type": "Point",
        "coordinates": [
          -84.359365,
          39.1319764
        ]
      },
      "id": "node/2071246108"
    },
    {
      "type": "Feature",
      "properties": {
        "@id": "node/2125929653",
        "highway": "trailhead"
      },
      "geometry": {
        "type": "Point",
        "coordinates": [
          -84.1601083,
          39.0196174
        ]
      },
      "id": "node/2125929653"
    },
    {
      "type": "Feature",
      "properties": {
        "@id": "node/2126256110",
        "highway": "trailhead",
        "name": "South Trailhead",
        "ref_name": "Buckeye Trail (Williamsburg) Point 17"
      },
      "geometry": {
        "type": "Point",
        "coordinates": [
          -84.1420659,
          39.0067207
        ]
      },
      "id": "node/2126256110"
    },
    {
      "type": "Feature",
      "properties": {
        "@id": "node/2146140849",
        "highway": "trailhead",
        "information": "guidepost",
        "tourism": "information"
      },
      "geometry": {
        "type": "Point",
        "coordinates": [
          -84.4306646,
          39.1112672
        ]
      },
      "id": "node/2146140849"
    },
    {
      "type": "Feature",
      "properties": {
        "@id": "node/2272386629",
        "description": "Trail entrance",
        "highway": "trailhead"
      },
      "geometry": {
        "type": "Point",
        "coordinates": [
          -84.7827744,
          39.0846998
        ]
      },
      "id": "node/2272386629"
    },
    {
      "type": "Feature",
      "properties": {
        "@id": "node/2921330711",
        "highway": "trailhead",
        "name": "Harmony Trailhead",
        "source": "GPS"
      },
      "geometry": {
        "type": "Point",
        "coordinates": [
          -89.0279326,
          37.7202658
        ]
      },
      "id": "node/2921330711"
    },
    {
      "type": "Feature",
      "properties": {
        "@id": "node/2921433535",
        "highway": "trailhead",
        "name": "Spillway Road Ponds Trailhead"
      },
      "geometry": {
        "type": "Point",
        "coordinates": [
          -89.1317535,
          37.7041049
        ]
      },
      "id": "node/2921433535"
    },
    {
      "type": "Feature",
      "properties": {
        "@id": "node/3074050931",
        "highway": "trailhead",
        "name": "North/South Trail Head (North, West) at Land Between The Lakes",
        "phone": "+1-270-924-2000",
        "website": "https://www.landbetweenthelakes.us/seendo/trails/hike-bike-trails/"
      },
      "geometry": {
        "type": "Point",
        "coordinates": [
          -88.1980827,
          36.9707001
        ]
      },
      "id": "node/3074050931"
    },
    {
      "type": "Feature",
      "properties": {
        "@id": "node/3078216855",
        "highway": "trailhead",
        "name": "Canal Loop Trail Trailhead",
        "phone": "+1-270-924-2000",
        "website": "https://www.landbetweenthelakes.us/seendo/trails/hike-bike-trails/"
      },
      "geometry": {
        "type": "Point",
        "coordinates": [
          -88.2225178,
          36.9865819
        ]
      },
      "id": "node/3078216855"
    },
    {
      "type": "Feature",
      "properties": {
        "@id": "node/3338948949",
        "highway": "trailhead",
        "name": "California Trailhead",
        "operator": "Great Parks of Hamilton County",
        "operator:wikidata": "Q19863721"
      },
      "geometry": {
        "type": "Point",
        "coordinates": [
          -84.399397,
          39.1104132
        ]
      },
      "id": "node/3338948949"
    },
    {
      "type": "Feature",
      "properties": {
        "@id": "node/3382913312",
        "highway": "trailhead",
        "name": "Benham Hill Trailhead"
      },
      "geometry": {
        "type": "Point",
        "coordinates": [
          -88.4740882,
          37.5097104
        ]
      },
      "id": "node/3382913312"
    },
    {
      "type": "Feature",
      "properties": {
        "@id": "node/3437988746",
        "fee": "no",
        "highway": "trailhead",
        "name": "Anglin Falls Trailhead",
        "parking": "surface"
      },
      "geometry": {
        "type": "Point",
        "coordinates": [
          -84.2264052,
          37.4934248
        ]
      },
      "id": "node/3437988746"
    },
    {
      "type": "Feature",
      "properties": {
        "@id": "node/3615495256",
        "highway": "trailhead"
      },
      "geometry": {
        "type": "Point",
        "coordinates": [
          -85.7601341,
          38.0766696
        ]
      },
      "id": "node/3615495256"
    },
    {
      "type": "Feature",
      "properties": {
        "@id": "node/3615495259",
        "highway": "trailhead"
      },
      "geometry": {
        "type": "Point",
        "coordinates": [
          -85.7601581,
          38.0771164
        ]
      },
      "id": "node/3615495259"
    },
    {
      "type": "Feature",
      "properties": {
        "@id": "node/3677063079",
        "access": "permissive",
        "highway": "trailhead",
        "name": "West Barton Trail",
        "operator": "Berea College Forestry"
      },
      "geometry": {
        "type": "Point",
        "coordinates": [
          -84.2517631,
          37.5625764
        ]
      },
      "id": "node/3677063079"
    },
    {
      "type": "Feature",
      "properties": {
        "@id": "node/3771330409",
        "highway": "trailhead"
      },
      "geometry": {
        "type": "Point",
        "coordinates": [
          -85.7759661,
          38.0846372
        ]
      },
      "id": "node/3771330409"
    },
    {
      "type": "Feature",
      "properties": {
        "@id": "node/3819866835",
        "highway": "trailhead"
      },
      "geometry": {
        "type": "Point",
        "coordinates": [
          -84.2403451,
          37.1627221
        ]
      },
      "id": "node/3819866835"
    },
    {
      "type": "Feature",
      "properties": {
        "@id": "node/3819887545",
        "highway": "trailhead",
        "name": "Dog Slaughter Falls Trailhead (Upper) CLOSED"
      },
      "geometry": {
        "type": "Point",
        "coordinates": [
          -84.2727757,
          36.848733
        ]
      },
      "id": "node/3819887545"
    },
    {
      "type": "Feature",
      "properties": {
        "@id": "node/4075983535",
        "highway": "trailhead"
      },
      "geometry": {
        "type": "Point",
        "coordinates": [
          -88.0013359,
          36.739231
        ]
      },
      "id": "node/4075983535"
    },
    {
      "type": "Feature",
      "properties": {
        "@id": "node/4232507401",
        "highway": "trailhead",
        "name": "Newtown Trailhead",
        "operator": "Great Parks of Hamilton County",
        "operator:wikidata": "Q19863721"
      },
      "geometry": {
        "type": "Point",
        "coordinates": [
          -84.358383,
          39.1323438
        ]
      },
      "id": "node/4232507401"
    },
    {
      "type": "Feature",
      "properties": {
        "@id": "node/4548720031",
        "highway": "trailhead"
      },
      "geometry": {
        "type": "Point",
        "coordinates": [
          -84.0808627,
          38.993185
        ]
      },
      "id": "node/4548720031"
    },
    {
      "type": "Feature",
      "properties": {
        "@id": "node/4548720397",
        "highway": "trailhead"
      },
      "geometry": {
        "type": "Point",
        "coordinates": [
          -84.1508577,
          39.0307898
        ]
      },
      "id": "node/4548720397"
    },
    {
      "type": "Feature",
      "properties": {
        "@id": "node/5006277770",
        "highway": "trailhead",
        "name": "Garden of the Gods trailhead"
      },
      "geometry": {
        "type": "Point",
        "coordinates": [
          -88.3846947,
          37.6049169
        ]
      },
      "id": "node/5006277770"
    },
    {
      "type": "Feature",
      "properties": {
        "@id": "node/5075226265",
        "highway": "trailhead",
        "name": "Rim Rock"
      },
      "geometry": {
        "type": "Point",
        "coordinates": [
          -88.2783928,
          37.602548
        ]
      },
      "id": "node/5075226265"
    },
    {
      "type": "Feature",
      "properties": {
        "@id": "node/5075253885",
        "amenity": "parking",
        "highway": "trailhead",
        "name": "Rim Rock National Recreation Trailhead",
        "website": "https://www.fs.fed.us/visit/destination/ox-lot-cave-rim-rock-national-recreation-trail"
      },
      "geometry": {
        "type": "Point",
        "coordinates": [
          -88.2783328,
          37.6021358
        ]
      },
      "id": "node/5075253885"
    },
    {
      "type": "Feature",
      "properties": {
        "@id": "node/5104199355",
        "highway": "trailhead",
        "name": "Bluegrass Horse Trailhead"
      },
      "geometry": {
        "type": "Point",
        "coordinates": [
          -82.5577344,
          38.6180413
        ]
      },
      "id": "node/5104199355"
    },
    {
      "type": "Feature",
      "properties": {
        "@id": "node/5104298430",
        "highway": "trailhead",
        "name": "Sand Hill Trailhead"
      },
      "geometry": {
        "type": "Point",
        "coordinates": [
          -82.6089891,
          38.6116824
        ]
      },
      "id": "node/5104298430"
    },
    {
      "type": "Feature",
      "properties": {
        "@id": "node/5491543384",
        "highway": "trailhead",
        "name": "Superior TH"
      },
      "geometry": {
        "type": "Point",
        "coordinates": [
          -82.6918916,
          38.6744642
        ]
      },
      "id": "node/5491543384"
    },
    {
      "type": "Feature",
      "properties": {
        "@id": "node/5494170606",
        "highway": "trailhead",
        "name": "Hanging Rock TH"
      },
      "geometry": {
        "type": "Point",
        "coordinates": [
          -82.7243601,
          38.5809283
        ]
      },
      "id": "node/5494170606"
    },
    {
      "type": "Feature",
      "properties": {
        "@id": "node/5494364467",
        "highway": "trailhead",
        "name": "Wolcott TH"
      },
      "geometry": {
        "type": "Point",
        "coordinates": [
          -82.7124177,
          38.7084193
        ]
      },
      "id": "node/5494364467"
    },
    {
      "type": "Feature",
      "properties": {
        "@id": "node/5494540302",
        "highway": "trailhead",
        "name": "Lyra TH"
      },
      "geometry": {
        "type": "Point",
        "coordinates": [
          -82.7304653,
          38.7380379
        ]
      },
      "id": "node/5494540302"
    },
    {
      "type": "Feature",
      "properties": {
        "@id": "node/5494545583",
        "highway": "trailhead",
        "name": "Telegraph TH"
      },
      "geometry": {
        "type": "Point",
        "coordinates": [
          -82.619615,
          38.7854958
        ]
      },
      "id": "node/5494545583"
    },
    {
      "type": "Feature",
      "properties": {
        "@id": "node/5795978119",
        "highway": "trailhead"
      },
      "geometry": {
        "type": "Point",
        "coordinates": [
          -84.5266722,
          39.076764
        ]
      },
      "id": "node/5795978119"
    },
    {
      "type": "Feature",
      "properties": {
        "@id": "node/5991944146",
        "amenity": "parking",
        "highway": "trailhead",
        "name": "Limekin Springs Trail trailhead"
      },
      "geometry": {
        "type": "Point",
        "coordinates": [
          -89.117731,
          37.284302
        ]
      },
      "id": "node/5991944146"
    },
    {
      "type": "Feature",
      "properties": {
        "@id": "node/5994433582",
        "amenity": "parking",
        "highway": "trailhead",
        "name": "Wildcat Bluff Access Area Trailhead"
      },
      "geometry": {
        "type": "Point",
        "coordinates": [
          -88.9284488,
          37.3763179
        ]
      },
      "id": "node/5994433582"
    },
    {
      "type": "Feature",
      "properties": {
        "@id": "node/5994570761",
        "amenity": "parking",
        "highway": "trailhead",
        "name": "Cove Hollow Trailhead"
      },
      "geometry": {
        "type": "Point",
        "coordinates": [
          -89.2910744,
          37.6398705
        ]
      },
      "id": "node/5994570761"
    },
    {
      "type": "Feature",
      "properties": {
        "@id": "node/5999233022",
        "highway": "trailhead",
        "information": "guidepost",
        "name": "Indian Creek Trail trailhead",
        "tourism": "information"
      },
      "geometry": {
        "type": "Point",
        "coordinates": [
          -89.1814731,
          37.5988268
        ]
      },
      "id": "node/5999233022"
    },
    {
      "type": "Feature",
      "properties": {
        "@id": "node/5999233034",
        "highway": "trailhead",
        "information": "guidepost",
        "name": "Arrowwood Trail trailhead",
        "tourism": "information"
      },
      "geometry": {
        "type": "Point",
        "coordinates": [
          -89.1885361,
          37.6009243
        ]
      },
      "id": "node/5999233034"
    },
    {
      "type": "Feature",
      "properties": {
        "@id": "node/6006219375",
        "highway": "trailhead",
        "name": "Ozark Hills Trailhead"
      },
      "geometry": {
        "type": "Point",
        "coordinates": [
          -89.3440859,
          37.4847219
        ]
      },
      "id": "node/6006219375"
    },
    {
      "type": "Feature",
      "properties": {
        "@id": "node/6028797060",
        "highway": "trailhead",
        "information": "map",
        "tourism": "information"
      },
      "geometry": {
        "type": "Point",
        "coordinates": [
          -88.975777,
          37.5344777
        ]
      },
      "id": "node/6028797060"
    },
    {
      "type": "Feature",
      "properties": {
        "@id": "node/6031111317",
        "highway": "trailhead",
        "information": "guidepost",
        "name": "Rebman's Trail",
        "tourism": "information"
      },
      "geometry": {
        "type": "Point",
        "coordinates": [
          -88.9801377,
          37.5432333
        ]
      },
      "id": "node/6031111317"
    },
    {
      "type": "Feature",
      "properties": {
        "@id": "node/6031124555",
        "highway": "trailhead",
        "information": "guidepost",
        "name": "Hawk's Cave Trailhead",
        "tourism": "information"
      },
      "geometry": {
        "type": "Point",
        "coordinates": [
          -88.980471,
          37.5430848
        ]
      },
      "id": "node/6031124555"
    },
    {
      "type": "Feature",
      "properties": {
        "@id": "node/6133760957",
        "highway": "trailhead",
        "name": "Twin Bridges Trailhead",
        "ref_name": "Buckeye Trail (Williamsburg) Point 11"
      },
      "geometry": {
        "type": "Point",
        "coordinates": [
          -84.0843576,
          39.0213566
        ]
      },
      "id": "node/6133760957"
    },
    {
      "type": "Feature",
      "properties": {
        "@id": "node/6379168302",
        "description": "An easy hike with a round-trip distance of 0.75-mile. The trail leads to a 100-foot tall intermittent waterfall.",
        "highway": "trailhead",
        "information": "map;guidepost",
        "name": "Big Rocky Hollow Trailhead",
        "tourism": "information"
      },
      "geometry": {
        "type": "Point",
        "coordinates": [
          -88.9796377,
          37.5428549
        ]
      },
      "id": "node/6379168302"
    },
    {
      "type": "Feature",
      "properties": {
        "@id": "node/6548704311",
        "highway": "trailhead",
        "name": "Shawnee Day Hike Trail",
        "operator": "Ohio Department of Natural Resources"
      },
      "geometry": {
        "type": "Point",
        "coordinates": [
          -83.1867173,
          38.7328593
        ]
      },
      "id": "node/6548704311"
    },
    {
      "type": "Feature",
      "properties": {
        "@id": "node/6548706436",
        "highway": "trailhead",
        "name": "Shawnee Backpack Trail",
        "operator": "Ohio Department of Natural Resources",
        "ref_name": "Buckeye Trail (Shawnee) Point 14"
      },
      "geometry": {
        "type": "Point",
        "coordinates": [
          -83.1974521,
          38.7417786
        ]
      },
      "id": "node/6548706436"
    },
    {
      "type": "Feature",
      "properties": {
        "@id": "node/7099296087",
        "highway": "trailhead"
      },
      "geometry": {
        "type": "Point",
        "coordinates": [
          -84.6791296,
          38.9378988
        ]
      },
      "id": "node/7099296087"
    },
    {
      "type": "Feature",
      "properties": {
        "@id": "node/7099296091",
        "highway": "trailhead"
      },
      "geometry": {
        "type": "Point",
        "coordinates": [
          -84.6785046,
          38.9379864
        ]
      },
      "id": "node/7099296091"
    },
    {
      "type": "Feature",
      "properties": {
        "@id": "node/7099296092",
        "highway": "trailhead"
      },
      "geometry": {
        "type": "Point",
        "coordinates": [
          -84.678349,
          38.9380136
        ]
      },
      "id": "node/7099296092"
    },
    {
      "type": "Feature",
      "properties": {
        "@id": "node/7477578686",
        "fee": "no",
        "highway": "trailhead",
        "name": "Lake Trail",
        "operator": "Missouri State Parks"
      },
      "geometry": {
        "type": "Point",
        "coordinates": [
          -89.4849794,
          37.4547874
        ]
      },
      "id": "node/7477578686"
    },
    {
      "type": "Feature",
      "properties": {
        "@id": "node/7650594993",
        "fee": "no",
        "highway": "trailhead",
        "name": "Boardwalk Trail",
        "operator": "Missouri State Parks"
      },
      "geometry": {
        "type": "Point",
        "coordinates": [
          -89.2879667,
          36.6439833
        ]
      },
      "id": "node/7650594993"
    },
    {
      "type": "Feature",
      "properties": {
        "@id": "node/7650595015",
        "fee": "no",
        "highway": "trailhead",
        "name": "Bottomland Trail",
        "operator": "Missouri State Parks"
      },
      "geometry": {
        "type": "Point",
        "coordinates": [
          -89.2904333,
          36.6411333
        ]
      },
      "id": "node/7650595015"
    },
    {
      "type": "Feature",
      "properties": {
        "@id": "node/7650595138",
        "fee": "no",
        "highway": "trailhead",
        "name": "Cypress Trail",
        "operator": "Missouri State Parks"
      },
      "geometry": {
        "type": "Point",
        "coordinates": [
          -89.291187,
          36.6414397
        ]
      },
      "id": "node/7650595138"
    },
    {
      "type": "Feature",
      "properties": {
        "@id": "node/7650595200",
        "fee": "no",
        "highway": "trailhead",
        "name": "Bottomland Trail",
        "operator": "Missouri State Parks"
      },
      "geometry": {
        "type": "Point",
        "coordinates": [
          -89.2870344,
          36.6440575
        ]
      },
      "id": "node/7650595200"
    },
    {
      "type": "Feature",
      "properties": {
        "@id": "node/7650621368",
        "highway": "trailhead",
        "name": "Deer Haven"
      },
      "geometry": {
        "type": "Point",
        "coordinates": [
          -84.8672175,
          38.1761722
        ]
      },
      "id": "node/7650621368"
    },
    {
      "type": "Feature",
      "properties": {
        "@id": "node/7674974765",
        "highway": "trailhead",
        "name": "Manslick Road Trailhead"
      },
      "geometry": {
        "type": "Point",
        "coordinates": [
          -85.7963301,
          38.1200603
        ]
      },
      "id": "node/7674974765"
    },
    {
      "type": "Feature",
      "properties": {
        "@id": "node/7677989668",
        "highway": "trailhead",
        "name": "Lannan Park Trailhead"
      },
      "geometry": {
        "type": "Point",
        "coordinates": [
          -85.7835922,
          38.2723277
        ]
      },
      "id": "node/7677989668"
    },
    {
      "type": "Feature",
      "properties": {
        "@id": "node/7678042864",
        "highway": "trailhead",
        "name": "Big Four Bridge Trailhead"
      },
      "geometry": {
        "type": "Point",
        "coordinates": [
          -85.7369174,
          38.2616171
        ]
      },
      "id": "node/7678042864"
    },
    {
      "type": "Feature",
      "properties": {
        "@id": "node/7678943843",
        "highway": "trailhead",
        "name": "Watson Lane Trailhead"
      },
      "geometry": {
        "type": "Point",
        "coordinates": [
          -85.9031799,
          38.0622168
        ]
      },
      "id": "node/7678943843"
    },
    {
      "type": "Feature",
      "properties": {
        "@id": "node/7678943869",
        "highway": "trailhead",
        "name": "Farnsley-Moremen Trailhead"
      },
      "geometry": {
        "type": "Point",
        "coordinates": [
          -85.8960492,
          38.0957732
        ]
      },
      "id": "node/7678943869"
    },
    {
      "type": "Feature",
      "properties": {
        "@id": "node/7680107859",
        "highway": "trailhead",
        "name": "Lamborne Boulevard Trailhead"
      },
      "geometry": {
        "type": "Point",
        "coordinates": [
          -85.8071351,
          38.1134864
        ]
      },
      "id": "node/7680107859"
    },
    {
      "type": "Feature",
      "properties": {
        "@id": "node/7844988407",
        "access": "yes",
        "amenity": "parking",
        "description": "Overnight parking is allowed: https://www.fs.usda.gov/recarea/shawnee/recreation/hiking/recarea/?recid=10685&actid=51",
        "fee": "no",
        "highway": "trailhead",
        "name": "Hitching Post Trailhead",
        "parking": "surface",
        "surface": "unpaved"
      },
      "geometry": {
        "type": "Point",
        "coordinates": [
          -88.4323336,
          37.5943873
        ]
      },
      "id": "node/7844988407"
    },
    {
      "type": "Feature",
      "properties": {
        "@id": "node/7906216171",
        "access": "yes",
        "bicycle": "no",
        "bin": "yes",
        "fee": "no",
        "foot": "designated",
        "highway": "trailhead",
        "horse": "designated",
        "motor_vehicle": "no",
        "name": "Chadwell Gap Trailhead",
        "operator": "National Park Service",
        "parking": "surface",
        "toilets": "no"
      },
      "geometry": {
        "type": "Point",
        "coordinates": [
          -83.4963727,
          36.6538439
        ]
      },
      "id": "node/7906216171"
    },
    {
      "type": "Feature",
      "properties": {
        "@id": "node/7906231661",
        "access": "yes",
        "bicycle": "no",
        "bin": "yes",
        "fee": "no",
        "foot": "designated",
        "highway": "trailhead",
        "horse": "no",
        "motor_vehicle": "no",
        "name": "Ewing Trail",
        "operator": "National Park Service",
        "parking": "surface",
        "toilets": "vault"
      },
      "geometry": {
        "type": "Point",
        "coordinates": [
          -83.4359942,
          36.6528509
        ]
      },
      "id": "node/7906231661"
    },
    {
      "type": "Feature",
      "properties": {
        "@id": "node/7918507771",
        "highway": "trailhead",
        "information": "guidepost",
        "tourism": "information"
      },
      "geometry": {
        "type": "Point",
        "coordinates": [
          -84.4302536,
          39.1109733
        ]
      },
      "id": "node/7918507771"
    },
    {
      "type": "Feature",
      "properties": {
        "@id": "node/7949204759",
        "description": "A steep trail that connects the park to the nearby town of Goreville. This 0.5-mile trail is moderately difficult.",
        "highway": "trailhead",
        "information": "guidepost",
        "name": "Goreville Boy Scout Trailhead;Goreville Boy Scout Trail",
        "tourism": "information"
      },
      "geometry": {
        "type": "Point",
        "coordinates": [
          -88.9803058,
          37.5433994
        ]
      },
      "id": "node/7949204759"
    },
    {
      "type": "Feature",
      "properties": {
        "@id": "node/8060505929",
        "fee": "no",
        "highway": "trailhead",
        "name": "Sheppard Point Trail",
        "operator": "Missouri State Parks"
      },
      "geometry": {
        "type": "Point",
        "coordinates": [
          -89.4667486,
          37.4449994
        ]
      },
      "id": "node/8060505929"
    },
    {
      "type": "Feature",
      "properties": {
        "@id": "node/8060527372",
        "fee": "no",
        "highway": "trailhead",
        "name": "Nature Trail",
        "operator": "Missouri State Parks"
      },
      "geometry": {
        "type": "Point",
        "coordinates": [
          -89.4811047,
          37.4390037
        ]
      },
      "id": "node/8060527372"
    },
    {
      "type": "Feature",
      "properties": {
        "@id": "node/8060547722",
        "fee": "no",
        "highway": "trailhead",
        "name": "Peewah Trail - TH2",
        "operator": "Missouri State Parks"
      },
      "geometry": {
        "type": "Point",
        "coordinates": [
          -89.4850333,
          37.4639333
        ]
      },
      "id": "node/8060547722"
    },
    {
      "type": "Feature",
      "properties": {
        "@id": "node/8060548085",
        "fee": "no",
        "highway": "trailhead",
        "name": "Peewah Trail - TH1",
        "operator": "Missouri State Parks"
      },
      "geometry": {
        "type": "Point",
        "coordinates": [
          -89.4880647,
          37.4563412
        ]
      },
      "id": "node/8060548085"
    },
    {
      "type": "Feature",
      "properties": {
        "@id": "node/8092213174",
        "highway": "trailhead",
        "name": "Sheltowee Trace Northern Terminus",
        "operator": "US Forest Service"
      },
      "geometry": {
        "type": "Point",
        "coordinates": [
          -83.4161072,
          38.385272
        ]
      },
      "id": "node/8092213174"
    },
    {
      "type": "Feature",
      "properties": {
        "@id": "node/8144157542",
        "highway": "trailhead"
      },
      "geometry": {
        "type": "Point",
        "coordinates": [
          -87.828141,
          38.3544723
        ]
      },
      "id": "node/8144157542"
    },
    {
      "type": "Feature",
      "properties": {
        "@id": "node/8203950249",
        "highway": "trailhead",
        "name": "Buffalo Mountain TH"
      },
      "geometry": {
        "type": "Point",
        "coordinates": [
          -82.2056856,
          37.6993044
        ]
      },
      "id": "node/8203950249"
    },
    {
      "type": "Feature",
      "properties": {
        "@id": "node/8204082751",
        "highway": "trailhead"
      },
      "geometry": {
        "type": "Point",
        "coordinates": [
          -83.1225271,
          38.3775516
        ]
      },
      "id": "node/8204082751"
    },
    {
      "type": "Feature",
      "properties": {
        "@id": "node/8530472046",
        "description": "Pats Loop Trail at Green River Lake",
        "highway": "trailhead",
        "name": "Trail Head",
        "operator": "Aaron Marples"
      },
      "geometry": {
        "type": "Point",
        "coordinates": [
          -85.3281687,
          37.2766193
        ]
      },
      "id": "node/8530472046"
    },
    {
      "type": "Feature",
      "properties": {
        "@id": "node/8617810255",
        "highway": "trailhead",
        "name": "Cumberland River Trail #2"
      },
      "geometry": {
        "type": "Point",
        "coordinates": [
          -84.3364799,
          36.8385325
        ]
      },
      "id": "node/8617810255"
    },
    {
      "type": "Feature",
      "properties": {
        "@id": "node/8922796669",
        "highway": "trailhead",
        "name": "Three Forks of Beaver Trailhead"
      },
      "geometry": {
        "type": "Point",
        "coordinates": [
          -84.4483902,
          36.907035
        ]
      },
      "id": "node/8922796669"
    },
    {
      "type": "Feature",
      "properties": {
        "@id": "node/8949005190",
        "highway": "trailhead"
      },
      "geometry": {
        "type": "Point",
        "coordinates": [
          -84.4553061,
          38.8233457
        ]
      },
      "id": "node/8949005190"
    },
    {
      "type": "Feature",
      "properties": {
        "@id": "node/8949005335",
        "highway": "trailhead"
      },
      "geometry": {
        "type": "Point",
        "coordinates": [
          -84.4556178,
          38.8233213
        ]
      },
      "id": "node/8949005335"
    },
    {
      "type": "Feature",
      "properties": {
        "@id": "node/9008723564",
        "highway": "trailhead",
        "name": "Ozark Hills Trailhead"
      },
      "geometry": {
        "type": "Point",
        "coordinates": [
          -89.3549972,
          37.4844391
        ]
      },
      "id": "node/9008723564"
    },
    {
      "type": "Feature",
      "properties": {
        "@id": "node/9008723604",
        "highway": "trailhead",
        "name": "CCC Heritage Trailhead"
      },
      "geometry": {
        "type": "Point",
        "coordinates": [
          -89.3579239,
          37.4787847
        ]
      },
      "id": "node/9008723604"
    },
    {
      "type": "Feature",
      "properties": {
        "@id": "node/9008723611",
        "highway": "trailhead",
        "name": "CCC Heritage Trailhead"
      },
      "geometry": {
        "type": "Point",
        "coordinates": [
          -89.3580198,
          37.4817665
        ]
      },
      "id": "node/9008723611"
    },
    {
      "type": "Feature",
      "properties": {
        "@id": "node/9187182791",
        "highway": "trailhead",
        "name": "Virginia Creeper Trail: Abingdon Trail Head"
      },
      "geometry": {
        "type": "Point",
        "coordinates": [
          -81.9713093,
          36.709011
        ]
      },
      "id": "node/9187182791"
    },
    {
      "type": "Feature",
      "properties": {
        "@id": "node/9435246574",
        "highway": "trailhead"
      },
      "geometry": {
        "type": "Point",
        "coordinates": [
          -85.7672079,
          38.084716
        ]
      },
      "id": "node/9435246574"
    },
    {
      "type": "Feature",
      "properties": {
        "@id": "node/9501887689",
        "access": "yes",
        "fee": "no",
        "highway": "trailhead",
        "name": "Toyota Trailhead",
        "operator": "Warrick Trails"
      },
      "geometry": {
        "type": "Point",
        "coordinates": [
          -87.3864558,
          37.9836375
        ]
      },
      "id": "node/9501887689"
    },
    {
      "type": "Feature",
      "properties": {
        "@id": "node/9917067016",
        "highway": "trailhead",
        "information": "guidepost",
        "ref": "T-299",
        "tourism": "information"
      },
      "geometry": {
        "type": "Point",
        "coordinates": [
          -84.4288463,
          39.1099126
        ]
      },
      "id": "node/9917067016"
    },
    {
      "type": "Feature",
      "properties": {
        "@id": "node/9939874432",
        "highway": "trailhead",
        "name": "Double Falls Trail"
      },
      "geometry": {
        "type": "Point",
        "coordinates": [
          -84.2886656,
          37.0753009
        ]
      },
      "id": "node/9939874432"
    },
    {
      "type": "Feature",
      "properties": {
        "@id": "node/10121947604",
        "highway": "trailhead",
        "name": "Sugar Creek Trailhead"
      },
      "geometry": {
        "type": "Point",
        "coordinates": [
          -83.4813792,
          37.1274148
        ]
      },
      "id": "node/10121947604"
    },
    {
      "type": "Feature",
      "properties": {
        "@id": "node/10141606746",
        "highway": "trailhead",
        "name": "Jenny's Creek Trailhead"
      },
      "geometry": {
        "type": "Point",
        "coordinates": [
          -82.8363637,
          37.7847507
        ]
      },
      "id": "node/10141606746"
    },
    {
      "type": "Feature",
      "properties": {
        "@id": "node/10653406989",
        "highway": "trailhead",
        "name": "Big Hollow Trailhead"
      },
      "geometry": {
        "type": "Point",
        "coordinates": [
          -86.1325917,
          37.213607
        ]
      },
      "id": "node/10653406989"
    },
    {
      "type": "Feature",
      "properties": {
        "@id": "node/11028542471",
        "highway": "trailhead"
      },
      "geometry": {
        "type": "Point",
        "coordinates": [
          -84.4126008,
          39.0542281
        ]
      },
      "id": "node/11028542471"
    },
    {
      "type": "Feature",
      "properties": {
        "@id": "node/11069960330",
        "highway": "trailhead",
        "name": "Michael E. Smith Park Trailhead"
      },
      "geometry": {
        "type": "Point",
        "coordinates": [
          -84.7677715,
          37.6343855
        ]
      },
      "id": "node/11069960330"
    },
    {
      "type": "Feature",
      "properties": {
        "@id": "node/11267458756",
        "access": "yes",
        "highway": "trailhead",
        "name": "River to River Trail - Alto Pass Crossing",
        "operator": "Village of Alto Pass"
      },
      "geometry": {
        "type": "Point",
        "coordinates": [
          -89.3173135,
          37.5698866
        ]
      },
      "id": "node/11267458756"
    },
    {
      "type": "Feature",
      "properties": {
        "@id": "node/11298373131",
        "highway": "trailhead",
        "information": "guidepost",
        "tourism": "information"
      },
      "geometry": {
        "type": "Point",
        "coordinates": [
          -84.4299413,
          39.1130297
        ]
      },
      "id": "node/11298373131"
    },
    {
      "type": "Feature",
      "properties": {
        "@id": "node/11390787265",
        "highway": "trailhead"
      },
      "geometry": {
        "type": "Point",
        "coordinates": [
          -86.9413933,
          38.1184601
        ]
      },
      "id": "node/11390787265"
    },
    {
      "type": "Feature",
      "properties": {
        "@id": "node/11609557333",
        "fee": "no",
        "highway": "trailhead",
        "name": "TH5"
      },
      "geometry": {
        "type": "Point",
        "coordinates": [
          -87.6696189,
          37.9589222
        ]
      },
      "id": "node/11609557333"
    },
    {
      "type": "Feature",
      "properties": {
        "@id": "node/11658710408",
        "fee": "no",
        "highway": "trailhead",
        "name": "TH3"
      },
      "geometry": {
        "type": "Point",
        "coordinates": [
          -87.6803032,
          37.9644656
        ]
      },
      "id": "node/11658710408"
    },
    {
      "type": "Feature",
      "properties": {
        "@id": "node/11754023382",
        "fee": "no",
        "highway": "trailhead",
        "name": "TH13"
      },
      "geometry": {
        "type": "Point",
        "coordinates": [
          -87.6777378,
          37.9562705
        ]
      },
      "id": "node/11754023382"
    },
    {
      "type": "Feature",
      "properties": {
        "@id": "node/11764705466",
        "fee": "no",
        "highway": "trailhead",
        "name": "TH14"
      },
      "geometry": {
        "type": "Point",
        "coordinates": [
          -87.6765212,
          37.9523147
        ]
      },
      "id": "node/11764705466"
    },
    {
      "type": "Feature",
      "properties": {
        "@id": "node/11764706458",
        "fee": "no",
        "highway": "trailhead",
        "name": "TH15"
      },
      "geometry": {
        "type": "Point",
        "coordinates": [
          -87.674546,
          37.9501163
        ]
      },
      "id": "node/11764706458"
    },
    {
      "type": "Feature",
      "properties": {
        "@id": "node/11823073589",
        "highway": "trailhead",
        "name": "Clover Road Trailhead"
      },
      "geometry": {
        "type": "Point",
        "coordinates": [
          -84.0924223,
          39.0059604
        ]
      },
      "id": "node/11823073589"
    },
    {
      "type": "Feature",
      "properties": {
        "@id": "node/11823073602",
        "highway": "trailhead"
      },
      "geometry": {
        "type": "Point",
        "coordinates": [
          -84.0765375,
          39.0000075
        ]
      },
      "id": "node/11823073602"
    },
    {
      "type": "Feature",
      "properties": {
        "@id": "node/11885082117",
        "access": "yes",
        "description": "Paved, offers view of small waterfall.",
        "highway": "trailhead",
        "name": "Buttermilk Falls Trailhead"
      },
      "geometry": {
        "type": "Point",
        "coordinates": [
          -86.1648755,
          38.0039485
        ]
      },
      "id": "node/11885082117"
    },
    {
      "type": "Feature",
      "properties": {
        "@id": "node/12037158539",
        "access": "yes",
        "highway": "trailhead",
        "name": "Tower Rock",
        "note": "In very low water, you can walk out to Tower Rock"
      },
      "geometry": {
        "type": "Point",
        "coordinates": [
          -89.5165621,
          37.6310659
        ]
      },
      "id": "node/12037158539"
    },
    {
      "type": "Feature",
      "properties": {
        "@id": "node/12056342622",
        "highway": "trailhead",
        "name": "Nathan McClure Trail #530"
      },
      "geometry": {
        "type": "Point",
        "coordinates": [
          -84.3616539,
          36.9750113
        ]
      },
      "id": "node/12056342622"
    },
    {
      "type": "Feature",
      "properties": {
        "@id": "node/12056382712",
        "highway": "trailhead",
        "name": "Scuttle Hole Trail #404"
      },
      "geometry": {
        "type": "Point",
        "coordinates": [
          -84.345999,
          36.9587985
        ]
      },
      "id": "node/12056382712"
    },
    {
      "type": "Feature",
      "properties": {
        "@id": "node/12056394905",
        "highway": "trailhead"
      },
      "geometry": {
        "type": "Point",
        "coordinates": [
          -84.3480457,
          36.9621552
        ]
      },
      "id": "node/12056394905"
    },
    {
      "type": "Feature",
      "properties": {
        "@id": "node/12120245627",
        "highway": "trailhead",
        "name": "Bee Rock Loop #529"
      },
      "geometry": {
        "type": "Point",
        "coordinates": [
          -84.3184497,
          37.0291247
        ]
      },
      "id": "node/12120245627"
    },
    {
      "type": "Feature",
      "properties": {
        "@id": "node/12195894305",
        "highway": "trailhead",
        "name": "Bowman Ridge Trailhead"
      },
      "geometry": {
        "type": "Point",
        "coordinates": [
          -84.4305643,
          36.921392
        ]
      },
      "id": "node/12195894305"
    },
    {
      "type": "Feature",
      "properties": {
        "@id": "node/12233691769",
        "highway": "trailhead",
        "name": "Flatwoods Trail #470"
      },
      "geometry": {
        "type": "Point",
        "coordinates": [
          -84.2088287,
          36.9580519
        ]
      },
      "id": "node/12233691769"
    },
    {
      "type": "Feature",
      "properties": {
        "@id": "node/12233691774",
        "highway": "trailhead",
        "name": "Flatwoods Trail #470"
      },
      "geometry": {
        "type": "Point",
        "coordinates": [
          -84.2080377,
          36.9534299
        ]
      },
      "id": "node/12233691774"
    },
    {
      "type": "Feature",
      "properties": {
        "@id": "node/12398675475",
        "highway": "trailhead",
        "name": "Johns Creek Trailhead"
      },
      "geometry": {
        "type": "Point",
        "coordinates": [
          -82.5964023,
          38.6597619
        ]
      },
      "id": "node/12398675475"
    },
    {
      "type": "Feature",
      "properties": {
        "@id": "node/12423567175",
        "highway": "trailhead",
        "name": "Goodwin (east)"
      },
      "geometry": {
        "type": "Point",
        "coordinates": [
          -89.3614867,
          37.5688089
        ]
      },
      "id": "node/12423567175"
    },
    {
      "type": "Feature",
      "properties": {
        "@id": "node/12459986220",
        "access": "yes",
        "highway": "trailhead",
        "name": "Blacks Run Road Trailhead",
        "operator": "The Nature Conservancy"
      },
      "geometry": {
        "type": "Point",
        "coordinates": [
          -83.4419645,
          38.751513
        ]
      },
      "id": "node/12459986220"
    },
    {
      "type": "Feature",
      "properties": {
        "@id": "node/12498978037",
        "highway": "trailhead"
      },
      "geometry": {
        "type": "Point",
        "coordinates": [
          -85.7301345,
          38.0845552
        ]
      },
      "id": "node/12498978037"
    },
    {
      "type": "Feature",
      "properties": {
        "@id": "node/12501017241",
        "highway": "trailhead"
      },
      "geometry": {
        "type": "Point",
        "coordinates": [
          -85.7403943,
          38.0795632
        ]
      },
      "id": "node/12501017241"
    },
    {
      "type": "Feature",
      "properties": {
        "@id": "node/12504431533",
        "highway": "trailhead"
      },
      "geometry": {
        "type": "Point",
        "coordinates": [
          -85.7670209,
          38.0852464
        ]
      },
      "id": "node/12504431533"
    },
    {
      "type": "Feature",
      "properties": {
        "@id": "node/12504555857",
        "highway": "trailhead"
      },
      "geometry": {
        "type": "Point",
        "coordinates": [
          -85.7675166,
          38.0850385
        ]
      },
      "id": "node/12504555857"
    },
    {
      "type": "Feature",
      "properties": {
        "@id": "node/12505081396",
        "highway": "trailhead"
      },
      "geometry": {
        "type": "Point",
        "coordinates": [
          -85.7621647,
          38.0744074
        ]
      },
      "id": "node/12505081396"
    },
    {
      "type": "Feature",
      "properties": {
        "@id": "node/12506983050",
        "highway": "trailhead"
      },
      "geometry": {
        "type": "Point",
        "coordinates": [
          -85.8424058,
          38.058859
        ]
      },
      "id": "node/12506983050"
    },
    {
      "type": "Feature",
      "properties": {
        "@id": "node/12506983074",
        "highway": "trailhead"
      },
      "geometry": {
        "type": "Point",
        "coordinates": [
          -85.8449958,
          38.0586384
        ]
      },
      "id": "node/12506983074"
    },
    {
      "type": "Feature",
      "properties": {
        "@id": "node/12549787996",
        "access": "yes",
        "charge": "5 USD",
        "fee": "yes",
        "highway": "trailhead",
        "name": "Fisherman's Loop Trailhead",
        "operator": "Virginia Department of Conservation and Recreation",
        "payment:cash": "yes"
      },
      "geometry": {
        "type": "Point",
        "coordinates": [
          -83.5215091,
          36.63023
        ]
      },
      "id": "node/12549787996"
    },
    {
      "type": "Feature",
      "properties": {
        "@id": "node/12550208084",
        "charge": "5 USD",
        "fee": "yes",
        "highway": "trailhead",
        "name": "Indian Ridge Trailhead",
        "operator": "Virginia Department of Conservation and Recreation",
        "payment:cash": "yes"
      },
      "geometry": {
        "type": "Point",
        "coordinates": [
          -83.5244137,
          36.6339827
        ]
      },
      "id": "node/12550208084"
    },
    {
      "type": "Feature",
      "properties": {
        "@id": "node/12594179476",
        "highway": "trailhead",
        "name": "White Pine"
      },
      "geometry": {
        "type": "Point",
        "coordinates": [
          -89.4269729,
          37.5416069
        ]
      },
      "id": "node/12594179476"
    },
    {
      "type": "Feature",
      "properties": {
        "@id": "node/12594179480",
        "highway": "trailhead",
        "name": "Goodwin (west)"
      },
      "geometry": {
        "type": "Point",
        "coordinates": [
          -89.4316596,
          37.5829891
        ]
      },
      "id": "node/12594179480"
    },
    {
      "type": "Feature",
      "properties": {
        "@id": "node/12594179482",
        "highway": "trailhead",
        "name": "Inspiration Point",
        "operator": "Forest Service"
      },
      "geometry": {
        "type": "Point",
        "coordinates": [
          -89.4359092,
          37.5855361
        ]
      },
      "id": "node/12594179482"
    },
    {
      "type": "Feature",
      "properties": {
        "@id": "node/12608746867",
        "highway": "trailhead",
        "name": "Crooked Tree"
      },
      "geometry": {
        "type": "Point",
        "coordinates": [
          -89.4370723,
          37.5616697
        ]
      },
      "id": "node/12608746867"
    },
    {
      "type": "Feature",
      "properties": {
        "@id": "node/12613321334",
        "fixme": "Needs how this connects to the Horse camp",
        "highway": "trailhead",
        "name": "Lower Camp",
        "note": "Forest Service GIS data ends at the boundary of the private horse camp.  I do not see how this connects to the camp"
      },
      "geometry": {
        "type": "Point",
        "coordinates": [
          -88.3326781,
          37.5980417
        ]
      },
      "id": "node/12613321334"
    },
    {
      "type": "Feature",
      "properties": {
        "@id": "node/12616263736",
        "access": "yes",
        "highway": "trailhead",
        "name": "Panther Den",
        "operator": "FS"
      },
      "geometry": {
        "type": "Point",
        "coordinates": [
          -89.0879962,
          37.5798743
        ]
      },
      "id": "node/12616263736"
    },
    {
      "type": "Feature",
      "properties": {
        "@id": "node/12646881102",
        "highway": "trailhead",
        "name": "Johnson Creek"
      },
      "geometry": {
        "type": "Point",
        "coordinates": [
          -89.5139261,
          37.8337014
        ]
      },
      "id": "node/12646881102"
    },
    {
      "type": "Feature",
      "properties": {
        "@id": "node/12646881103",
        "highway": "trailhead",
        "name": "Hidden Cove"
      },
      "geometry": {
        "type": "Point",
        "coordinates": [
          -89.498668,
          37.8170222
        ]
      },
      "id": "node/12646881103"
    },
    {
      "type": "Feature",
      "properties": {
        "@id": "node/12646881104",
        "highway": "trailhead",
        "name": "Buttermilk Hill"
      },
      "geometry": {
        "type": "Point",
        "coordinates": [
          -89.4731445,
          37.7844167
        ]
      },
      "id": "node/12646881104"
    },
    {
      "type": "Feature",
      "properties": {
        "@id": "node/12646881105",
        "highway": "trailhead",
        "name": "Greentree Reservoir"
      },
      "geometry": {
        "type": "Point",
        "coordinates": [
          -89.4620345,
          37.6745932
        ]
      },
      "id": "node/12646881105"
    },
    {
      "type": "Feature",
      "properties": {
        "@id": "node/12646881106",
        "highway": "trailhead",
        "name": "McCann Springs"
      },
      "geometry": {
        "type": "Point",
        "coordinates": [
          -89.4381686,
          37.5897718
        ]
      },
      "id": "node/12646881106"
    },
    {
      "type": "Feature",
      "properties": {
        "@id": "node/12646881107",
        "highway": "trailhead",
        "name": "Bald Knob South"
      },
      "geometry": {
        "type": "Point",
        "coordinates": [
          -89.3450586,
          37.5321056
        ]
      },
      "id": "node/12646881107"
    },
    {
      "type": "Feature",
      "properties": {
        "@id": "node/12646882865",
        "highway": "trailhead",
        "name": "Ripple Hollow"
      },
      "geometry": {
        "type": "Point",
        "coordinates": [
          -89.3343854,
          37.3276687
        ]
      },
      "id": "node/12646882865"
    },
    {
      "type": "Feature",
      "properties": {
        "@id": "node/12646882866",
        "highway": "trailhead",
        "name": "Horse Creek"
      },
      "geometry": {
        "type": "Point",
        "coordinates": [
          -89.3711007,
          37.3052779
        ]
      },
      "id": "node/12646882866"
    },
    {
      "type": "Feature",
      "properties": {
        "@id": "node/12646882867",
        "highway": "trailhead",
        "name": "Pamona Natural Bridge"
      },
      "geometry": {
        "type": "Point",
        "coordinates": [
          -89.343153,
          37.6483977
        ]
      },
      "id": "node/12646882867"
    },
    {
      "type": "Feature",
      "properties": {
        "@id": "node/12646882868",
        "highway": "trailhead",
        "name": "Cedar Lake"
      },
      "geometry": {
        "type": "Point",
        "coordinates": [
          -89.3116909,
          37.6234866
        ]
      },
      "id": "node/12646882868"
    },
    {
      "type": "Feature",
      "properties": {
        "@id": "node/12646882869",
        "highway": "trailhead",
        "name": "Gum Springs"
      },
      "geometry": {
        "type": "Point",
        "coordinates": [
          -88.7588863,
          37.496104
        ]
      },
      "id": "node/12646882869"
    },
    {
      "type": "Feature",
      "properties": {
        "@id": "node/12647733700",
        "highway": "trailhead",
        "name": "Kaolin Pond"
      },
      "geometry": {
        "type": "Point",
        "coordinates": [
          -89.3043204,
          37.512289
        ]
      },
      "id": "node/12647733700"
    },
    {
      "type": "Feature",
      "properties": {
        "@id": "node/12647771801",
        "highway": "trailhead",
        "name": "Lirley"
      },
      "geometry": {
        "type": "Point",
        "coordinates": [
          -89.2478541,
          37.6134518
        ]
      },
      "id": "node/12647771801"
    },
    {
      "type": "Feature",
      "properties": {
        "@id": "node/12647771802",
        "highway": "trailhead",
        "name": "Millstone Bluff"
      },
      "geometry": {
        "type": "Point",
        "coordinates": [
          -88.6876385,
          37.4666521
        ]
      },
      "id": "node/12647771802"
    },
    {
      "type": "Feature",
      "properties": {
        "@id": "node/12647771803",
        "highway": "trailhead",
        "name": "East Trig"
      },
      "geometry": {
        "type": "Point",
        "coordinates": [
          -88.7081099,
          37.498387
        ]
      },
      "id": "node/12647771803"
    },
    {
      "type": "Feature",
      "properties": {
        "@id": "node/12647771804",
        "highway": "trailhead",
        "name": "Jackson Falls"
      },
      "geometry": {
        "type": "Point",
        "coordinates": [
          -88.6820227,
          37.510096
        ]
      },
      "id": "node/12647771804"
    },
    {
      "type": "Feature",
      "properties": {
        "@id": "node/12647771805",
        "highway": "trailhead",
        "name": "Hunting Branch"
      },
      "geometry": {
        "type": "Point",
        "coordinates": [
          -88.6609915,
          37.5231351
        ]
      },
      "id": "node/12647771805"
    },
    {
      "type": "Feature",
      "properties": {
        "@id": "node/12647771806",
        "highway": "trailhead",
        "name": "Bell Smith Springs"
      },
      "geometry": {
        "type": "Point",
        "coordinates": [
          -88.656055,
          37.5186899
        ]
      },
      "id": "node/12647771806"
    },
    {
      "type": "Feature",
      "properties": {
        "@id": "node/12647771807",
        "highway": "trailhead",
        "name": "Burden Falls Wilderness"
      },
      "geometry": {
        "type": "Point",
        "coordinates": [
          -88.6423055,
          37.563582
        ]
      },
      "id": "node/12647771807"
    },
    {
      "type": "Feature",
      "properties": {
        "@id": "node/12647771813",
        "highway": "trailhead",
        "name": "Lusk Creek"
      },
      "geometry": {
        "type": "Point",
        "coordinates": [
          -88.5710227,
          37.5300808
        ]
      },
      "id": "node/12647771813"
    },
    {
      "type": "Feature",
      "properties": {
        "@id": "node/12647771814",
        "highway": "trailhead",
        "name": "Indian Kitchen"
      },
      "geometry": {
        "type": "Point",
        "coordinates": [
          -88.5605693,
          37.5062119
        ]
      },
      "id": "node/12647771814"
    },
    {
      "type": "Feature",
      "properties": {
        "@id": "node/12647771815",
        "highway": "trailhead",
        "name": "Hitching Post"
      },
      "geometry": {
        "type": "Point",
        "coordinates": [
          -88.4316236,
          37.5941884
        ]
      },
      "id": "node/12647771815"
    },
    {
      "type": "Feature",
      "properties": {
        "@id": "node/12647771816",
        "highway": "trailhead",
        "name": "GOG Anvil Rock"
      },
      "geometry": {
        "type": "Point",
        "coordinates": [
          -88.3849918,
          37.6053105
        ]
      },
      "id": "node/12647771816"
    },
    {
      "type": "Feature",
      "properties": {
        "@id": "node/12647771817",
        "highway": "trailhead",
        "name": "GOG Interpretive"
      },
      "geometry": {
        "type": "Point",
        "coordinates": [
          -88.3847661,
          37.6048928
        ]
      },
      "id": "node/12647771817"
    },
    {
      "type": "Feature",
      "properties": {
        "@id": "node/12647771818",
        "highway": "trailhead",
        "name": "GOG Backpacking Trailhead"
      },
      "geometry": {
        "type": "Point",
        "coordinates": [
          -88.3814152,
          37.5998654
        ]
      },
      "id": "node/12647771818"
    },
    {
      "type": "Feature",
      "properties": {
        "@id": "node/12647771819",
        "highway": "trailhead",
        "name": "Golden Circle"
      },
      "geometry": {
        "type": "Point",
        "coordinates": [
          -88.3643326,
          37.6045147
        ]
      },
      "id": "node/12647771819"
    },
    {
      "type": "Feature",
      "properties": {
        "@id": "node/12647771820",
        "highway": "trailhead",
        "name": "Camp Cadiz"
      },
      "geometry": {
        "type": "Point",
        "coordinates": [
          -88.2441119,
          37.5779091
        ]
      },
      "id": "node/12647771820"
    },
    {
      "type": "Feature",
      "properties": {
        "@id": "node/12650816880",
        "highway": "trailhead",
        "name": "Bike Trail"
      },
      "geometry": {
        "type": "Point",
        "coordinates": [
          -88.9396968,
          38.0342818
        ]
      },
      "id": "node/12650816880"
    },
    {
      "type": "Feature",
      "properties": {
        "@id": "node/12709668168",
        "access": "yes",
        "fee": "no",
        "highway": "trailhead",
        "name": "Ascension Trailhead",
        "operator": "Warrick Trails"
      },
      "geometry": {
        "type": "Point",
        "coordinates": [
          -87.4142078,
          37.9485916
        ]
      },
      "id": "node/12709668168"
    },
    {
      "type": "Feature",
      "properties": {
        "@id": "node/12793580295",
        "fee": "no",
        "highway": "trailhead",
        "name": "TH12"
      },
      "geometry": {
        "type": "Point",
        "coordinates": [
          -87.6783643,
          37.9586214
        ]
      },
      "id": "node/12793580295"
    },
    {
      "type": "Feature",
      "properties": {
        "@id": "node/12793715814",
        "fee": "no",
        "highway": "trailhead",
        "name": "TH8"
      },
      "geometry": {
        "type": "Point",
        "coordinates": [
          -87.673171,
          37.9588364
        ]
      },
      "id": "node/12793715814"
    },
    {
      "type": "Feature",
      "properties": {
        "@id": "node/12793715815",
        "fee": "no",
        "highway": "trailhead",
        "name": "TH9"
      },
      "geometry": {
        "type": "Point",
        "coordinates": [
          -87.6739898,
          37.9576757
        ]
      },
      "id": "node/12793715815"
    },
    {
      "type": "Feature",
      "properties": {
        "@id": "node/12793715816",
        "fee": "no",
        "highway": "trailhead",
        "name": "TH10"
      },
      "geometry": {
        "type": "Point",
        "coordinates": [
          -87.6741713,
          37.956603
        ]
      },
      "id": "node/12793715816"
    },
    {
      "type": "Feature",
      "properties": {
        "@id": "node/12793715817",
        "fee": "no",
        "highway": "trailhead",
        "name": "TH7"
      },
      "geometry": {
        "type": "Point",
        "coordinates": [
          -87.6738234,
          37.9550325
        ]
      },
      "id": "node/12793715817"
    },
    {
      "type": "Feature",
      "properties": {
        "@id": "node/12793715818",
        "fee": "no",
        "highway": "trailhead",
        "name": "TH4"
      },
      "geometry": {
        "type": "Point",
        "coordinates": [
          -87.6731204,
          37.9583634
        ]
      },
      "id": "node/12793715818"
    },
    {
      "type": "Feature",
      "properties": {
        "@id": "node/12793715819",
        "fee": "no",
        "highway": "trailhead",
        "name": "TH6"
      },
      "geometry": {
        "type": "Point",
        "coordinates": [
          -87.672074,
          37.9530385
        ]
      },
      "id": "node/12793715819"
    },
    {
      "type": "Feature",
      "properties": {
        "@id": "node/12795829459",
        "fee": "no",
        "highway": "trailhead",
        "name": "TH11"
      },
      "geometry": {
        "type": "Point",
        "coordinates": [
          -87.674741,
          37.9551467
        ]
      },
      "id": "node/12795829459"
    },
    {
      "type": "Feature",
      "properties": {
        "@id": "node/12796604579",
        "access": "yes",
        "fee": "no",
        "highway": "trailhead",
        "name": "Deaconess Trailhead",
        "operator": "Warrick Trails"
      },
      "geometry": {
        "type": "Point",
        "coordinates": [
          -87.3588724,
          37.9985486
        ]
      },
      "id": "node/12796604579"
    },
    {
      "type": "Feature",
      "properties": {
        "@id": "node/12796610825",
        "access": "yes",
        "fee": "no",
        "highway": "trailhead",
        "name": "Upgrade Trailhead",
        "operator": "Warrick Trails"
      },
      "geometry": {
        "type": "Point",
        "coordinates": [
          -87.3451837,
          37.9831683
        ]
      },
      "id": "node/12796610825"
    },
    {
      "type": "Feature",
      "properties": {
        "@id": "node/12796610859",
        "access": "yes",
        "fee": "no",
        "highway": "trailhead",
        "name": "Prime Foods Trailhead",
        "operator": "Warrick Trails"
      },
      "geometry": {
        "type": "Point",
        "coordinates": [
          -87.302266,
          38.0448718
        ]
      },
      "id": "node/12796610859"
    },
    {
      "type": "Feature",
      "properties": {
        "@id": "node/12796620114",
        "access": "yes",
        "fee": "no",
        "highway": "trailhead",
        "name": "IMCU Trailhead",
        "operator": "Warrick Trails"
      },
      "geometry": {
        "type": "Point",
        "coordinates": [
          -87.4129113,
          37.9780263
        ]
      },
      "id": "node/12796620114"
    },
    {
      "type": "Feature",
      "properties": {
        "@id": "node/12835182530",
        "fee": "no",
        "highway": "trailhead"
      },
      "geometry": {
        "type": "Point",
        "coordinates": [
          -83.6022788,
          37.8306406
        ]
      },
      "id": "node/12835182530"
    },
    {
      "type": "Feature",
      "properties": {
        "@id": "node/13030513410",
        "highway": "trailhead"
      },
      "geometry": {
        "type": "Point",
        "coordinates": [
          -84.7949441,
          37.6283139
        ]
      },
      "id": "node/13030513410"
    },
    {
      "type": "Feature",
      "properties": {
        "@id": "node/13030529446",
        "highway": "trailhead"
      },
      "geometry": {
        "type": "Point",
        "coordinates": [
          -84.7955783,
          37.628945
        ]
      },
      "id": "node/13030529446"
    },
    {
      "type": "Feature",
      "properties": {
        "@id": "node/13030572794",
        "highway": "trailhead",
        "name": "McClure Village Trailhead"
      },
      "geometry": {
        "type": "Point",
        "coordinates": [
          -84.7567924,
          37.6357775
        ]
      },
      "id": "node/13030572794"
    },
    {
      "type": "Feature",
      "properties": {
        "@id": "node/13030612063",
        "highway": "trailhead",
        "name": "DCA Trailhead"
      },
      "geometry": {
        "type": "Point",
        "coordinates": [
          -84.7642535,
          37.6757773
        ]
      },
      "id": "node/13030612063"
    },
    {
      "type": "Feature",
      "properties": {
        "@id": "node/13037758334",
        "access": "yes",
        "bicycle": "no",
        "bin": "no",
        "foot": "designated",
        "highway": "trailhead",
        "horse": "designated",
        "motor_vehicle": "no",
        "name": "Ewing Trail (Horseback)",
        "operator": "National Park Service",
        "parking": "no",
        "toilets": "no"
      },
      "geometry": {
        "type": "Point",
        "coordinates": [
          -83.4336825,
          36.6543533
        ]
      },
      "id": "node/13037758334"
    },
    {
      "type": "Feature",
      "properties": {
        "@id": "node/13053379910",
        "access": "yes",
        "fee": "no",
        "highway": "trailhead",
        "name": "Buckeye Trail",
        "operator": "Buckeye Trail Association"
      },
      "geometry": {
        "type": "Point",
        "coordinates": [
          -83.3908447,
          39.0571151
        ]
      },
      "id": "node/13053379910"
    },
    {
      "type": "Feature",
      "properties": {
        "@id": "node/13260280846",
        "highway": "trailhead",
        "name": "Little Grand Canyon"
      },
      "geometry": {
        "type": "Point",
        "coordinates": [
          -89.3950397,
          37.6807184
        ]
      },
      "id": "node/13260280846"
    },
    {
      "type": "Feature",
      "properties": {
        "@id": "node/13306779530",
        "highway": "trailhead",
        "name": "Avery Hollow"
      },
      "geometry": {
        "type": "Point",
        "coordinates": [
          -88.5921614,
          37.4092476
        ]
      },
      "id": "node/13306779530"
    }
  ]
}