{
  "type": "FeatureCollection",
  "generator": "overpass-turbo",
  "copyright": "The data included in this document is from www.openstreetmap.org. The data is made available under ODbL.",
  "timestamp": "2026-06-28T00:49:44Z",
  "features": [
    {
      "type": "Feature",
      "properties": {
        "@id": "way/32076945",
        "addr:city": "Morrisville",
        "addr:housenumber": "102",
        "addr:postcode": "27560",
        "addr:state": "NC",
        "addr:street": "Pheasant Wood Court",
        "building": "yes",
        "leisure": "sports_centre",
        "name": "Triangle Rock Club - Morrisville",
        "operator": "Triangle Rock Club",
        "operator:type": "business",
        "sport": "climbing",
        "website": "https://www.trianglerockclub.com/morrisville/",
        "@geometry": "center"
      },
      "geometry": {
        "type": "Point",
        "coordinates": [
          -78.8211505,
          35.8110071
        ]
      },
      "id": "way/32076945"
    },
    {
      "type": "Feature",
      "properties": {
        "@id": "way/44323505",
        "addr:city": "Chapel Hill",
        "addr:country": "US",
        "addr:housenumber": "1713",
        "addr:postcode": "27517",
        "addr:state": "NC",
        "addr:street": "Legion Road",
        "attribution": "City of Chapel Hill (http://gis.townofchapelhill.org/disclaimer.asp?/download_data/)",
        "building": "yes",
        "charge": "$15",
        "fee": "yes",
        "leisure": "sports_centre",
        "name": "Progression",
        "source": "CCH",
        "source:addr": "Chapel Hill Open Data",
        "sport": "climbing",
        "@geometry": "center"
      },
      "geometry": {
        "type": "Point",
        "coordinates": [
          -79.0197041,
          35.9373348
        ]
      },
      "id": "way/44323505"
    },
    {
      "type": "Feature",
      "properties": {
        "@id": "way/47837097",
        "addr:city": "Raleigh",
        "addr:housenumber": "6022",
        "addr:postcode": "27612",
        "addr:state": "NC",
        "addr:street": "Duraleigh Road",
        "building": "commercial",
        "building:use": "commercial",
        "leisure": "sports_centre",
        "name": "Triangle Rock Club - Raleigh",
        "operator": "Triangle Rock Club",
        "operator:type": "business",
        "source": "WakeGIS;local knowledge",
        "sport": "climbing",
        "website": "https://www.trianglerockclub.com/raleigh/",
        "@geometry": "center"
      },
      "geometry": {
        "type": "Point",
        "coordinates": [
          -78.711764,
          35.8609991
        ]
      },
      "id": "way/47837097"
    },
    {
      "type": "Feature",
      "properties": {
        "@id": "way/47838087",
        "addr:city": "Raleigh",
        "addr:housenumber": "2330",
        "addr:postcode": "27604",
        "addr:state": "NC",
        "addr:street": "Salvage Yard Drive",
        "building": "yes",
        "building:use": "commercial",
        "fee": "yes",
        "leisure": "sports_centre",
        "name": "TRC - Salvage Yard",
        "operator": "Triangle Rock Club",
        "operator:type": "private",
        "source": "WakeGIS",
        "sport": "climbing",
        "@geometry": "center"
      },
      "geometry": {
        "type": "Point",
        "coordinates": [
          -78.6171036,
          35.8100853
        ]
      },
      "id": "way/47838087"
    },
    {
      "type": "Feature",
      "properties": {
        "@id": "way/207402877",
        "leisure": "pitch",
        "sport": "climbing",
        "@geometry": "center"
      },
      "geometry": {
        "type": "Point",
        "coordinates": [
          -78.2663706,
          35.343649
        ]
      },
      "id": "way/207402877"
    },
    {
      "type": "Feature",
      "properties": {
        "@id": "way/323180113",
        "addr:city": "Matthews",
        "addr:housenumber": "10715",
        "addr:postcode": "28105",
        "addr:state": "NC",
        "addr:street": "Independence Pointe Parkway",
        "building": "yes",
        "height": "26",
        "leisure": "sports_centre",
        "name": "Inner Peaks Matthews",
        "phone": "+1-704-844-6677",
        "sport": "climbing",
        "website": "https://innerpeaks.com/",
        "@geometry": "center"
      },
      "geometry": {
        "type": "Point",
        "coordinates": [
          -80.705705,
          35.1205877
        ]
      },
      "id": "way/323180113"
    },
    {
      "type": "Feature",
      "properties": {
        "@id": "way/432915335",
        "addr:city": "Charlotte",
        "addr:housenumber": "2220",
        "addr:postcode": "28203",
        "addr:state": "NC",
        "addr:street": "South Tryon Street",
        "building": "yes",
        "leisure": "sports_centre",
        "name": "Inner Peaks Climbing Center",
        "phone": "+19802423244",
        "sport": "climbing",
        "website": "https://www.innerpeaks.com/",
        "@geometry": "center"
      },
      "geometry": {
        "type": "Point",
        "coordinates": [
          -80.8677603,
          35.2094048
        ]
      },
      "id": "way/432915335"
    },
    {
      "type": "Feature",
      "properties": {
        "@id": "way/617281530",
        "addr:city": "Mooresville",
        "addr:housenumber": "326",
        "addr:postcode": "28117",
        "addr:state": "NC",
        "addr:street": "Oates Road",
        "building": "commercial",
        "description": "Rock climbing gym with 50 ft indoor walls, a 35 ft outdoor wall, 3500 sq ft of bouldering with top outs, and a 15 m speed wall. Facility also includes top rope and lead climbing, auto-belays, yoga studio, fitness area, kids climbing area, and a cafe.",
        "fee": "yes",
        "leisure": "sports_centre",
        "name": "Cliff Hangers",
        "opening_hours": "Mo 12:00-21:00, Tu-Th 10:00-21:00, Fr-Sa 10:00-20:00, Su 12:00-20:00",
        "phone": "+1-980-444-2650",
        "sport": "climbing",
        "website": "https://www.cliffhangersclimbing.com/",
        "@geometry": "center"
      },
      "geometry": {
        "type": "Point",
        "coordinates": [
          -80.8540279,
          35.5978376
        ]
      },
      "id": "way/617281530"
    },
    {
      "type": "Feature",
      "properties": {
        "@id": "way/701573153",
        "addr:city": "Taylors",
        "addr:housenumber": "301",
        "addr:postcode": "29687",
        "addr:state": "SC",
        "addr:street": "Bulls Road",
        "building": "yes",
        "leisure": "sports_centre",
        "name": "Climb Blue Ridge",
        "sport": "climbing",
        "website": "https://www.climbbr.com/",
        "@geometry": "center"
      },
      "geometry": {
        "type": "Point",
        "coordinates": [
          -82.3345297,
          34.9938676
        ]
      },
      "id": "way/701573153"
    },
    {
      "type": "Feature",
      "properties": {
        "@id": "way/891351635",
        "building": "yes",
        "leisure": "sports_centre",
        "name": "Central Rock Gym",
        "source": "microsoft/BuildingFootprints",
        "sport": "climbing",
        "website": "https://centralrockgym.com/atlanta/",
        "@geometry": "center"
      },
      "geometry": {
        "type": "Point",
        "coordinates": [
          -84.2674993,
          33.8841649
        ]
      },
      "id": "way/891351635"
    },
    {
      "type": "Feature",
      "properties": {
        "@id": "way/899485828",
        "addr:city": "Athens",
        "addr:housenumber": "665",
        "addr:postcode": "30601",
        "addr:street": "Barber Street",
        "building": "yes",
        "leisure": "sports_centre",
        "name": "Active Climbing",
        "ref:athensclarkeaddress": "40558",
        "sport": "climbing",
        "@geometry": "center"
      },
      "geometry": {
        "type": "Point",
        "coordinates": [
          -83.3873217,
          33.96872
        ]
      },
      "id": "way/899485828"
    },
    {
      "type": "Feature",
      "properties": {
        "@id": "way/1054950978",
        "addr:city": "Knoxville",
        "addr:housenumber": "5335",
        "addr:postcode": "37921",
        "addr:state": "TN",
        "addr:street": "Western Avenue",
        "building": "yes",
        "leisure": "sports_centre",
        "name": "Onsight Rock Gym",
        "sport": "climbing",
        "@geometry": "center"
      },
      "geometry": {
        "type": "Point",
        "coordinates": [
          -84.008918,
          35.9767608
        ]
      },
      "id": "way/1054950978"
    },
    {
      "type": "Feature",
      "properties": {
        "@id": "way/1125972250",
        "access": "yes",
        "addr:housenumber": "208",
        "addr:street": "North Davie Street",
        "building": "yes",
        "check_date": "2026-01-08",
        "leisure": "sports_centre",
        "name": "LeBauer Park",
        "phone": "+1-336-373-7533",
        "sport": "climbing",
        "website": "https://www.greensborodowntownparks.org/visit",
        "wheelchair": "limited",
        "@geometry": "center"
      },
      "geometry": {
        "type": "Point",
        "coordinates": [
          -79.7879437,
          36.0745615
        ]
      },
      "id": "way/1125972250"
    },
    {
      "type": "Feature",
      "properties": {
        "@id": "way/1127351580",
        "building": "yes",
        "leisure": "sports_centre",
        "sport": "climbing",
        "@geometry": "center"
      },
      "geometry": {
        "type": "Point",
        "coordinates": [
          -81.0081412,
          35.2729354
        ]
      },
      "id": "way/1127351580"
    },
    {
      "type": "Feature",
      "properties": {
        "@id": "way/1154757386",
        "building": "yes",
        "leisure": "sports_centre",
        "sport": "climbing",
        "@geometry": "center"
      },
      "geometry": {
        "type": "Point",
        "coordinates": [
          -80.1310541,
          35.4519083
        ]
      },
      "id": "way/1154757386"
    },
    {
      "type": "Feature",
      "properties": {
        "@id": "way/1301674544",
        "building": "yes",
        "leisure": "sports_centre",
        "sport": "climbing",
        "@geometry": "center"
      },
      "geometry": {
        "type": "Point",
        "coordinates": [
          -82.4762405,
          35.1916084
        ]
      },
      "id": "way/1301674544"
    },
    {
      "type": "Feature",
      "properties": {
        "@id": "way/1308668765",
        "leisure": "sports_centre",
        "name:signed": "no",
        "sport": "climbing",
        "@geometry": "center"
      },
      "geometry": {
        "type": "Point",
        "coordinates": [
          -81.0248789,
          33.9914092
        ]
      },
      "id": "way/1308668765"
    },
    {
      "type": "Feature",
      "properties": {
        "@id": "way/1313824500",
        "area": "yes",
        "man_made": "courtyard",
        "name": "Bouldering Courtyard",
        "sport": "climbing",
        "@geometry": "center"
      },
      "geometry": {
        "type": "Point",
        "coordinates": [
          -83.3710942,
          33.9382763
        ]
      },
      "id": "way/1313824500"
    },
    {
      "type": "Feature",
      "properties": {
        "@id": "way/1323460239",
        "building": "yes",
        "leisure": "sports_centre",
        "name": "Riveter",
        "sport": "climbing",
        "@geometry": "center"
      },
      "geometry": {
        "type": "Point",
        "coordinates": [
          -82.5452567,
          35.4284623
        ]
      },
      "id": "way/1323460239"
    },
    {
      "type": "Feature",
      "properties": {
        "@id": "way/1324364833",
        "leisure": "pitch",
        "name": "Cope & Climbing",
        "sport": "climbing",
        "@geometry": "center"
      },
      "geometry": {
        "type": "Point",
        "coordinates": [
          -84.1402323,
          34.9298598
        ]
      },
      "id": "way/1324364833"
    },
    {
      "type": "Feature",
      "properties": {
        "@id": "way/1416021769",
        "building": "yes",
        "contact:facebook": "https://www.instagram.com/ultimatekidsgso_climb/?hl=en",
        "leisure": "sports_centre",
        "name": "The Ultimate Climbing Gym",
        "operator": "Tumblebees",
        "sport": "climbing",
        "website": "https://ultimate-kids.com/Rock-Wall.html",
        "@geometry": "center"
      },
      "geometry": {
        "type": "Point",
        "coordinates": [
          -79.9278886,
          36.0830702
        ]
      },
      "id": "way/1416021769"
    },
    {
      "type": "Feature",
      "properties": {
        "@id": "node/2376693794",
        "climbing:boulder": "yes",
        "climbing:rock": "artificial",
        "leisure": "sports_centre",
        "man_made": "tower",
        "sport": "climbing",
        "tower:type": "climbing"
      },
      "geometry": {
        "type": "Point",
        "coordinates": [
          -78.787459,
          35.8219051
        ]
      },
      "id": "node/2376693794"
    },
    {
      "type": "Feature",
      "properties": {
        "@id": "node/3687709714",
        "addr:city": "Fayetteville",
        "addr:housenumber": "436",
        "addr:postcode": "28301",
        "addr:state": "NC",
        "addr:street": "West Russell Street",
        "building": "warehouse",
        "designation": "Indoor rock climbing",
        "leisure": "sports_centre",
        "name": "The Climbing Place",
        "sport": "climbing"
      },
      "geometry": {
        "type": "Point",
        "coordinates": [
          -78.8848131,
          35.0527085
        ]
      },
      "id": "node/3687709714"
    },
    {
      "type": "Feature",
      "properties": {
        "@id": "node/6391678583",
        "climbing": "crag",
        "name": "Ijams Crag",
        "sport": "climbing"
      },
      "geometry": {
        "type": "Point",
        "coordinates": [
          -83.8771972,
          35.9442494
        ]
      },
      "id": "node/6391678583"
    },
    {
      "type": "Feature",
      "properties": {
        "@id": "node/8482644094",
        "leisure": "sports_centre",
        "name": "Bloc Haven",
        "sport": "climbing",
        "website": "https://www.therockoon.com/"
      },
      "geometry": {
        "type": "Point",
        "coordinates": [
          -82.4291823,
          34.8358416
        ]
      },
      "id": "node/8482644094"
    },
    {
      "type": "Feature",
      "properties": {
        "@id": "node/9892534266",
        "fee": "no",
        "man_made": "tower",
        "opening_hours": "24/7",
        "sport": "climbing"
      },
      "geometry": {
        "type": "Point",
        "coordinates": [
          -83.9849336,
          34.5271479
        ]
      },
      "id": "node/9892534266"
    },
    {
      "type": "Feature",
      "properties": {
        "@id": "node/10027773371",
        "addr:city": "Suwanee",
        "addr:housenumber": "460",
        "addr:postcode": "30024",
        "addr:state": "GA",
        "addr:street": "Brogdon Road",
        "addr:unit": "100",
        "leisure": "sports_centre",
        "name": "Adrenaline Climbing",
        "phone": "+1-770-271-1390",
        "sport": "climbing",
        "website": "https://www.adrenalineclimbing.com/"
      },
      "geometry": {
        "type": "Point",
        "coordinates": [
          -84.0580026,
          34.0731645
        ]
      },
      "id": "node/10027773371"
    },
    {
      "type": "Feature",
      "properties": {
        "@id": "node/10060036567",
        "addr:city": "Boone",
        "addr:housenumber": "131",
        "addr:postcode": "28607",
        "addr:state": "NC",
        "addr:street": "Depot Street",
        "leisure": "sports_centre",
        "name": "Rock Dimensions Climbing Guides",
        "sport": "climbing"
      },
      "geometry": {
        "type": "Point",
        "coordinates": [
          -81.6842354,
          36.2182605
        ]
      },
      "id": "node/10060036567"
    },
    {
      "type": "Feature",
      "properties": {
        "@id": "node/10232212354",
        "leisure": "sports_centre",
        "sport": "climbing"
      },
      "geometry": {
        "type": "Point",
        "coordinates": [
          -77.393706,
          34.7528769
        ]
      },
      "id": "node/10232212354"
    },
    {
      "type": "Feature",
      "properties": {
        "@id": "node/10307490397",
        "leisure": "sports_centre",
        "sport": "climbing"
      },
      "geometry": {
        "type": "Point",
        "coordinates": [
          -81.0057569,
          35.2722168
        ]
      },
      "id": "node/10307490397"
    },
    {
      "type": "Feature",
      "properties": {
        "@id": "node/10604904232",
        "addr:city": "Durham",
        "addr:housenumber": "1010",
        "addr:postcode": "27713",
        "addr:state": "NC",
        "addr:street": "Martin Luther King Junior Parkway",
        "addr:unit": "400",
        "brand:wikipedia": "en:Planet Fitness",
        "leisure": "sports_centre",
        "name": "Triangle Rock Club - Durham",
        "operator": "Triangle Rock Club",
        "operator:type": "business",
        "source:addr": "Durham Open Data",
        "sport": "climbing",
        "website": "https://www.trianglerockclub.com/durham/"
      },
      "geometry": {
        "type": "Point",
        "coordinates": [
          -78.9245465,
          35.9507087
        ]
      },
      "id": "node/10604904232"
    },
    {
      "type": "Feature",
      "properties": {
        "@id": "node/11148611383",
        "access": "permissive",
        "addr:city": "Boone",
        "addr:housenumber": "200",
        "addr:postcode": "28607",
        "addr:state": "NC",
        "addr:street": "Den Mac Drive",
        "charge": "16.00 USD/day",
        "email": "center45climbing@gmail.com",
        "fee": "yes",
        "leisure": "sports_centre",
        "name": "Center 45",
        "opening_hours": "Mo 15:00-21:00; Tu-Sa 10:00-21:00; Su 10:00-19:00",
        "payment:cash": "yes",
        "payment:credit_cards": "yes",
        "payment:debit_cards": "yes",
        "phone": "+1-828-386-1550",
        "sport": "climbing",
        "website": "https://www.center45.com/"
      },
      "geometry": {
        "type": "Point",
        "coordinates": [
          -81.6367356,
          36.2138925
        ]
      },
      "id": "node/11148611383"
    },
    {
      "type": "Feature",
      "properties": {
        "@id": "node/12156371586",
        "leisure": "sports_centre",
        "name:signed": "no",
        "sport": "climbing"
      },
      "geometry": {
        "type": "Point",
        "coordinates": [
          -81.0246946,
          33.991549
        ]
      },
      "id": "node/12156371586"
    },
    {
      "type": "Feature",
      "properties": {
        "@id": "node/12160536232",
        "climbing:boulder": "yes",
        "climbing:length": "13.1",
        "climbing:routes": "15",
        "climbing:toprope": "yes",
        "description": "The 43 ft. indoor climbing wall and 15 ft. outdoor bouldering area are open to all active UGA students and Ramsey members.",
        "indoor": "yes",
        "name": "UGA Climbing Wall",
        "sport": "climbing",
        "url": "https://www.instagram.com/isthewallopen/",
        "website": "https://recsports.uga.edu/climbing-wall/",
        "wikimedia_commons": "File:UGA Bouldering Wall.jpg"
      },
      "geometry": {
        "type": "Point",
        "coordinates": [
          -83.3712306,
          33.9381222
        ]
      },
      "id": "node/12160536232"
    },
    {
      "type": "Feature",
      "properties": {
        "@id": "node/12613930610",
        "addr:housenumber": "5005",
        "addr:street": "High Point Road",
        "check_date": "2025-11-02",
        "contact:facebook": "https://www.facebook.com/Ruckus-Climbing-Gym-100083242911259/",
        "contact:instagram": "https://www.instagram.com/ruckusclimbinggym",
        "leisure": "fitness_centre",
        "name": "Ruckus Climbing Gym",
        "opening_hours": "Mo-Fr 11:00-21:00; Sa 09:00-21:00; Su 12:00-19:00",
        "phone": "+1-336-660-2523",
        "sport": "climbing",
        "website": "https://ruckusclimbinggym.com"
      },
      "geometry": {
        "type": "Point",
        "coordinates": [
          -79.8757211,
          36.0237942
        ]
      },
      "id": "node/12613930610"
    },
    {
      "type": "Feature",
      "properties": {
        "@id": "node/13051541868",
        "leisure": "sports_centre",
        "name": "Inner Peaks NoDa",
        "sport": "climbing"
      },
      "geometry": {
        "type": "Point",
        "coordinates": [
          -80.8247539,
          35.2416733
        ]
      },
      "id": "node/13051541868"
    }
  ]
}