{
  "type": "FeatureCollection",
  "features": [
    {
      "type": "Feature",
      "geometry": { "type": "Point", "coordinates": [-83.7085, 37.7829] },
      "properties": {
        "name": "Chimney Top Rock",
        "category": "cliffs",
        "source": "curated",
        "description": "A dramatic sandstone cliff with sweeping views over Red River Gorge.",
        "best_time": "Sunset",
        "duration": "45–90 minutes",
        "image": ""
      }
    },
    {
      "type": "Feature",
      "geometry": { "type": "Point", "coordinates": [-83.6840, 37.8230] },
      "properties": {
        "name": "Courthouse Rock Cliff",
        "category": "cliffs",
        "source": "curated",
        "description": "Iconic cliff formation rising above Auxier Ridge with panoramic vistas.",
        "best_time": "Morning",
        "duration": "1–2 hours",
        "image": ""
      }
    },
    {
      "type": "Feature",
      "geometry": { "type": "Point", "coordinates": [-83.6895, 37.8012] },
      "properties": {
        "name": "Half Moon Rock",
        "category": "cliffs",
        "source": "curated",
        "description": "A narrow cliff ledge offering one of the best ridge views in the gorge.",
        "best_time": "Afternoon",
        "duration": "1–2 hours",
        "image": ""
      }
    },
    {
      "type": "Feature",
      "geometry": { "type": "Point", "coordinates": [-84.7210, 36.0100] },
      "properties": {
        "name": "Obed Cliffs",
        "category": "cliffs",
        "source": "curated",
        "description": "Tall sandstone cliffs above the Obed River, popular with climbers.",
        "best_time": "Morning",
        "duration": "1–3 hours",
        "image": ""
      }
    },
    {
      "type": "Feature",
      "geometry": { "type": "Point", "coordinates": [-84.5730, 36.8470] },
      "properties": {
        "name": "Angel Falls Overlook Cliffs",
        "category": "cliffs",
        "source": "curated",
        "description": "Rugged cliff bands overlooking the Big South Fork river gorge.",
        "best_time": "Spring",
        "duration": "2–4 hours",
        "image": ""
      }
    },
    {
      "type": "Feature",
      "geometry": { "type": "Point", "coordinates": [-81.0750, 38.0700] },
      "properties": {
        "name": "Endless Wall Cliffs",
        "category": "cliffs",
        "source": "curated",
        "description": "Sheer sandstone cliffs forming one of New River Gorge’s most famous views.",
        "best_time": "Morning",
        "duration": "1–3 hours",
        "image": ""
      }
    },
    {
      "type": "Feature",
      "geometry": { "type": "Point", "coordinates": [-81.0900, 38.0780] },
      "properties": {
        "name": "Beauty Mountain Cliffs",
        "category": "cliffs",
        "source": "curated",
        "description": "A cliff line with sweeping river views and dramatic drop-offs.",
        "best_time": "Sunset",
        "duration": "45–90 minutes",
        "image": ""
      }
    },
    {
  "type": "Feature",
  "geometry": { "type": "Point", "coordinates": [-83.6739, 37.8074] },
  "properties": {
    "name": "Buzzard's Roost",
    "category": "cliffs",
    "source": "curated",
    "description": "A narrow cliff ridge with dramatic drop-offs and views toward Auxier Ridge.",
    "best_time": "Sunset",
    "duration": "1–2 hours",
    "image": ""
  }
},
{
  "type": "Feature",
  "geometry": { "type": "Point", "coordinates": [-83.6831, 37.8237] },
  "properties": {
    "name": "Auxier Ridge Overlook",
    "category": "cliffs",
    "source": "curated",
    "description": "A cliff overlook with sweeping views of Courthouse Rock and the gorge.",
    "best_time": "Morning",
    "duration": "1–2 hours",
    "image": ""
  }
},
{
  "type": "Feature",
  "geometry": { "type": "Point", "coordinates": [-84.5201, 36.7642] },
  "properties": {
    "name": "Red Byrd Cliff Overlook",
    "category": "cliffs",
    "source": "curated",
    "description": "A cliff overlook near Red Byrd Arch with forest views and rugged terrain.",
    "best_time": "Morning",
    "duration": "1–2 hours",
    "image": ""
  }
},
{
  "type": "Feature",
  "geometry": { "type": "Point", "coordinates": [-84.5734, 36.8479] },
  "properties": {
    "name": "Angel Falls Upper Overlook",
    "category": "cliffs",
    "source": "curated",
    "description": "A high cliff overlook above the Big South Fork river with dramatic gorge views.",
    "best_time": "Spring",
    "duration": "1–2 hours",
    "image": ""
  }
},
{
  "type": "Feature",
  "geometry": { "type": "Point", "coordinates": [-84.7218, 36.0108] },
  "properties": {
    "name": "Lilly Bluff Overlook",
    "category": "cliffs",
    "source": "curated",
    "description": "A dramatic cliff overlook above the Obed River with boardwalk access and sweeping views.",
    "best_time": "Morning",
    "duration": "45–90 minutes",
    "image": ""
  }
},
{
  "type": "Feature",
  "geometry": { "type": "Point", "coordinates": [-81.0905, 38.0564] },
  "properties": {
    "name": "Long Point Overlook",
    "category": "cliffs",
    "source": "curated",
    "description": "A narrow cliff point with a famous view of the New River Gorge Bridge.",
    "best_time": "Morning",
    "duration": "1.5–3 hours",
    "image": ""
  }
},
{
  "type": "Feature",
  "geometry": { "type": "Point", "coordinates": [-81.0749, 38.0708] },
  "properties": {
    "name": "Diamond Point",
    "category": "cliffs",
    "source": "curated",
    "description": "A cliff overlook along the Endless Wall Trail with sweeping views of the gorge.",
    "best_time": "Morning",
    "duration": "1–2 hours",
    "image": ""
  }
}
  ]
}
