{
  "type": "FeatureCollection",
  "features": [
  
    {
      "type": "Feature",
      "geometry": { "type": "Point", "coordinates": [-83.684, 37.823] },
      "properties": {
        "name": "Red River Gorge",
        "category": "gorges",
        "source": "curated",
        "description": "Kentucky’s iconic sandstone gorge with arches, cliffs, and deep forest canyons.",
        "best_time": "Spring–Fall",
        "duration": "2–6 hours",
        "image": ""
      }
    },
    {
      "type": "Feature",
      "geometry": { "type": "Point", "coordinates": [-84.573, 36.847] },
      "properties": {
        "name": "Big South Fork Gorge",
        "category": "gorges",
        "source": "curated",
        "description": "A massive gorge system spanning KY and TN with cliffs, arches, and river overlooks.",
        "best_time": "Morning",
        "duration": "2–6 hours",
        "image": ""
      }
    },

    {
      "type": "Feature",
      "geometry": { "type": "Point", "coordinates": [-85.302, 35.743] },
      "properties": {
        "name": "Savage Gulf",
        "category": "gorges",
        "source": "curated",
        "description": "A dramatic gorge with waterfalls, deep canyons, and rugged wilderness trails.",
        "best_time": "Spring",
        "duration": "3–6 hours",
        "image": ""
      }
    },
    {
      "type": "Feature",
      "geometry": { "type": "Point", "coordinates": [-85.192, 35.441] },
      "properties": {
        "name": "Fiery Gizzard Gorge",
        "category": "gorges",
        "source": "curated",
        "description": "A scenic gorge with waterfalls, rock formations, and one of TN’s best trails.",
        "best_time": "Morning",
        "duration": "2–5 hours",
        "image": ""
      }
    },
    {
      "type": "Feature",
      "geometry": { "type": "Point", "coordinates": [-84.721, 36.010] },
      "properties": {
        "name": "Obed River Gorge",
        "category": "gorges",
        "source": "curated",
        "description": "A rugged sandstone gorge popular for climbing, paddling, and cliffside views.",
        "best_time": "Afternoon",
        "duration": "1–3 hours",
        "image": ""
      }
    },

    {
      "type": "Feature",
      "geometry": { "type": "Point", "coordinates": [-81.075, 38.070] },
      "properties": {
        "name": "New River Gorge",
        "category": "gorges",
        "source": "curated",
        "description": "A vast gorge with iconic bridge views, cliffs, waterfalls, and world‑class hiking.",
        "best_time": "Morning",
        "duration": "2–6 hours",
        "image": ""
      }
    },
    {
      "type": "Feature",
      "geometry": { "type": "Point", "coordinates": [-80.241, 38.217] },
      "properties": {
        "name": "Canyon Rim / Gauley River Gorge",
        "category": "gorges",
        "source": "curated",
        "description": "A steep river gorge known for rafting, cliffs, and dramatic overlooks.",
        "best_time": "Fall",
        "duration": "1–3 hours",
        "image": ""
      }
    },
    {
      "type": "Feature",
      "geometry": { "type": "Point", "coordinates": [-79.374, 38.985] },
      "properties": {
        "name": "Seneca Rocks Gorge",
        "category": "gorges",
        "source": "curated",
        "description": "A narrow gorge beneath WV’s famous rock fin, with steep forested slopes.",
        "best_time": "Morning",
        "duration": "1–2 hours",
        "image": ""
      }
    },
    {
  "type": "Feature",
  "geometry": { "type": "Point", "coordinates": [-83.730, 36.600] },
  "properties": {
    "name": "Cumberland Gap Gorge",
    "category": "gorges",
    "source": "curated",
    "description": "A historic mountain gorge with deep valleys, cliffs, and scenic overlooks at the tri‑state border.",
    "best_time": "Morning",
    "duration": "2–4 hours",
    "image": ""
  }
},
{
  "type": "Feature",
  "geometry": { "type": "Point", "coordinates": [-85.356, 35.663] },
  "properties": {
    "name": "Fall Creek Gorge",
    "category": "gorges",
    "source": "curated",
    "description": "A deep gorge with waterfalls, cliffs, and rugged terrain inside Fall Creek Falls State Park.",
    "best_time": "Spring",
    "duration": "2–4 hours",
    "image": ""
  }
},
{
  "type": "Feature",
  "geometry": { "type": "Point", "coordinates": [-84.876, 36.553] },
  "properties": {
    "name": "Pogue Creek Canyon",
    "category": "gorges",
    "source": "curated",
    "description": "A dramatic sandstone canyon with cliffs, arches, and sweeping overlooks near Pickett State Park.",
    "best_time": "Morning",
    "duration": "2–3 hours",
    "image": ""
  }
},
{
  "type": "Feature",
  "geometry": { "type": "Point", "coordinates": [-79.503, 39.093] },
  "properties": {
    "name": "Blackwater Canyon",
    "category": "gorges",
    "source": "curated",
    "description": "A steep, forested gorge with waterfalls, cliffs, and rugged trails near Blackwater Falls.",
    "best_time": "Fall",
    "duration": "2–4 hours",
    "image": ""
  }
},
{
  "type": "Feature",
  "geometry": { "type": "Point", "coordinates": [-80.250, 38.250] },
  "properties": {
    "name": "Cranberry River Gorge",
    "category": "gorges",
    "source": "curated",
    "description": "A remote gorge in the Cranberry Wilderness with deep valleys, waterfalls, and pristine forest.",
    "best_time": "Summer",
    "duration": "3–6 hours",
    "image": ""
  }
}
  ]
}
