{
  "type": "FeatureCollection",
  "generator": "overpass-turbo",
  "copyright": "The data included in this document is from www.openstreetmap.org. The data is made available under ODbL.",
  "timestamp": "2026-06-28T01:17:01Z",
  "features": [
    {
      "type": "Feature",
      "properties": {
        "@id": "way/40253854",
        "natural": "beach",
        "@geometry": "center"
      },
      "geometry": {
        "type": "Point",
        "coordinates": [
          -82.3700415,
          34.9275278
        ]
      },
      "id": "way/40253854"
    },
    {
      "type": "Feature",
      "properties": {
        "@id": "way/44761800",
        "natural": "beach",
        "@geometry": "center"
      },
      "geometry": {
        "type": "Point",
        "coordinates": [
          -78.8803805,
          33.6898112
        ]
      },
      "id": "way/44761800"
    },
    {
      "type": "Feature",
      "properties": {
        "@id": "way/44762285",
        "name": "Myrtle Beach",
        "natural": "beach",
        "@geometry": "center"
      },
      "geometry": {
        "type": "Point",
        "coordinates": [
          -78.8678523,
          33.7009214
        ]
      },
      "id": "way/44762285"
    },
    {
      "type": "Feature",
      "properties": {
        "@id": "way/45046016",
        "natural": "beach",
        "@geometry": "center"
      },
      "geometry": {
        "type": "Point",
        "coordinates": [
          -78.8477733,
          33.7174031
        ]
      },
      "id": "way/45046016"
    },
    {
      "type": "Feature",
      "properties": {
        "@id": "way/106674577",
        "natural": "beach",
        "@geometry": "center"
      },
      "geometry": {
        "type": "Point",
        "coordinates": [
          -78.8833489,
          33.6866206
        ]
      },
      "id": "way/106674577"
    },
    {
      "type": "Feature",
      "properties": {
        "@id": "way/106675237",
        "natural": "beach",
        "@geometry": "center"
      },
      "geometry": {
        "type": "Point",
        "coordinates": [
          -78.8878969,
          33.6825934
        ]
      },
      "id": "way/106675237"
    },
    {
      "type": "Feature",
      "properties": {
        "@id": "way/106691259",
        "name": "Pawleys Island Beach",
        "natural": "beach",
        "@geometry": "center"
      },
      "geometry": {
        "type": "Point",
        "coordinates": [
          -79.1244603,
          33.4232784
        ]
      },
      "id": "way/106691259"
    },
    {
      "type": "Feature",
      "properties": {
        "@id": "way/108140813",
        "natural": "beach",
        "@geometry": "center"
      },
      "geometry": {
        "type": "Point",
        "coordinates": [
          -79.1327847,
          33.4090783
        ]
      },
      "id": "way/108140813"
    },
    {
      "type": "Feature",
      "properties": {
        "@id": "way/108383929",
        "natural": "beach",
        "@geometry": "center"
      },
      "geometry": {
        "type": "Point",
        "coordinates": [
          -79.1397131,
          33.3964886
        ]
      },
      "id": "way/108383929"
    },
    {
      "type": "Feature",
      "properties": {
        "@id": "way/110344679",
        "natural": "beach",
        "@geometry": "center"
      },
      "geometry": {
        "type": "Point",
        "coordinates": [
          -79.9882204,
          33.2598958
        ]
      },
      "id": "way/110344679"
    },
    {
      "type": "Feature",
      "properties": {
        "@id": "way/111651786",
        "natural": "beach",
        "@geometry": "center"
      },
      "geometry": {
        "type": "Point",
        "coordinates": [
          -79.1163671,
          33.4365353
        ]
      },
      "id": "way/111651786"
    },
    {
      "type": "Feature",
      "properties": {
        "@id": "way/114127800",
        "name": "Kiawah Beachwalker Park",
        "natural": "beach",
        "surface": "sand",
        "@geometry": "center"
      },
      "geometry": {
        "type": "Point",
        "coordinates": [
          -80.1328775,
          32.5840888
        ]
      },
      "id": "way/114127800"
    },
    {
      "type": "Feature",
      "properties": {
        "@id": "way/114127801",
        "natural": "beach",
        "@geometry": "center"
      },
      "geometry": {
        "type": "Point",
        "coordinates": [
          -80.1432436,
          32.5794701
        ]
      },
      "id": "way/114127801"
    },
    {
      "type": "Feature",
      "properties": {
        "@id": "way/122271598",
        "natural": "beach",
        "source": "NHD, Bing",
        "surface": "sand",
        "@geometry": "center"
      },
      "geometry": {
        "type": "Point",
        "coordinates": [
          -79.7643093,
          32.7987484
        ]
      },
      "id": "way/122271598"
    },
    {
      "type": "Feature",
      "properties": {
        "@id": "way/123415342",
        "natural": "beach",
        "@geometry": "center"
      },
      "geometry": {
        "type": "Point",
        "coordinates": [
          -78.8170823,
          33.7402674
        ]
      },
      "id": "way/123415342"
    },
    {
      "type": "Feature",
      "properties": {
        "@id": "way/126723556",
        "ele": "2",
        "gnis:feature_id": "1222234",
        "lifeguard": "no",
        "name": "Edisto Beach",
        "natural": "beach",
        "supervised": "no",
        "surface": "sand",
        "wikidata": "Q49320617",
        "@geometry": "center"
      },
      "geometry": {
        "type": "Point",
        "coordinates": [
          -80.3123408,
          32.497988
        ]
      },
      "id": "way/126723556"
    },
    {
      "type": "Feature",
      "properties": {
        "@id": "way/128213755",
        "name": "Litchfield Beach",
        "natural": "beach",
        "@geometry": "center"
      },
      "geometry": {
        "type": "Point",
        "coordinates": [
          -79.0982908,
          33.463263
        ]
      },
      "id": "way/128213755"
    },
    {
      "type": "Feature",
      "properties": {
        "@id": "way/128409623",
        "natural": "beach",
        "surface": "sand",
        "@geometry": "center"
      },
      "geometry": {
        "type": "Point",
        "coordinates": [
          -79.8142,
          32.7738727
        ]
      },
      "id": "way/128409623"
    },
    {
      "type": "Feature",
      "properties": {
        "@id": "way/128565789",
        "name": "North Litchfield Beach",
        "natural": "beach",
        "@geometry": "center"
      },
      "geometry": {
        "type": "Point",
        "coordinates": [
          -79.0780747,
          33.4889891
        ]
      },
      "id": "way/128565789"
    },
    {
      "type": "Feature",
      "properties": {
        "@id": "way/128739152",
        "natural": "beach",
        "@geometry": "center"
      },
      "geometry": {
        "type": "Point",
        "coordinates": [
          -79.8879496,
          32.6841326
        ]
      },
      "id": "way/128739152"
    },
    {
      "type": "Feature",
      "properties": {
        "@id": "way/129240093",
        "natural": "beach",
        "@geometry": "center"
      },
      "geometry": {
        "type": "Point",
        "coordinates": [
          -80.9053796,
          34.556853
        ]
      },
      "id": "way/129240093"
    },
    {
      "type": "Feature",
      "properties": {
        "@id": "way/129847907",
        "natural": "beach",
        "@geometry": "center"
      },
      "geometry": {
        "type": "Point",
        "coordinates": [
          -79.815615,
          32.769352
        ]
      },
      "id": "way/129847907"
    },
    {
      "type": "Feature",
      "properties": {
        "@id": "way/129856783",
        "natural": "beach",
        "@geometry": "center"
      },
      "geometry": {
        "type": "Point",
        "coordinates": [
          -79.8973498,
          32.6762074
        ]
      },
      "id": "way/129856783"
    },
    {
      "type": "Feature",
      "properties": {
        "@id": "way/129867310",
        "name": "Huntington Beach",
        "natural": "beach",
        "surface": "sand",
        "@geometry": "center"
      },
      "geometry": {
        "type": "Point",
        "coordinates": [
          -79.0576775,
          33.5069236
        ]
      },
      "id": "way/129867310"
    },
    {
      "type": "Feature",
      "properties": {
        "@id": "way/130798736",
        "natural": "beach",
        "@geometry": "center"
      },
      "geometry": {
        "type": "Point",
        "coordinates": [
          -79.9869925,
          33.2611616
        ]
      },
      "id": "way/130798736"
    },
    {
      "type": "Feature",
      "properties": {
        "@id": "way/135693662",
        "name": "State Park Beach",
        "natural": "beach",
        "@geometry": "center"
      },
      "geometry": {
        "type": "Point",
        "coordinates": [
          -78.9281775,
          33.6485847
        ]
      },
      "id": "way/135693662"
    },
    {
      "type": "Feature",
      "properties": {
        "@id": "way/136525688",
        "natural": "beach",
        "@geometry": "center"
      },
      "geometry": {
        "type": "Point",
        "coordinates": [
          -79.8162359,
          32.7686662
        ]
      },
      "id": "way/136525688"
    },
    {
      "type": "Feature",
      "properties": {
        "@id": "way/136525689",
        "natural": "beach",
        "@geometry": "center"
      },
      "geometry": {
        "type": "Point",
        "coordinates": [
          -79.8147892,
          32.7713859
        ]
      },
      "id": "way/136525689"
    },
    {
      "type": "Feature",
      "properties": {
        "@id": "way/136539490",
        "natural": "beach",
        "surface": "sand",
        "@geometry": "center"
      },
      "geometry": {
        "type": "Point",
        "coordinates": [
          -79.8597435,
          32.7590643
        ]
      },
      "id": "way/136539490"
    },
    {
      "type": "Feature",
      "properties": {
        "@id": "way/136539491",
        "natural": "beach",
        "surface": "sand",
        "@geometry": "center"
      },
      "geometry": {
        "type": "Point",
        "coordinates": [
          -79.8625202,
          32.7616562
        ]
      },
      "id": "way/136539491"
    },
    {
      "type": "Feature",
      "properties": {
        "@id": "way/137053180",
        "natural": "beach",
        "surface": "sand",
        "@geometry": "center"
      },
      "geometry": {
        "type": "Point",
        "coordinates": [
          -79.8374696,
          32.7609148
        ]
      },
      "id": "way/137053180"
    },
    {
      "type": "Feature",
      "properties": {
        "@id": "way/137261837",
        "natural": "beach",
        "@geometry": "center"
      },
      "geometry": {
        "type": "Point",
        "coordinates": [
          -79.8223153,
          32.7801787
        ]
      },
      "id": "way/137261837"
    },
    {
      "type": "Feature",
      "properties": {
        "@id": "way/137261838",
        "natural": "beach",
        "@geometry": "center"
      },
      "geometry": {
        "type": "Point",
        "coordinates": [
          -79.8211965,
          32.7807255
        ]
      },
      "id": "way/137261838"
    },
    {
      "type": "Feature",
      "properties": {
        "@id": "way/137332109",
        "natural": "beach",
        "@geometry": "center"
      },
      "geometry": {
        "type": "Point",
        "coordinates": [
          -79.8093466,
          32.7857098
        ]
      },
      "id": "way/137332109"
    },
    {
      "type": "Feature",
      "properties": {
        "@id": "way/138144452",
        "natural": "beach",
        "@geometry": "center"
      },
      "geometry": {
        "type": "Point",
        "coordinates": [
          -79.806899,
          32.7862198
        ]
      },
      "id": "way/138144452"
    },
    {
      "type": "Feature",
      "properties": {
        "@id": "way/138144454",
        "natural": "beach",
        "@geometry": "center"
      },
      "geometry": {
        "type": "Point",
        "coordinates": [
          -79.8082034,
          32.7857165
        ]
      },
      "id": "way/138144454"
    },
    {
      "type": "Feature",
      "properties": {
        "@id": "way/140469518",
        "natural": "beach",
        "@geometry": "center"
      },
      "geometry": {
        "type": "Point",
        "coordinates": [
          -79.9137236,
          32.7525991
        ]
      },
      "id": "way/140469518"
    },
    {
      "type": "Feature",
      "properties": {
        "@id": "way/140469519",
        "name": "Sunrise Park Beach",
        "natural": "beach",
        "surface": "sand",
        "@geometry": "center"
      },
      "geometry": {
        "type": "Point",
        "coordinates": [
          -79.9162151,
          32.7541152
        ]
      },
      "id": "way/140469519"
    },
    {
      "type": "Feature",
      "properties": {
        "@id": "way/145048442",
        "natural": "beach",
        "@geometry": "center"
      },
      "geometry": {
        "type": "Point",
        "coordinates": [
          -80.4030083,
          32.4749698
        ]
      },
      "id": "way/145048442"
    },
    {
      "type": "Feature",
      "properties": {
        "@id": "way/148701531",
        "natural": "beach",
        "@geometry": "center"
      },
      "geometry": {
        "type": "Point",
        "coordinates": [
          -79.0384336,
          33.5218327
        ]
      },
      "id": "way/148701531"
    },
    {
      "type": "Feature",
      "properties": {
        "@id": "way/157400512",
        "name": "The Sands",
        "natural": "beach",
        "@geometry": "center"
      },
      "geometry": {
        "type": "Point",
        "coordinates": [
          -80.6848009,
          32.3709682
        ]
      },
      "id": "way/157400512"
    },
    {
      "type": "Feature",
      "properties": {
        "@id": "way/160981524",
        "name": "Sandy Beach",
        "natural": "beach",
        "@geometry": "center"
      },
      "geometry": {
        "type": "Point",
        "coordinates": [
          -81.3182882,
          34.0341378
        ]
      },
      "id": "way/160981524"
    },
    {
      "type": "Feature",
      "properties": {
        "@id": "way/165362844",
        "natural": "beach",
        "@geometry": "center"
      },
      "geometry": {
        "type": "Point",
        "coordinates": [
          -79.8344372,
          34.1652663
        ]
      },
      "id": "way/165362844"
    },
    {
      "type": "Feature",
      "properties": {
        "@id": "way/167514830",
        "natural": "beach",
        "@geometry": "center"
      },
      "geometry": {
        "type": "Point",
        "coordinates": [
          -78.9044119,
          33.6689988
        ]
      },
      "id": "way/167514830"
    },
    {
      "type": "Feature",
      "properties": {
        "@id": "way/177714445",
        "natural": "beach",
        "@geometry": "center"
      },
      "geometry": {
        "type": "Point",
        "coordinates": [
          -80.835899,
          32.1331145
        ]
      },
      "id": "way/177714445"
    },
    {
      "type": "Feature",
      "properties": {
        "@id": "way/179022799",
        "natural": "beach",
        "@geometry": "center"
      },
      "geometry": {
        "type": "Point",
        "coordinates": [
          -80.0005175,
          33.313793
        ]
      },
      "id": "way/179022799"
    },
    {
      "type": "Feature",
      "properties": {
        "@id": "way/183775505",
        "natural": "beach",
        "@geometry": "center"
      },
      "geometry": {
        "type": "Point",
        "coordinates": [
          -79.9611532,
          32.6452258
        ]
      },
      "id": "way/183775505"
    },
    {
      "type": "Feature",
      "properties": {
        "@id": "way/185288804",
        "natural": "beach",
        "@geometry": "center"
      },
      "geometry": {
        "type": "Point",
        "coordinates": [
          -80.4693439,
          33.5562262
        ]
      },
      "id": "way/185288804"
    },
    {
      "type": "Feature",
      "properties": {
        "@id": "way/185288807",
        "natural": "beach",
        "@geometry": "center"
      },
      "geometry": {
        "type": "Point",
        "coordinates": [
          -80.4766887,
          33.5662681
        ]
      },
      "id": "way/185288807"
    },
    {
      "type": "Feature",
      "properties": {
        "@id": "way/190528518",
        "natural": "beach",
        "@geometry": "center"
      },
      "geometry": {
        "type": "Point",
        "coordinates": [
          -81.3116854,
          34.0368164
        ]
      },
      "id": "way/190528518"
    },
    {
      "type": "Feature",
      "properties": {
        "@id": "way/193403147",
        "natural": "beach",
        "@geometry": "center"
      },
      "geometry": {
        "type": "Point",
        "coordinates": [
          -80.1852535,
          32.5670361
        ]
      },
      "id": "way/193403147"
    },
    {
      "type": "Feature",
      "properties": {
        "@id": "way/197051147",
        "natural": "beach",
        "@geometry": "center"
      },
      "geometry": {
        "type": "Point",
        "coordinates": [
          -79.8867641,
          32.7061729
        ]
      },
      "id": "way/197051147"
    },
    {
      "type": "Feature",
      "properties": {
        "@id": "way/204860487",
        "natural": "beach",
        "@geometry": "center"
      },
      "geometry": {
        "type": "Point",
        "coordinates": [
          -81.2191756,
          34.0375074
        ]
      },
      "id": "way/204860487"
    },
    {
      "type": "Feature",
      "properties": {
        "@id": "way/206598291",
        "natural": "beach",
        "@geometry": "center"
      },
      "geometry": {
        "type": "Point",
        "coordinates": [
          -82.2210814,
          33.7807069
        ]
      },
      "id": "way/206598291"
    },
    {
      "type": "Feature",
      "properties": {
        "@id": "way/286097883",
        "natural": "beach",
        "@geometry": "center"
      },
      "geometry": {
        "type": "Point",
        "coordinates": [
          -79.4948917,
          35.1658271
        ]
      },
      "id": "way/286097883"
    },
    {
      "type": "Feature",
      "properties": {
        "@id": "way/299952084",
        "natural": "beach",
        "@geometry": "center"
      },
      "geometry": {
        "type": "Point",
        "coordinates": [
          -79.8999527,
          34.6401515
        ]
      },
      "id": "way/299952084"
    },
    {
      "type": "Feature",
      "properties": {
        "@id": "way/308521043",
        "natural": "beach",
        "@geometry": "center"
      },
      "geometry": {
        "type": "Point",
        "coordinates": [
          -79.9917112,
          33.254837
        ]
      },
      "id": "way/308521043"
    },
    {
      "type": "Feature",
      "properties": {
        "@id": "way/339017876",
        "natural": "beach",
        "@geometry": "center"
      },
      "geometry": {
        "type": "Point",
        "coordinates": [
          -79.8790188,
          32.7187822
        ]
      },
      "id": "way/339017876"
    },
    {
      "type": "Feature",
      "properties": {
        "@id": "way/339017877",
        "natural": "beach",
        "@geometry": "center"
      },
      "geometry": {
        "type": "Point",
        "coordinates": [
          -79.8738064,
          32.7290799
        ]
      },
      "id": "way/339017877"
    },
    {
      "type": "Feature",
      "properties": {
        "@id": "way/350013646",
        "name": "Waites Island Beach",
        "natural": "beach",
        "@geometry": "center"
      },
      "geometry": {
        "type": "Point",
        "coordinates": [
          -78.5726304,
          33.8458452
        ]
      },
      "id": "way/350013646"
    },
    {
      "type": "Feature",
      "properties": {
        "@id": "way/354437138",
        "natural": "beach",
        "@geometry": "center"
      },
      "geometry": {
        "type": "Point",
        "coordinates": [
          -78.757121,
          33.7783423
        ]
      },
      "id": "way/354437138"
    },
    {
      "type": "Feature",
      "properties": {
        "@id": "node/357082864",
        "ele": "3",
        "gnis:feature_id": "1221986",
        "name": "Deephead Swash",
        "natural": "beach"
      },
      "geometry": {
        "type": "Point",
        "coordinates": [
          -78.8387786,
          33.7246591
        ]
      },
      "id": "node/357082864"
    },
    {
      "type": "Feature",
      "properties": {
        "@id": "node/357089477",
        "ele": "1",
        "gnis:feature_id": "1226473",
        "name": "Seabrook Beach",
        "natural": "beach",
        "wikidata": "Q49324673"
      },
      "geometry": {
        "type": "Point",
        "coordinates": [
          -80.1592628,
          32.5682392
        ]
      },
      "id": "node/357089477"
    },
    {
      "type": "Feature",
      "properties": {
        "@id": "node/357089680",
        "ele": "0",
        "gnis:feature_id": "1226648",
        "name": "Singleton Swash",
        "natural": "beach"
      },
      "geometry": {
        "type": "Point",
        "coordinates": [
          -78.7944661,
          33.7554502
        ]
      },
      "id": "node/357089680"
    },
    {
      "type": "Feature",
      "properties": {
        "@id": "node/357091122",
        "ele": "3",
        "gnis:feature_id": "1227817",
        "name": "Burkmeyer Beach",
        "natural": "beach",
        "wikidata": "Q34724748"
      },
      "geometry": {
        "type": "Point",
        "coordinates": [
          -80.66844,
          32.4021384
        ]
      },
      "id": "node/357091122"
    },
    {
      "type": "Feature",
      "properties": {
        "@id": "node/357091214",
        "ele": "1",
        "gnis:feature_id": "1228035",
        "name": "Litchfield Beach",
        "natural": "beach"
      },
      "geometry": {
        "type": "Point",
        "coordinates": [
          -79.1039302,
          33.456557
        ]
      },
      "id": "node/357091214"
    },
    {
      "type": "Feature",
      "properties": {
        "@id": "node/357094726",
        "ele": "0",
        "gnis:feature_id": "1230297",
        "name": "Sandy Point Beach",
        "natural": "beach",
        "wikidata": "Q49324626"
      },
      "geometry": {
        "type": "Point",
        "coordinates": [
          -79.4567302,
          33.008781
        ]
      },
      "id": "node/357094726"
    },
    {
      "type": "Feature",
      "properties": {
        "@id": "node/357104275",
        "ele": "2",
        "gnis:feature_id": "1237429",
        "name": "Burckmyers Beach",
        "natural": "beach",
        "wikidata": "Q34724198"
      },
      "geometry": {
        "type": "Point",
        "coordinates": [
          -80.6692733,
          32.3988053
        ]
      },
      "id": "node/357104275"
    },
    {
      "type": "Feature",
      "properties": {
        "@id": "node/357121311",
        "ele": "4",
        "gnis:feature_id": "1251484",
        "name": "Withers Swash",
        "natural": "beach"
      },
      "geometry": {
        "type": "Point",
        "coordinates": [
          -78.8920122,
          33.6793086
        ]
      },
      "id": "node/357121311"
    },
    {
      "type": "Feature",
      "properties": {
        "@id": "node/357123758",
        "ele": "23",
        "gnis:feature_id": "1706244",
        "name": "White Point Beach",
        "natural": "beach",
        "wikidata": "Q49325298"
      },
      "geometry": {
        "type": "Point",
        "coordinates": [
          -80.0006352,
          33.3135017
        ]
      },
      "id": "node/357123758"
    },
    {
      "type": "Feature",
      "properties": {
        "@id": "way/357524778",
        "natural": "beach",
        "@geometry": "center"
      },
      "geometry": {
        "type": "Point",
        "coordinates": [
          -82.7445524,
          34.1612439
        ]
      },
      "id": "way/357524778"
    },
    {
      "type": "Feature",
      "properties": {
        "@id": "way/369876823",
        "natural": "beach",
        "@geometry": "center"
      },
      "geometry": {
        "type": "Point",
        "coordinates": [
          -81.2566743,
          34.0679844
        ]
      },
      "id": "way/369876823"
    },
    {
      "type": "Feature",
      "properties": {
        "@id": "way/412666832",
        "natural": "beach",
        "source": "bing",
        "@geometry": "center"
      },
      "geometry": {
        "type": "Point",
        "coordinates": [
          -79.0294109,
          34.6277742
        ]
      },
      "id": "way/412666832"
    },
    {
      "type": "Feature",
      "properties": {
        "@id": "way/463932298",
        "natural": "beach",
        "@geometry": "center"
      },
      "geometry": {
        "type": "Point",
        "coordinates": [
          -80.7876913,
          32.2242021
        ]
      },
      "id": "way/463932298"
    },
    {
      "type": "Feature",
      "properties": {
        "@id": "way/513739148",
        "natural": "beach",
        "surface": "sand",
        "@geometry": "center"
      },
      "geometry": {
        "type": "Point",
        "coordinates": [
          -80.6839887,
          34.8407775
        ]
      },
      "id": "way/513739148"
    },
    {
      "type": "Feature",
      "properties": {
        "@id": "way/513739161",
        "natural": "beach",
        "surface": "sand",
        "@geometry": "center"
      },
      "geometry": {
        "type": "Point",
        "coordinates": [
          -80.6839173,
          34.8383002
        ]
      },
      "id": "way/513739161"
    },
    {
      "type": "Feature",
      "properties": {
        "@id": "way/515116890",
        "natural": "beach",
        "@geometry": "center"
      },
      "geometry": {
        "type": "Point",
        "coordinates": [
          -80.8896551,
          34.1339123
        ]
      },
      "id": "way/515116890"
    },
    {
      "type": "Feature",
      "properties": {
        "@id": "way/543914923",
        "access": "customers",
        "natural": "beach",
        "sport": "swimming",
        "supervised": "no",
        "surface": "sand",
        "@geometry": "center"
      },
      "geometry": {
        "type": "Point",
        "coordinates": [
          -83.2367589,
          35.0795391
        ]
      },
      "id": "way/543914923"
    },
    {
      "type": "Feature",
      "properties": {
        "@id": "way/550114075",
        "natural": "beach",
        "surface": "dirt",
        "@geometry": "center"
      },
      "geometry": {
        "type": "Point",
        "coordinates": [
          -81.0063954,
          35.0422497
        ]
      },
      "id": "way/550114075"
    },
    {
      "type": "Feature",
      "properties": {
        "@id": "way/550736895",
        "natural": "beach",
        "surface": "sand",
        "@geometry": "center"
      },
      "geometry": {
        "type": "Point",
        "coordinates": [
          -81.0602511,
          35.0923382
        ]
      },
      "id": "way/550736895"
    },
    {
      "type": "Feature",
      "properties": {
        "@id": "way/550955242",
        "description": "YMCA Camp Thunderbird Advanced Sailing Beach",
        "natural": "beach",
        "surface": "sand",
        "@geometry": "center"
      },
      "geometry": {
        "type": "Point",
        "coordinates": [
          -81.0467057,
          35.1050141
        ]
      },
      "id": "way/550955242"
    },
    {
      "type": "Feature",
      "properties": {
        "@id": "way/562918526",
        "natural": "beach",
        "@geometry": "center"
      },
      "geometry": {
        "type": "Point",
        "coordinates": [
          -82.2834245,
          33.6506225
        ]
      },
      "id": "way/562918526"
    },
    {
      "type": "Feature",
      "properties": {
        "@id": "way/573595646",
        "natural": "beach",
        "@geometry": "center"
      },
      "geometry": {
        "type": "Point",
        "coordinates": [
          -80.4612302,
          33.5026208
        ]
      },
      "id": "way/573595646"
    },
    {
      "type": "Feature",
      "properties": {
        "@id": "way/575148236",
        "natural": "beach",
        "@geometry": "center"
      },
      "geometry": {
        "type": "Point",
        "coordinates": [
          -80.4549986,
          32.343852
        ]
      },
      "id": "way/575148236"
    },
    {
      "type": "Feature",
      "properties": {
        "@id": "way/579431172",
        "natural": "beach",
        "@geometry": "center"
      },
      "geometry": {
        "type": "Point",
        "coordinates": [
          -80.4375573,
          32.3740462
        ]
      },
      "id": "way/579431172"
    },
    {
      "type": "Feature",
      "properties": {
        "@id": "way/579431184",
        "natural": "beach",
        "@geometry": "center"
      },
      "geometry": {
        "type": "Point",
        "coordinates": [
          -80.5247759,
          32.2978893
        ]
      },
      "id": "way/579431184"
    },
    {
      "type": "Feature",
      "properties": {
        "@id": "way/579431204",
        "natural": "beach",
        "surface": "sand",
        "@geometry": "center"
      },
      "geometry": {
        "type": "Point",
        "coordinates": [
          -80.5480626,
          32.2870177
        ]
      },
      "id": "way/579431204"
    },
    {
      "type": "Feature",
      "properties": {
        "@id": "way/584075060",
        "natural": "beach",
        "@geometry": "center"
      },
      "geometry": {
        "type": "Point",
        "coordinates": [
          -78.923321,
          35.1322233
        ]
      },
      "id": "way/584075060"
    },
    {
      "type": "Feature",
      "properties": {
        "@id": "way/587514812",
        "natural": "beach",
        "@geometry": "center"
      },
      "geometry": {
        "type": "Point",
        "coordinates": [
          -80.885112,
          34.1783534
        ]
      },
      "id": "way/587514812"
    },
    {
      "type": "Feature",
      "properties": {
        "@id": "way/608724654",
        "name": "Cape San Roman Beach",
        "natural": "beach",
        "@geometry": "center"
      },
      "geometry": {
        "type": "Point",
        "coordinates": [
          -79.1801176,
          33.2158583
        ]
      },
      "id": "way/608724654"
    },
    {
      "type": "Feature",
      "properties": {
        "@id": "way/608724655",
        "name": "North Island Beach",
        "natural": "beach",
        "@geometry": "center"
      },
      "geometry": {
        "type": "Point",
        "coordinates": [
          -79.1708496,
          33.2714628
        ]
      },
      "id": "way/608724655"
    },
    {
      "type": "Feature",
      "properties": {
        "@id": "way/608724657",
        "name": "Prince George Beach",
        "natural": "beach",
        "@geometry": "center"
      },
      "geometry": {
        "type": "Point",
        "coordinates": [
          -79.1445705,
          33.388166
        ]
      },
      "id": "way/608724657"
    },
    {
      "type": "Feature",
      "properties": {
        "@id": "way/609333647",
        "name": "Pirateland Beach",
        "natural": "beach",
        "@geometry": "center"
      },
      "geometry": {
        "type": "Point",
        "coordinates": [
          -78.9420403,
          33.6359474
        ]
      },
      "id": "way/609333647"
    },
    {
      "type": "Feature",
      "properties": {
        "@id": "way/609333653",
        "name": "Long Bay Beach",
        "natural": "beach",
        "@geometry": "center"
      },
      "geometry": {
        "type": "Point",
        "coordinates": [
          -78.93692,
          33.6408852
        ]
      },
      "id": "way/609333653"
    },
    {
      "type": "Feature",
      "properties": {
        "@id": "way/609333657",
        "name": "Pebble Beach",
        "natural": "beach",
        "@geometry": "center"
      },
      "geometry": {
        "type": "Point",
        "coordinates": [
          -78.9210437,
          33.6546754
        ]
      },
      "id": "way/609333657"
    },
    {
      "type": "Feature",
      "properties": {
        "@id": "way/612794842",
        "name": "Lakewood Beach",
        "natural": "beach",
        "@geometry": "center"
      },
      "geometry": {
        "type": "Point",
        "coordinates": [
          -78.9484404,
          33.6296363
        ]
      },
      "id": "way/612794842"
    },
    {
      "type": "Feature",
      "properties": {
        "@id": "way/612794843",
        "name": "Ocean Lakes Beach",
        "natural": "beach",
        "@geometry": "center"
      },
      "geometry": {
        "type": "Point",
        "coordinates": [
          -78.9559354,
          33.6215298
        ]
      },
      "id": "way/612794843"
    },
    {
      "type": "Feature",
      "properties": {
        "@id": "way/612794844",
        "name": "Surfside Beach",
        "natural": "beach",
        "@geometry": "center"
      },
      "geometry": {
        "type": "Point",
        "coordinates": [
          -78.9715998,
          33.6048433
        ]
      },
      "id": "way/612794844"
    },
    {
      "type": "Feature",
      "properties": {
        "@id": "way/612794845",
        "name": "Garden City Beach",
        "natural": "beach",
        "@geometry": "center"
      },
      "geometry": {
        "type": "Point",
        "coordinates": [
          -79.0083977,
          33.5619511
        ]
      },
      "id": "way/612794845"
    },
    {
      "type": "Feature",
      "properties": {
        "@id": "way/612794846",
        "name": "Briarcliffe Beach",
        "natural": "beach",
        "@geometry": "center"
      },
      "geometry": {
        "type": "Point",
        "coordinates": [
          -78.7431715,
          33.7861957
        ]
      },
      "id": "way/612794846"
    },
    {
      "type": "Feature",
      "properties": {
        "@id": "way/612794847",
        "name": "Meher Beach",
        "natural": "beach",
        "@geometry": "center"
      },
      "geometry": {
        "type": "Point",
        "coordinates": [
          -78.7551692,
          33.7791331
        ]
      },
      "id": "way/612794847"
    },
    {
      "type": "Feature",
      "properties": {
        "@id": "way/612794848",
        "name": "Kingston Beach",
        "natural": "beach",
        "@geometry": "center"
      },
      "geometry": {
        "type": "Point",
        "coordinates": [
          -78.7779689,
          33.7659054
        ]
      },
      "id": "way/612794848"
    },
    {
      "type": "Feature",
      "properties": {
        "@id": "way/612794849",
        "name": "Apache Beach",
        "natural": "beach",
        "@geometry": "center"
      },
      "geometry": {
        "type": "Point",
        "coordinates": [
          -78.7823307,
          33.7631147
        ]
      },
      "id": "way/612794849"
    },
    {
      "type": "Feature",
      "properties": {
        "@id": "way/612794850",
        "name": "Maison Beach",
        "natural": "beach",
        "@geometry": "center"
      },
      "geometry": {
        "type": "Point",
        "coordinates": [
          -78.7851645,
          33.761335
        ]
      },
      "id": "way/612794850"
    },
    {
      "type": "Feature",
      "properties": {
        "@id": "way/612794851",
        "name": "Cottage Beach",
        "natural": "beach",
        "@geometry": "center"
      },
      "geometry": {
        "type": "Point",
        "coordinates": [
          -78.7872923,
          33.7600987
        ]
      },
      "id": "way/612794851"
    },
    {
      "type": "Feature",
      "properties": {
        "@id": "way/612794852",
        "name": "Dolphin Beach",
        "natural": "beach",
        "@geometry": "center"
      },
      "geometry": {
        "type": "Point",
        "coordinates": [
          -78.7885501,
          33.7592179
        ]
      },
      "id": "way/612794852"
    },
    {
      "type": "Feature",
      "properties": {
        "@id": "way/612794853",
        "name": "Turtle Beach",
        "natural": "beach",
        "@geometry": "center"
      },
      "geometry": {
        "type": "Point",
        "coordinates": [
          -78.791917,
          33.7574407
        ]
      },
      "id": "way/612794853"
    },
    {
      "type": "Feature",
      "properties": {
        "@id": "way/612794854",
        "name": "Arcadia Beach",
        "natural": "beach",
        "@geometry": "center"
      },
      "geometry": {
        "type": "Point",
        "coordinates": [
          -78.7690968,
          33.7712027
        ]
      },
      "id": "way/612794854"
    },
    {
      "type": "Feature",
      "properties": {
        "@id": "way/612794855",
        "name": "Ocean Creek Beach",
        "natural": "beach",
        "@geometry": "center"
      },
      "geometry": {
        "type": "Point",
        "coordinates": [
          -78.7375596,
          33.7886659
        ]
      },
      "id": "way/612794855"
    },
    {
      "type": "Feature",
      "properties": {
        "@id": "way/612794856",
        "name": "Windy Hill Beach",
        "natural": "beach",
        "@geometry": "center"
      },
      "geometry": {
        "type": "Point",
        "coordinates": [
          -78.7268041,
          33.7940251
        ]
      },
      "id": "way/612794856"
    },
    {
      "type": "Feature",
      "properties": {
        "@id": "way/612794857",
        "name": "Atlantic Beach",
        "natural": "beach",
        "@geometry": "center"
      },
      "geometry": {
        "type": "Point",
        "coordinates": [
          -78.7152085,
          33.7997502
        ]
      },
      "id": "way/612794857"
    },
    {
      "type": "Feature",
      "properties": {
        "@id": "way/612794858",
        "name": "Ingram Beach",
        "natural": "beach",
        "@geometry": "center"
      },
      "geometry": {
        "type": "Point",
        "coordinates": [
          -78.6852373,
          33.812692
        ]
      },
      "id": "way/612794858"
    },
    {
      "type": "Feature",
      "properties": {
        "@id": "way/612794859",
        "name": "Crescent Beach",
        "natural": "beach",
        "@geometry": "center"
      },
      "geometry": {
        "type": "Point",
        "coordinates": [
          -78.7011227,
          33.8060285
        ]
      },
      "id": "way/612794859"
    },
    {
      "type": "Feature",
      "properties": {
        "@id": "way/612794860",
        "name": "Ocean Drive Beach",
        "natural": "beach",
        "@geometry": "center"
      },
      "geometry": {
        "type": "Point",
        "coordinates": [
          -78.6650637,
          33.8198261
        ]
      },
      "id": "way/612794860"
    },
    {
      "type": "Feature",
      "properties": {
        "@id": "way/612794861",
        "name": "Cherry Grove Beach",
        "natural": "beach",
        "@geometry": "center"
      },
      "geometry": {
        "type": "Point",
        "coordinates": [
          -78.6337786,
          33.8301234
        ]
      },
      "id": "way/612794861"
    },
    {
      "type": "Feature",
      "properties": {
        "@id": "way/612794862",
        "name": "Futch Beach",
        "natural": "beach",
        "@geometry": "center"
      },
      "geometry": {
        "type": "Point",
        "coordinates": [
          -78.6086231,
          33.8386562
        ]
      },
      "id": "way/612794862"
    },
    {
      "type": "Feature",
      "properties": {
        "@id": "way/620227449",
        "natural": "beach",
        "surface": "sand",
        "@geometry": "center"
      },
      "geometry": {
        "type": "Point",
        "coordinates": [
          -78.977451,
          34.9635278
        ]
      },
      "id": "way/620227449"
    },
    {
      "type": "Feature",
      "properties": {
        "@id": "way/633647336",
        "natural": "beach",
        "surface": "sand",
        "@geometry": "center"
      },
      "geometry": {
        "type": "Point",
        "coordinates": [
          -79.8588371,
          32.7587143
        ]
      },
      "id": "way/633647336"
    },
    {
      "type": "Feature",
      "properties": {
        "@id": "way/669249656",
        "natural": "beach",
        "surface": "sand",
        "@geometry": "center"
      },
      "geometry": {
        "type": "Point",
        "coordinates": [
          -80.0553077,
          32.9087798
        ]
      },
      "id": "way/669249656"
    },
    {
      "type": "Feature",
      "properties": {
        "@id": "way/676012339",
        "natural": "beach",
        "@geometry": "center"
      },
      "geometry": {
        "type": "Point",
        "coordinates": [
          -80.9067731,
          32.3039482
        ]
      },
      "id": "way/676012339"
    },
    {
      "type": "Feature",
      "properties": {
        "@id": "way/676012340",
        "natural": "beach",
        "@geometry": "center"
      },
      "geometry": {
        "type": "Point",
        "coordinates": [
          -80.9069449,
          32.3037571
        ]
      },
      "id": "way/676012340"
    },
    {
      "type": "Feature",
      "properties": {
        "@id": "way/676012342",
        "natural": "beach",
        "@geometry": "center"
      },
      "geometry": {
        "type": "Point",
        "coordinates": [
          -80.9074641,
          32.3042808
        ]
      },
      "id": "way/676012342"
    },
    {
      "type": "Feature",
      "properties": {
        "@id": "way/676012343",
        "natural": "beach",
        "@geometry": "center"
      },
      "geometry": {
        "type": "Point",
        "coordinates": [
          -80.9074893,
          32.3041858
        ]
      },
      "id": "way/676012343"
    },
    {
      "type": "Feature",
      "properties": {
        "@id": "way/729939497",
        "access": "yes",
        "natural": "beach",
        "nudism": "no",
        "sport": "swimming",
        "surface": "sand",
        "wheelchair": "limited",
        "@geometry": "center"
      },
      "geometry": {
        "type": "Point",
        "coordinates": [
          -78.59704,
          34.6834112
        ]
      },
      "id": "way/729939497"
    },
    {
      "type": "Feature",
      "properties": {
        "@id": "way/770729704",
        "name": "North Beach",
        "natural": "beach",
        "surface": "dirt",
        "@geometry": "center"
      },
      "geometry": {
        "type": "Point",
        "coordinates": [
          -82.9136239,
          34.8379938
        ]
      },
      "id": "way/770729704"
    },
    {
      "type": "Feature",
      "properties": {
        "@id": "way/771971409",
        "name": "South Beach",
        "natural": "beach",
        "surface": "dirt",
        "@geometry": "center"
      },
      "geometry": {
        "type": "Point",
        "coordinates": [
          -82.920166,
          34.8157299
        ]
      },
      "id": "way/771971409"
    },
    {
      "type": "Feature",
      "properties": {
        "@id": "way/799303272",
        "name": "Fripp Island beach",
        "natural": "beach",
        "@geometry": "center"
      },
      "geometry": {
        "type": "Point",
        "coordinates": [
          -80.4801277,
          32.3135225
        ]
      },
      "id": "way/799303272"
    },
    {
      "type": "Feature",
      "properties": {
        "@id": "way/842919015",
        "natural": "beach",
        "@geometry": "center"
      },
      "geometry": {
        "type": "Point",
        "coordinates": [
          -81.332944,
          34.0263894
        ]
      },
      "id": "way/842919015"
    },
    {
      "type": "Feature",
      "properties": {
        "@id": "way/842919576",
        "natural": "beach",
        "@geometry": "center"
      },
      "geometry": {
        "type": "Point",
        "coordinates": [
          -81.3388687,
          34.0189535
        ]
      },
      "id": "way/842919576"
    },
    {
      "type": "Feature",
      "properties": {
        "@id": "way/843199221",
        "natural": "beach",
        "@geometry": "center"
      },
      "geometry": {
        "type": "Point",
        "coordinates": [
          -81.3372022,
          34.0232373
        ]
      },
      "id": "way/843199221"
    },
    {
      "type": "Feature",
      "properties": {
        "@id": "way/867511198",
        "name": "Grice Beach",
        "natural": "beach",
        "surface": "sand",
        "@geometry": "center"
      },
      "geometry": {
        "type": "Point",
        "coordinates": [
          -79.8926605,
          32.749972
        ]
      },
      "id": "way/867511198"
    },
    {
      "type": "Feature",
      "properties": {
        "@id": "way/914790720",
        "name": "Sailing Beach",
        "natural": "beach",
        "@geometry": "center"
      },
      "geometry": {
        "type": "Point",
        "coordinates": [
          -81.0476454,
          35.1062253
        ]
      },
      "id": "way/914790720"
    },
    {
      "type": "Feature",
      "properties": {
        "@id": "way/915132159",
        "natural": "beach",
        "@geometry": "center"
      },
      "geometry": {
        "type": "Point",
        "coordinates": [
          -81.045563,
          35.1063677
        ]
      },
      "id": "way/915132159"
    },
    {
      "type": "Feature",
      "properties": {
        "@id": "way/945874155",
        "natural": "beach",
        "surface": "sand",
        "@geometry": "center"
      },
      "geometry": {
        "type": "Point",
        "coordinates": [
          -80.0311531,
          32.6098792
        ]
      },
      "id": "way/945874155"
    },
    {
      "type": "Feature",
      "properties": {
        "@id": "way/949432176",
        "natural": "beach",
        "@geometry": "center"
      },
      "geometry": {
        "type": "Point",
        "coordinates": [
          -83.1674746,
          33.3546624
        ]
      },
      "id": "way/949432176"
    },
    {
      "type": "Feature",
      "properties": {
        "@id": "way/954713525",
        "natural": "beach",
        "@geometry": "center"
      },
      "geometry": {
        "type": "Point",
        "coordinates": [
          -81.9794984,
          34.9992102
        ]
      },
      "id": "way/954713525"
    },
    {
      "type": "Feature",
      "properties": {
        "@id": "way/958046196",
        "natural": "beach",
        "@geometry": "center"
      },
      "geometry": {
        "type": "Point",
        "coordinates": [
          -81.0383024,
          35.0424364
        ]
      },
      "id": "way/958046196"
    },
    {
      "type": "Feature",
      "properties": {
        "@id": "way/958046203",
        "natural": "beach",
        "@geometry": "center"
      },
      "geometry": {
        "type": "Point",
        "coordinates": [
          -81.0381619,
          35.0428656
        ]
      },
      "id": "way/958046203"
    },
    {
      "type": "Feature",
      "properties": {
        "@id": "way/958046207",
        "natural": "beach",
        "@geometry": "center"
      },
      "geometry": {
        "type": "Point",
        "coordinates": [
          -81.0388511,
          35.0432374
        ]
      },
      "id": "way/958046207"
    },
    {
      "type": "Feature",
      "properties": {
        "@id": "way/965750422",
        "natural": "beach",
        "@geometry": "center"
      },
      "geometry": {
        "type": "Point",
        "coordinates": [
          -81.3166471,
          34.0363635
        ]
      },
      "id": "way/965750422"
    },
    {
      "type": "Feature",
      "properties": {
        "@id": "way/965750423",
        "natural": "beach",
        "@geometry": "center"
      },
      "geometry": {
        "type": "Point",
        "coordinates": [
          -81.3151228,
          34.0368525
        ]
      },
      "id": "way/965750423"
    },
    {
      "type": "Feature",
      "properties": {
        "@id": "way/1034872687",
        "access": "private",
        "natural": "beach",
        "@geometry": "center"
      },
      "geometry": {
        "type": "Point",
        "coordinates": [
          -81.031546,
          35.1026903
        ]
      },
      "id": "way/1034872687"
    },
    {
      "type": "Feature",
      "properties": {
        "@id": "way/1053839497",
        "natural": "beach",
        "@geometry": "center"
      },
      "geometry": {
        "type": "Point",
        "coordinates": [
          -82.1899146,
          33.6733095
        ]
      },
      "id": "way/1053839497"
    },
    {
      "type": "Feature",
      "properties": {
        "@id": "way/1053839498",
        "natural": "beach",
        "@geometry": "center"
      },
      "geometry": {
        "type": "Point",
        "coordinates": [
          -82.1910601,
          33.6723914
        ]
      },
      "id": "way/1053839498"
    },
    {
      "type": "Feature",
      "properties": {
        "@id": "way/1060371324",
        "name": "Sandstone Beach",
        "natural": "beach",
        "@geometry": "center"
      },
      "geometry": {
        "type": "Point",
        "coordinates": [
          -82.914142,
          34.9701812
        ]
      },
      "id": "way/1060371324"
    },
    {
      "type": "Feature",
      "properties": {
        "@id": "way/1070114742",
        "natural": "beach",
        "@geometry": "center"
      },
      "geometry": {
        "type": "Point",
        "coordinates": [
          -82.8833356,
          34.8528344
        ]
      },
      "id": "way/1070114742"
    },
    {
      "type": "Feature",
      "properties": {
        "@id": "way/1071383257",
        "natural": "beach",
        "@geometry": "center"
      },
      "geometry": {
        "type": "Point",
        "coordinates": [
          -80.5477114,
          33.804443
        ]
      },
      "id": "way/1071383257"
    },
    {
      "type": "Feature",
      "properties": {
        "@id": "way/1071778272",
        "name": "Sandbar Pool Beach",
        "natural": "beach",
        "supervised": "no",
        "@geometry": "center"
      },
      "geometry": {
        "type": "Point",
        "coordinates": [
          -83.0140407,
          35.1676213
        ]
      },
      "id": "way/1071778272"
    },
    {
      "type": "Feature",
      "properties": {
        "@id": "way/1084518233",
        "natural": "beach",
        "@geometry": "center"
      },
      "geometry": {
        "type": "Point",
        "coordinates": [
          -82.8158746,
          34.3764162
        ]
      },
      "id": "way/1084518233"
    },
    {
      "type": "Feature",
      "properties": {
        "@id": "way/1087148547",
        "natural": "beach",
        "surface": "sand",
        "@geometry": "center"
      },
      "geometry": {
        "type": "Point",
        "coordinates": [
          -79.9172534,
          32.7541782
        ]
      },
      "id": "way/1087148547"
    },
    {
      "type": "Feature",
      "properties": {
        "@id": "way/1087149289",
        "natural": "beach",
        "surface": "sand",
        "@geometry": "center"
      },
      "geometry": {
        "type": "Point",
        "coordinates": [
          -79.91905,
          32.7533925
        ]
      },
      "id": "way/1087149289"
    },
    {
      "type": "Feature",
      "properties": {
        "@id": "way/1087597555",
        "ele": "2",
        "gnis:feature_id": "1222233",
        "name": "Edingsville Beach",
        "natural": "beach",
        "surface": "sand",
        "@geometry": "center"
      },
      "geometry": {
        "type": "Point",
        "coordinates": [
          -80.2662147,
          32.5246316
        ]
      },
      "id": "way/1087597555"
    },
    {
      "type": "Feature",
      "properties": {
        "@id": "way/1087602844",
        "natural": "beach",
        "surface": "sand",
        "@geometry": "center"
      },
      "geometry": {
        "type": "Point",
        "coordinates": [
          -80.1986951,
          32.5686403
        ]
      },
      "id": "way/1087602844"
    },
    {
      "type": "Feature",
      "properties": {
        "@id": "way/1087603983",
        "natural": "beach",
        "surface": "sand",
        "@geometry": "center"
      },
      "geometry": {
        "type": "Point",
        "coordinates": [
          -80.1613605,
          32.5688241
        ]
      },
      "id": "way/1087603983"
    },
    {
      "type": "Feature",
      "properties": {
        "@id": "way/1087613640",
        "natural": "beach",
        "surface": "sand",
        "@geometry": "center"
      },
      "geometry": {
        "type": "Point",
        "coordinates": [
          -80.0055593,
          32.6046813
        ]
      },
      "id": "way/1087613640"
    },
    {
      "type": "Feature",
      "properties": {
        "@id": "way/1087613641",
        "natural": "beach",
        "surface": "sand",
        "@geometry": "center"
      },
      "geometry": {
        "type": "Point",
        "coordinates": [
          -80.0120433,
          32.6081797
        ]
      },
      "id": "way/1087613641"
    },
    {
      "type": "Feature",
      "properties": {
        "@id": "way/1087613643",
        "natural": "beach",
        "surface": "sand",
        "@geometry": "center"
      },
      "geometry": {
        "type": "Point",
        "coordinates": [
          -79.9999244,
          32.6091581
        ]
      },
      "id": "way/1087613643"
    },
    {
      "type": "Feature",
      "properties": {
        "@id": "way/1087613644",
        "natural": "beach",
        "surface": "sand",
        "@geometry": "center"
      },
      "geometry": {
        "type": "Point",
        "coordinates": [
          -79.9937733,
          32.6174159
        ]
      },
      "id": "way/1087613644"
    },
    {
      "type": "Feature",
      "properties": {
        "@id": "way/1087613646",
        "natural": "beach",
        "surface": "sand",
        "@geometry": "center"
      },
      "geometry": {
        "type": "Point",
        "coordinates": [
          -79.9985372,
          32.627023
        ]
      },
      "id": "way/1087613646"
    },
    {
      "type": "Feature",
      "properties": {
        "@id": "way/1087613906",
        "natural": "beach",
        "surface": "sand",
        "@geometry": "center"
      },
      "geometry": {
        "type": "Point",
        "coordinates": [
          -80.0840828,
          32.598644
        ]
      },
      "id": "way/1087613906"
    },
    {
      "type": "Feature",
      "properties": {
        "@id": "way/1087614730",
        "natural": "beach",
        "surface": "sand",
        "@geometry": "center"
      },
      "geometry": {
        "type": "Point",
        "coordinates": [
          -80.1927013,
          32.548728
        ]
      },
      "id": "way/1087614730"
    },
    {
      "type": "Feature",
      "properties": {
        "@id": "way/1087614731",
        "natural": "beach",
        "surface": "sand",
        "@geometry": "center"
      },
      "geometry": {
        "type": "Point",
        "coordinates": [
          -80.1834315,
          32.5508909
        ]
      },
      "id": "way/1087614731"
    },
    {
      "type": "Feature",
      "properties": {
        "@id": "way/1087630737",
        "natural": "beach",
        "surface": "sand",
        "@geometry": "center"
      },
      "geometry": {
        "type": "Point",
        "coordinates": [
          -82.9476878,
          34.9524665
        ]
      },
      "id": "way/1087630737"
    },
    {
      "type": "Feature",
      "properties": {
        "@id": "way/1108785496",
        "natural": "beach",
        "@geometry": "center"
      },
      "geometry": {
        "type": "Point",
        "coordinates": [
          -80.8661145,
          32.0925388
        ]
      },
      "id": "way/1108785496"
    },
    {
      "type": "Feature",
      "properties": {
        "@id": "way/1108787734",
        "natural": "beach",
        "@geometry": "center"
      },
      "geometry": {
        "type": "Point",
        "coordinates": [
          -80.851593,
          32.1063312
        ]
      },
      "id": "way/1108787734"
    },
    {
      "type": "Feature",
      "properties": {
        "@id": "way/1108787735",
        "natural": "beach",
        "@geometry": "center"
      },
      "geometry": {
        "type": "Point",
        "coordinates": [
          -80.8436009,
          32.116778
        ]
      },
      "id": "way/1108787735"
    },
    {
      "type": "Feature",
      "properties": {
        "@id": "way/1117759940",
        "natural": "beach",
        "@geometry": "center"
      },
      "geometry": {
        "type": "Point",
        "coordinates": [
          -82.5382681,
          33.9564306
        ]
      },
      "id": "way/1117759940"
    },
    {
      "type": "Feature",
      "properties": {
        "@id": "way/1123730240",
        "natural": "beach",
        "@geometry": "center"
      },
      "geometry": {
        "type": "Point",
        "coordinates": [
          -79.7011922,
          32.8443331
        ]
      },
      "id": "way/1123730240"
    },
    {
      "type": "Feature",
      "properties": {
        "@id": "way/1124037652",
        "natural": "beach",
        "@geometry": "center"
      },
      "geometry": {
        "type": "Point",
        "coordinates": [
          -79.6524318,
          32.8805603
        ]
      },
      "id": "way/1124037652"
    },
    {
      "type": "Feature",
      "properties": {
        "@id": "way/1124579287",
        "natural": "beach",
        "@geometry": "center"
      },
      "geometry": {
        "type": "Point",
        "coordinates": [
          -79.8055672,
          32.9847554
        ]
      },
      "id": "way/1124579287"
    },
    {
      "type": "Feature",
      "properties": {
        "@id": "way/1125283359",
        "area": "yes",
        "natural": "beach",
        "surface": "sand",
        "@geometry": "center"
      },
      "geometry": {
        "type": "Point",
        "coordinates": [
          -79.8784511,
          32.7496438
        ]
      },
      "id": "way/1125283359"
    },
    {
      "type": "Feature",
      "properties": {
        "@id": "way/1125521904",
        "natural": "beach",
        "@geometry": "center"
      },
      "geometry": {
        "type": "Point",
        "coordinates": [
          -79.875253,
          32.7519005
        ]
      },
      "id": "way/1125521904"
    },
    {
      "type": "Feature",
      "properties": {
        "@id": "way/1161330461",
        "lifeguard": "no",
        "name": "Kayaker's Beach",
        "natural": "beach",
        "supervised": "no",
        "surface": "dirt/sand",
        "@geometry": "center"
      },
      "geometry": {
        "type": "Point",
        "coordinates": [
          -81.078859,
          34.0092908
        ]
      },
      "id": "way/1161330461"
    },
    {
      "type": "Feature",
      "properties": {
        "@id": "way/1169512569",
        "lifeguard": "no",
        "natural": "beach",
        "supervised": "no",
        "surface": "sand",
        "tidal": "yes",
        "@geometry": "center"
      },
      "geometry": {
        "type": "Point",
        "coordinates": [
          -79.9234652,
          32.813704
        ]
      },
      "id": "way/1169512569"
    },
    {
      "type": "Feature",
      "properties": {
        "@id": "way/1182792090",
        "natural": "beach",
        "@geometry": "center"
      },
      "geometry": {
        "type": "Point",
        "coordinates": [
          -80.4343763,
          32.4061357
        ]
      },
      "id": "way/1182792090"
    },
    {
      "type": "Feature",
      "properties": {
        "@id": "way/1193571489",
        "natural": "beach",
        "@geometry": "center"
      },
      "geometry": {
        "type": "Point",
        "coordinates": [
          -81.8451893,
          33.5242304
        ]
      },
      "id": "way/1193571489"
    },
    {
      "type": "Feature",
      "properties": {
        "@id": "way/1217855026",
        "natural": "beach",
        "@geometry": "center"
      },
      "geometry": {
        "type": "Point",
        "coordinates": [
          -83.0423416,
          35.1241409
        ]
      },
      "id": "way/1217855026"
    },
    {
      "type": "Feature",
      "properties": {
        "@id": "way/1221555560",
        "natural": "beach",
        "@geometry": "center"
      },
      "geometry": {
        "type": "Point",
        "coordinates": [
          -82.3600838,
          33.8828863
        ]
      },
      "id": "way/1221555560"
    },
    {
      "type": "Feature",
      "properties": {
        "@id": "way/1224881650",
        "natural": "beach",
        "@geometry": "center"
      },
      "geometry": {
        "type": "Point",
        "coordinates": [
          -80.23189,
          33.4044298
        ]
      },
      "id": "way/1224881650"
    },
    {
      "type": "Feature",
      "properties": {
        "@id": "way/1225504052",
        "natural": "beach",
        "surface": "sand",
        "@geometry": "center"
      },
      "geometry": {
        "type": "Point",
        "coordinates": [
          -79.6835747,
          34.6339682
        ]
      },
      "id": "way/1225504052"
    },
    {
      "type": "Feature",
      "properties": {
        "@id": "way/1227673485",
        "natural": "beach",
        "surface": "sand",
        "@geometry": "center"
      },
      "geometry": {
        "type": "Point",
        "coordinates": [
          -81.0421984,
          35.0254731
        ]
      },
      "id": "way/1227673485"
    },
    {
      "type": "Feature",
      "properties": {
        "@id": "way/1278328760",
        "name": "South Point Beach",
        "natural": "beach",
        "surface": "sand",
        "@geometry": "center"
      },
      "geometry": {
        "type": "Point",
        "coordinates": [
          -81.0109988,
          35.1563269
        ]
      },
      "id": "way/1278328760"
    },
    {
      "type": "Feature",
      "properties": {
        "@id": "way/1280681026",
        "ele": "202",
        "gnis:feature_id": "1242970",
        "name": "East Beach",
        "natural": "beach",
        "toilets:wheelchair": "yes",
        "wheelchair": "yes",
        "@geometry": "center"
      },
      "geometry": {
        "type": "Point",
        "coordinates": [
          -82.8552265,
          34.6764126
        ]
      },
      "id": "way/1280681026"
    },
    {
      "type": "Feature",
      "properties": {
        "@id": "way/1290021654",
        "natural": "beach",
        "surface": "sand",
        "@geometry": "center"
      },
      "geometry": {
        "type": "Point",
        "coordinates": [
          -83.2602208,
          33.2640958
        ]
      },
      "id": "way/1290021654"
    },
    {
      "type": "Feature",
      "properties": {
        "@id": "way/1314929117",
        "natural": "beach",
        "surface": "sand",
        "@geometry": "center"
      },
      "geometry": {
        "type": "Point",
        "coordinates": [
          -81.0314556,
          35.1210284
        ]
      },
      "id": "way/1314929117"
    },
    {
      "type": "Feature",
      "properties": {
        "@id": "way/1315551035",
        "lifeguard": "no",
        "natural": "beach",
        "supervised": "no",
        "surface": "sand",
        "@geometry": "center"
      },
      "geometry": {
        "type": "Point",
        "coordinates": [
          -81.0298389,
          35.1147672
        ]
      },
      "id": "way/1315551035"
    },
    {
      "type": "Feature",
      "properties": {
        "@id": "way/1322293204",
        "natural": "beach",
        "@geometry": "center"
      },
      "geometry": {
        "type": "Point",
        "coordinates": [
          -79.7953226,
          32.9304411
        ]
      },
      "id": "way/1322293204"
    },
    {
      "type": "Feature",
      "properties": {
        "@id": "way/1322703524",
        "natural": "beach",
        "@geometry": "center"
      },
      "geometry": {
        "type": "Point",
        "coordinates": [
          -80.2215956,
          33.5297866
        ]
      },
      "id": "way/1322703524"
    },
    {
      "type": "Feature",
      "properties": {
        "@id": "way/1322705637",
        "natural": "beach",
        "@geometry": "center"
      },
      "geometry": {
        "type": "Point",
        "coordinates": [
          -80.212778,
          33.5497776
        ]
      },
      "id": "way/1322705637"
    },
    {
      "type": "Feature",
      "properties": {
        "@id": "way/1322705638",
        "natural": "beach",
        "@geometry": "center"
      },
      "geometry": {
        "type": "Point",
        "coordinates": [
          -80.214197,
          33.549142
        ]
      },
      "id": "way/1322705638"
    },
    {
      "type": "Feature",
      "properties": {
        "@id": "way/1322706285",
        "natural": "beach",
        "@geometry": "center"
      },
      "geometry": {
        "type": "Point",
        "coordinates": [
          -80.2122848,
          33.5650529
        ]
      },
      "id": "way/1322706285"
    },
    {
      "type": "Feature",
      "properties": {
        "@id": "way/1323662880",
        "natural": "beach",
        "@geometry": "center"
      },
      "geometry": {
        "type": "Point",
        "coordinates": [
          -80.031241,
          33.2464122
        ]
      },
      "id": "way/1323662880"
    },
    {
      "type": "Feature",
      "properties": {
        "@id": "way/1325471865",
        "natural": "beach",
        "surface": "sand",
        "@geometry": "center"
      },
      "geometry": {
        "type": "Point",
        "coordinates": [
          -80.7867785,
          34.3842594
        ]
      },
      "id": "way/1325471865"
    },
    {
      "type": "Feature",
      "properties": {
        "@id": "way/1329679868",
        "natural": "beach",
        "surface": "sand",
        "@geometry": "center"
      },
      "geometry": {
        "type": "Point",
        "coordinates": [
          -81.3132554,
          34.3817944
        ]
      },
      "id": "way/1329679868"
    },
    {
      "type": "Feature",
      "properties": {
        "@id": "way/1335091955",
        "name": "Rocky Creek Beach",
        "natural": "beach",
        "@geometry": "center"
      },
      "geometry": {
        "type": "Point",
        "coordinates": [
          -83.1856338,
          33.1455135
        ]
      },
      "id": "way/1335091955"
    },
    {
      "type": "Feature",
      "properties": {
        "@id": "way/1352799168",
        "natural": "beach",
        "@geometry": "center"
      },
      "geometry": {
        "type": "Point",
        "coordinates": [
          -83.2454783,
          33.4293054
        ]
      },
      "id": "way/1352799168"
    },
    {
      "type": "Feature",
      "properties": {
        "@id": "way/1374180557",
        "natural": "beach",
        "@geometry": "center"
      },
      "geometry": {
        "type": "Point",
        "coordinates": [
          -81.7998838,
          33.5775159
        ]
      },
      "id": "way/1374180557"
    },
    {
      "type": "Feature",
      "properties": {
        "@id": "way/1374506179",
        "natural": "beach",
        "@geometry": "center"
      },
      "geometry": {
        "type": "Point",
        "coordinates": [
          -80.6876019,
          32.2469841
        ]
      },
      "id": "way/1374506179"
    },
    {
      "type": "Feature",
      "properties": {
        "@id": "way/1418515158",
        "lifeguard": "no",
        "natural": "beach",
        "supervised": "no",
        "@geometry": "center"
      },
      "geometry": {
        "type": "Point",
        "coordinates": [
          -79.9022356,
          32.8546225
        ]
      },
      "id": "way/1418515158"
    },
    {
      "type": "Feature",
      "properties": {
        "@id": "way/1425077150",
        "natural": "beach",
        "@geometry": "center"
      },
      "geometry": {
        "type": "Point",
        "coordinates": [
          -81.2416744,
          32.1738468
        ]
      },
      "id": "way/1425077150"
    },
    {
      "type": "Feature",
      "properties": {
        "@id": "way/1486196586",
        "natural": "beach",
        "@geometry": "center"
      },
      "geometry": {
        "type": "Point",
        "coordinates": [
          -81.9143047,
          34.8885572
        ]
      },
      "id": "way/1486196586"
    },
    {
      "type": "Feature",
      "properties": {
        "@id": "way/1527378180",
        "natural": "beach",
        "@geometry": "center"
      },
      "geometry": {
        "type": "Point",
        "coordinates": [
          -83.192974,
          33.4378867
        ]
      },
      "id": "way/1527378180"
    },
    {
      "type": "Feature",
      "properties": {
        "@id": "way/1529276422",
        "natural": "beach",
        "@geometry": "center"
      },
      "geometry": {
        "type": "Point",
        "coordinates": [
          -80.8900504,
          32.069478
        ]
      },
      "id": "way/1529276422"
    },
    {
      "type": "Feature",
      "properties": {
        "@id": "node/1638549508",
        "natural": "beach"
      },
      "geometry": {
        "type": "Point",
        "coordinates": [
          -81.1654554,
          33.9101502
        ]
      },
      "id": "node/1638549508"
    },
    {
      "type": "Feature",
      "properties": {
        "@id": "node/4985887970",
        "name": "Mitchelville Beach",
        "natural": "beach"
      },
      "geometry": {
        "type": "Point",
        "coordinates": [
          -80.6859407,
          32.2428445
        ]
      },
      "id": "node/4985887970"
    },
    {
      "type": "Feature",
      "properties": {
        "@id": "node/5368598488",
        "description": "Brighton Beach",
        "natural": "beach",
        "surface": "sand"
      },
      "geometry": {
        "type": "Point",
        "coordinates": [
          -80.8481856,
          32.2142013
        ]
      },
      "id": "node/5368598488"
    },
    {
      "type": "Feature",
      "properties": {
        "@id": "node/7001778687",
        "name": "Cummings Point",
        "natural": "beach",
        "surface": "sand"
      },
      "geometry": {
        "type": "Point",
        "coordinates": [
          -79.8721058,
          32.7383259
        ]
      },
      "id": "node/7001778687"
    },
    {
      "type": "Feature",
      "properties": {
        "@id": "node/7001778688",
        "name": "Grice Beach",
        "natural": "beach",
        "surface": "sand"
      },
      "geometry": {
        "type": "Point",
        "coordinates": [
          -79.8951171,
          32.7497682
        ]
      },
      "id": "node/7001778688"
    },
    {
      "type": "Feature",
      "properties": {
        "@id": "node/7782786103",
        "description": "Large collection of dead trees embedded in the sand remaining from Hurricane Hugo. Much of the forest inland is still visibly damaged.",
        "name": "Capers Island Boneyard",
        "natural": "beach"
      },
      "geometry": {
        "type": "Point",
        "coordinates": [
          -79.6922949,
          32.8545874
        ]
      },
      "id": "node/7782786103"
    },
    {
      "type": "Feature",
      "properties": {
        "@id": "node/11903086272",
        "name": "Bradley Beach",
        "natural": "beach"
      },
      "geometry": {
        "type": "Point",
        "coordinates": [
          -80.691458,
          32.1971575
        ]
      },
      "id": "node/11903086272"
    },
    {
      "type": "Feature",
      "properties": {
        "@id": "node/12110580468",
        "lifeguard": "no",
        "name": "Redbank Park Beach",
        "natural": "beach",
        "supervised": "no"
      },
      "geometry": {
        "type": "Point",
        "coordinates": [
          -80.3643562,
          33.4319963
        ]
      },
      "id": "node/12110580468"
    },
    {
      "type": "Feature",
      "properties": {
        "@id": "node/13174325117",
        "natural": "beach"
      },
      "geometry": {
        "type": "Point",
        "coordinates": [
          -80.8287878,
          34.0019762
        ]
      },
      "id": "node/13174325117"
    }
  ]
}