{
  "type": "FeatureCollection",
  "generator": "overpass-turbo",
  "copyright": "The data included in this document is from www.openstreetmap.org. The data is made available under ODbL.",
  "timestamp": "2026-06-28T01:26:11Z",
  "features": [
    {
      "type": "Feature",
      "properties": {
        "@id": "node/1435023783",
        "amenity": "parking",
        "layer": "-1",
        "name": "Whitaker Street Garage",
        "parking": "underground"
      },
      "geometry": {
        "type": "Point",
        "coordinates": [
          -81.093181,
          32.0806034
        ]
      },
      "id": "node/1435023783"
    },
    {
      "type": "Feature",
      "properties": {
        "@id": "node/3696222528",
        "amenity": "parking",
        "layer": "-1",
        "parking": "underground"
      },
      "geometry": {
        "type": "Point",
        "coordinates": [
          -81.092899,
          32.0803223
        ]
      },
      "id": "node/3696222528"
    },
    {
      "type": "Feature",
      "properties": {
        "@id": "node/7638861304",
        "amenity": "parking",
        "building": "parking",
        "parking": "multi-storey",
        "surface": "paved"
      },
      "geometry": {
        "type": "Point",
        "coordinates": [
          -79.8276752,
          32.8291583
        ]
      },
      "id": "node/7638861304"
    },
    {
      "type": "Feature",
      "properties": {
        "@id": "node/9133410605",
        "amenity": "parking",
        "layer": "-1",
        "parking": "underground"
      },
      "geometry": {
        "type": "Point",
        "coordinates": [
          -81.0553577,
          33.9938401
        ]
      },
      "id": "node/9133410605"
    },
    {
      "type": "Feature",
      "properties": {
        "@id": "node/12175460499",
        "amenity": "parking",
        "parking": "multi-storey"
      },
      "geometry": {
        "type": "Point",
        "coordinates": [
          -81.0350619,
          33.9980074
        ]
      },
      "id": "node/12175460499"
    },
    {
      "type": "Feature",
      "properties": {
        "@id": "node/13140097419",
        "access": "permit",
        "amenity": "parking",
        "closed": "yes",
        "operator": "Dockside",
        "operator:type": "private",
        "parking": "multi-storey",
        "surface": "asphalt"
      },
      "geometry": {
        "type": "Point",
        "coordinates": [
          -79.9263115,
          32.7895841
        ]
      },
      "id": "node/13140097419"
    },
    {
      "type": "Feature",
      "properties": {
        "@id": "node/13353621588",
        "amenity": "parking",
        "name": "Florence County Parking Deck",
        "parking": "multi-storey"
      },
      "geometry": {
        "type": "Point",
        "coordinates": [
          -79.7671964,
          34.1986418
        ]
      },
      "id": "node/13353621588"
    },
    {
      "type": "Feature",
      "properties": {
        "@id": "node/13353621589",
        "amenity": "parking",
        "name": "Public Parking at The Emerson",
        "parking": "multi-storey"
      },
      "geometry": {
        "type": "Point",
        "coordinates": [
          -79.7676301,
          34.1960041
        ]
      },
      "id": "node/13353621589"
    },
    {
      "type": "Feature",
      "properties": {
        "@id": "node/13689415170",
        "access": "private",
        "amenity": "parking",
        "capacity": "395",
        "covered": "yes",
        "fee": "no",
        "operator": "Willow Bridge Property Company",
        "operator:type": "business",
        "parking": "multi-storey",
        "start_date": "2024-03-21",
        "surface": "concrete"
      },
      "geometry": {
        "type": "Point",
        "coordinates": [
          -79.9389997,
          32.8031262
        ]
      },
      "id": "node/13689415170"
    },
    {
      "type": "Feature",
      "properties": {
        "@id": "node/13689946113",
        "access": "customers",
        "amenity": "parking",
        "building:levels": "2",
        "capacity": "351",
        "covered": "yes",
        "fee": "no",
        "operator": "Willow Bridge Property Company",
        "operator:type": "business",
        "parking": "multi-storey",
        "start_date": "2022",
        "surface": "concrete"
      },
      "geometry": {
        "type": "Point",
        "coordinates": [
          -79.937458,
          32.8024002
        ]
      },
      "id": "node/13689946113"
    },
    {
      "type": "Feature",
      "properties": {
        "@id": "node/13765538387",
        "access": "customers",
        "amenity": "parking",
        "fee": "no",
        "layer": "-1",
        "name": "Renaissance On Charleston Harbor Underground Parking",
        "operator": "Renaissance On Charleston Harbor",
        "operator:type": "private",
        "parking": "underground",
        "surface": "asphalt"
      },
      "geometry": {
        "type": "Point",
        "coordinates": [
          -79.9033025,
          32.797687
        ]
      },
      "id": "node/13765538387"
    }
  ]
}