{
  "type": "FeatureCollection",
  "generator": "overpass-turbo",
  "copyright": "The data included in this document is from www.openstreetmap.org. The data is made available under ODbL.",
  "timestamp": "2026-06-28T00:11:02Z",
  "features": [
    {
      "type": "Feature",
      "properties": {
        "@id": "way/175342789",
        "addr:city": "Tallahassee",
        "addr:country": "US",
        "addr:housenumber": "2810",
        "addr:postcode": "32312",
        "addr:state": "FL",
        "addr:street": "Sharer Road",
        "addr:unit": "31",
        "building": "commercial",
        "fee": "yes",
        "leisure": "sports_centre",
        "name": "Alchemy Climbing",
        "opening_hours": "Su 12:00-20:00; Mo 16:00-22:00; Tu-Sa 12:00-22:00",
        "source": "bing",
        "sport": "climbing",
        "website": "https://movies8tallahassee.com/",
        "@geometry": "center"
      },
      "geometry": {
        "type": "Point",
        "coordinates": [
          -84.2973861,
          30.4805899
        ]
      },
      "id": "way/175342789"
    },
    {
      "type": "Feature",
      "properties": {
        "@id": "way/246723755",
        "addr:city": "Kennesaw",
        "addr:floor": "G;1",
        "addr:housenumber": "3366",
        "addr:postcode": "30144",
        "addr:state": "GA",
        "addr:street": "Busbee Drive Northwest",
        "air_conditioning": "yes",
        "branch": "At Kennesaw State University",
        "brand": "Comfort Suites",
        "brand:wikidata": "Q55525150",
        "building": "yes",
        "check_date": "2025-03-04",
        "internet_access": "wlan",
        "internet_access:fee": "customers",
        "level": "0;1",
        "name": "Comfort Suites at Kennesaw State University",
        "opening_hours": "24/7",
        "payment:cash": "yes",
        "payment:mastercard": "yes",
        "payment:visa": "yes",
        "phone": "+1 470-412-7942",
        "ref": "GA539",
        "source": "Bing 2012",
        "sport": "climbing",
        "tourism": "hotel",
        "website": "https://www.choicehotels.com/georgia/kennesaw/comfort-suites-hotels/ga539",
        "wheelchair": "yes",
        "@geometry": "center"
      },
      "geometry": {
        "type": "Point",
        "coordinates": [
          -84.5725724,
          34.0325317
        ]
      },
      "id": "way/246723755"
    },
    {
      "type": "Feature",
      "properties": {
        "@id": "way/701573153",
        "addr:city": "Taylors",
        "addr:housenumber": "301",
        "addr:postcode": "29687",
        "addr:state": "SC",
        "addr:street": "Bulls Road",
        "building": "yes",
        "leisure": "sports_centre",
        "name": "Climb Blue Ridge",
        "sport": "climbing",
        "website": "https://www.climbbr.com/",
        "@geometry": "center"
      },
      "geometry": {
        "type": "Point",
        "coordinates": [
          -82.3345297,
          34.9938676
        ]
      },
      "id": "way/701573153"
    },
    {
      "type": "Feature",
      "properties": {
        "@id": "way/891351635",
        "building": "yes",
        "leisure": "sports_centre",
        "name": "Central Rock Gym",
        "source": "microsoft/BuildingFootprints",
        "sport": "climbing",
        "website": "https://centralrockgym.com/atlanta/",
        "@geometry": "center"
      },
      "geometry": {
        "type": "Point",
        "coordinates": [
          -84.2674993,
          33.8841649
        ]
      },
      "id": "way/891351635"
    },
    {
      "type": "Feature",
      "properties": {
        "@id": "way/899485828",
        "addr:city": "Athens",
        "addr:housenumber": "665",
        "addr:postcode": "30601",
        "addr:street": "Barber Street",
        "building": "yes",
        "leisure": "sports_centre",
        "name": "Active Climbing",
        "ref:athensclarkeaddress": "40558",
        "sport": "climbing",
        "@geometry": "center"
      },
      "geometry": {
        "type": "Point",
        "coordinates": [
          -83.3873217,
          33.96872
        ]
      },
      "id": "way/899485828"
    },
    {
      "type": "Feature",
      "properties": {
        "@id": "way/1308668765",
        "leisure": "sports_centre",
        "name:signed": "no",
        "sport": "climbing",
        "@geometry": "center"
      },
      "geometry": {
        "type": "Point",
        "coordinates": [
          -81.0248789,
          33.9914092
        ]
      },
      "id": "way/1308668765"
    },
    {
      "type": "Feature",
      "properties": {
        "@id": "way/1313824500",
        "area": "yes",
        "man_made": "courtyard",
        "name": "Bouldering Courtyard",
        "sport": "climbing",
        "@geometry": "center"
      },
      "geometry": {
        "type": "Point",
        "coordinates": [
          -83.3710942,
          33.9382763
        ]
      },
      "id": "way/1313824500"
    },
    {
      "type": "Feature",
      "properties": {
        "@id": "way/1324364833",
        "leisure": "pitch",
        "name": "Cope & Climbing",
        "sport": "climbing",
        "@geometry": "center"
      },
      "geometry": {
        "type": "Point",
        "coordinates": [
          -84.1402323,
          34.9298598
        ]
      },
      "id": "way/1324364833"
    },
    {
      "type": "Feature",
      "properties": {
        "@id": "node/2223141631",
        "name": "High Point",
        "source": "UTC Regional Resource Inventory",
        "sport": "climbing"
      },
      "geometry": {
        "type": "Point",
        "coordinates": [
          -85.3928019,
          34.8630497
        ]
      },
      "id": "node/2223141631"
    },
    {
      "type": "Feature",
      "properties": {
        "@id": "node/2223141647",
        "name": "Rock Town",
        "source": "UTC Regional Resource Inventory",
        "sport": "climbing"
      },
      "geometry": {
        "type": "Point",
        "coordinates": [
          -85.3904026,
          34.6540005
        ]
      },
      "id": "node/2223141647"
    },
    {
      "type": "Feature",
      "properties": {
        "@id": "node/2223141655",
        "name": "Zahnd Boulders",
        "source": "UTC Regional Resource Inventory",
        "sport": "climbing"
      },
      "geometry": {
        "type": "Point",
        "coordinates": [
          -85.4721578,
          34.6551447
        ]
      },
      "id": "node/2223141655"
    },
    {
      "type": "Feature",
      "properties": {
        "@id": "node/8267316634",
        "leisure": "sports_centre",
        "sport": "climbing"
      },
      "geometry": {
        "type": "Point",
        "coordinates": [
          -81.0582019,
          31.980927
        ]
      },
      "id": "node/8267316634"
    },
    {
      "type": "Feature",
      "properties": {
        "@id": "node/8482644094",
        "leisure": "sports_centre",
        "name": "Bloc Haven",
        "sport": "climbing",
        "website": "https://www.therockoon.com/"
      },
      "geometry": {
        "type": "Point",
        "coordinates": [
          -82.4291823,
          34.8358416
        ]
      },
      "id": "node/8482644094"
    },
    {
      "type": "Feature",
      "properties": {
        "@id": "node/9597830232",
        "addr:city": "Atlanta",
        "addr:housenumber": "1030",
        "addr:postcode": "30310",
        "addr:state": "GA",
        "addr:street": "White Street Southwest",
        "building": "commercial",
        "description": "Climbing gym with bouldering only (no top rope) that includes a yoga room, weights and other gym equipment, a kilter board, and of course hundreds of square feet of wall! The Overlook focuses on community and has a number of events, teams, and leagues.",
        "fee": "yes",
        "leisure": "sports_centre",
        "name": "The Overlook",
        "sport": "climbing",
        "website": "https://overlookclimbing.com/"
      },
      "geometry": {
        "type": "Point",
        "coordinates": [
          -84.421264,
          33.731559
        ]
      },
      "id": "node/9597830232"
    },
    {
      "type": "Feature",
      "properties": {
        "@id": "node/9892534266",
        "fee": "no",
        "man_made": "tower",
        "opening_hours": "24/7",
        "sport": "climbing"
      },
      "geometry": {
        "type": "Point",
        "coordinates": [
          -83.9849336,
          34.5271479
        ]
      },
      "id": "node/9892534266"
    },
    {
      "type": "Feature",
      "properties": {
        "@id": "node/10027773371",
        "addr:city": "Suwanee",
        "addr:housenumber": "460",
        "addr:postcode": "30024",
        "addr:state": "GA",
        "addr:street": "Brogdon Road",
        "addr:unit": "100",
        "leisure": "sports_centre",
        "name": "Adrenaline Climbing",
        "phone": "+1-770-271-1390",
        "sport": "climbing",
        "website": "https://www.adrenalineclimbing.com/"
      },
      "geometry": {
        "type": "Point",
        "coordinates": [
          -84.0580026,
          34.0731645
        ]
      },
      "id": "node/10027773371"
    },
    {
      "type": "Feature",
      "properties": {
        "@id": "node/11218920936",
        "addr:housenumber": "643",
        "addr:street": "South Old Belair Road",
        "name": "Active Climbing Augusta",
        "opening_hours": "Tu-Th 15:00-21:00; Mo, Fr 12:00-21:00; Sa 11:00-20:00; Su 13:00-18:00",
        "phone": "+1-706-922-1054",
        "sport": "climbing",
        "website": "https://www.activeclimbingaugusta.com"
      },
      "geometry": {
        "type": "Point",
        "coordinates": [
          -82.140159,
          33.4811185
        ]
      },
      "id": "node/11218920936"
    },
    {
      "type": "Feature",
      "properties": {
        "@id": "node/12156371586",
        "leisure": "sports_centre",
        "name:signed": "no",
        "sport": "climbing"
      },
      "geometry": {
        "type": "Point",
        "coordinates": [
          -81.0246946,
          33.991549
        ]
      },
      "id": "node/12156371586"
    },
    {
      "type": "Feature",
      "properties": {
        "@id": "node/12160536232",
        "climbing:boulder": "yes",
        "climbing:length": "13.1",
        "climbing:routes": "15",
        "climbing:toprope": "yes",
        "description": "The 43 ft. indoor climbing wall and 15 ft. outdoor bouldering area are open to all active UGA students and Ramsey members.",
        "indoor": "yes",
        "name": "UGA Climbing Wall",
        "sport": "climbing",
        "url": "https://www.instagram.com/isthewallopen/",
        "website": "https://recsports.uga.edu/climbing-wall/",
        "wikimedia_commons": "File:UGA Bouldering Wall.jpg"
      },
      "geometry": {
        "type": "Point",
        "coordinates": [
          -83.3712306,
          33.9381222
        ]
      },
      "id": "node/12160536232"
    },
    {
      "type": "Feature",
      "properties": {
        "@id": "node/12308471940",
        "addr:floor": "G;1",
        "addr:housenumber": "425",
        "addr:street": "Earnest W Barrett Parkway Northwest",
        "addr:unit": "3500",
        "check_date": "2024-11-17",
        "email": "info@adventureairsports.com",
        "fee": "yes",
        "leisure": "sports_centre",
        "level": "0;1",
        "name": "Adventure Air Sports",
        "opening_hours": "We-Th 12:00-20:00; Fr 12:00-22:00; Sa 10:00-22:00; Su 12:00-19:00",
        "operator:type": "private",
        "payment:cash": "yes",
        "payment:mastercard": "yes",
        "payment:visa": "yes",
        "phone": "+1 678-384-2020",
        "sport": "climbing",
        "website": "https://kennesaw.adventureairsports.com/",
        "wheelchair": "yes"
      },
      "geometry": {
        "type": "Point",
        "coordinates": [
          -84.5609523,
          34.0115201
        ]
      },
      "id": "node/12308471940"
    },
    {
      "type": "Feature",
      "properties": {
        "@id": "node/12373695479",
        "addr:floor": "G;1",
        "addr:housenumber": "715",
        "addr:street": "Peachtree Street Northeast",
        "check_date": "2024-11-25",
        "email": "atl.midtown@centralrockgym.com",
        "fee": "yes",
        "leisure": "sports_centre",
        "level": "0;1",
        "name": "Central Rock Gym",
        "opening_hours": "Mo 06:00-22:00; Tu 11:00-22:00; We 06:00-22:00; Th-Fr 11:00-22:00; Sa 10:00-20:00; Su 11:00-18:00",
        "operator:type": "private",
        "payment:cash": "yes",
        "payment:credit_cards": "yes",
        "payment:debit_cards": "yes",
        "phone": "+1 470-481-2030",
        "sport": "climbing",
        "website": "https://centralrockgym.com/midtown/",
        "wheelchair": "yes"
      },
      "geometry": {
        "type": "Point",
        "coordinates": [
          -84.3844536,
          33.7739253
        ]
      },
      "id": "node/12373695479"
    }
  ]
}