{
  "type": "FeatureCollection",
  "generator": "overpass-turbo",
  "copyright": "The data included in this document is from www.openstreetmap.org. The data is made available under ODbL.",
  "timestamp": "2026-06-28T00:11:02Z",
  "features": [
    {
      "type": "Feature",
      "properties": {
        "@id": "node/67305116",
        "highway": "trailhead",
        "name": "North Oconee River Greenway"
      },
      "geometry": {
        "type": "Point",
        "coordinates": [
          -83.3814455,
          33.9814851
        ]
      },
      "id": "node/67305116"
    },
    {
      "type": "Feature",
      "properties": {
        "@id": "node/110014121",
        "highway": "trailhead"
      },
      "geometry": {
        "type": "Point",
        "coordinates": [
          -80.801835,
          32.144289
        ]
      },
      "id": "node/110014121"
    },
    {
      "type": "Feature",
      "properties": {
        "@id": "node/287790397",
        "highway": "trailhead",
        "name": "Eisenhower Park Augusta Canal Trailhead"
      },
      "geometry": {
        "type": "Point",
        "coordinates": [
          -82.0048578,
          33.5127091
        ]
      },
      "id": "node/287790397"
    },
    {
      "type": "Feature",
      "properties": {
        "@id": "node/295437171",
        "fee": "no",
        "highway": "trailhead",
        "name": "Appalachian Trailhead"
      },
      "geometry": {
        "type": "Point",
        "coordinates": [
          -84.1938787,
          34.6267694
        ]
      },
      "id": "node/295437171"
    },
    {
      "type": "Feature",
      "properties": {
        "@id": "node/295437512",
        "highway": "trailhead"
      },
      "geometry": {
        "type": "Point",
        "coordinates": [
          -84.1950341,
          34.6377659
        ]
      },
      "id": "node/295437512"
    },
    {
      "type": "Feature",
      "properties": {
        "@id": "node/320300444",
        "highway": "trailhead"
      },
      "geometry": {
        "type": "Point",
        "coordinates": [
          -83.382319,
          33.9869485
        ]
      },
      "id": "node/320300444"
    },
    {
      "type": "Feature",
      "properties": {
        "@id": "node/347677919",
        "highway": "trailhead",
        "name": "Whissenhunt OHV trails"
      },
      "geometry": {
        "type": "Point",
        "coordinates": [
          -84.0450996,
          34.5965332
        ]
      },
      "id": "node/347677919"
    },
    {
      "type": "Feature",
      "properties": {
        "@id": "node/347935781",
        "highway": "trailhead",
        "name": "Hemlock Falls Hiking Trailhead",
        "operator": "US Forest Service",
        "website": "https://www.fs.usda.gov/recarea/conf/recarea/?recid=10511"
      },
      "geometry": {
        "type": "Point",
        "coordinates": [
          -83.5971517,
          34.8479277
        ]
      },
      "id": "node/347935781"
    },
    {
      "type": "Feature",
      "properties": {
        "@id": "node/347991313",
        "highway": "trailhead"
      },
      "geometry": {
        "type": "Point",
        "coordinates": [
          -83.7892441,
          34.7098539
        ]
      },
      "id": "node/347991313"
    },
    {
      "type": "Feature",
      "properties": {
        "@id": "node/538587791",
        "highway": "trailhead"
      },
      "geometry": {
        "type": "Point",
        "coordinates": [
          -84.4535788,
          33.8714058
        ]
      },
      "id": "node/538587791"
    },
    {
      "type": "Feature",
      "properties": {
        "@id": "node/565316186",
        "access": "yes",
        "highway": "trailhead",
        "name": "Martin Trailhead - Silver Comet Trail"
      },
      "geometry": {
        "type": "Point",
        "coordinates": [
          -85.2774271,
          34.0041823
        ]
      },
      "id": "node/565316186"
    },
    {
      "type": "Feature",
      "properties": {
        "@id": "node/1294039971",
        "highway": "trailhead"
      },
      "geometry": {
        "type": "Point",
        "coordinates": [
          -84.9498338,
          30.5592474
        ]
      },
      "id": "node/1294039971"
    },
    {
      "type": "Feature",
      "properties": {
        "@id": "node/1629053189",
        "highway": "trailhead"
      },
      "geometry": {
        "type": "Point",
        "coordinates": [
          -81.4957287,
          30.3841398
        ]
      },
      "id": "node/1629053189"
    },
    {
      "type": "Feature",
      "properties": {
        "@id": "node/1645108217",
        "highway": "trailhead"
      },
      "geometry": {
        "type": "Point",
        "coordinates": [
          -81.4832963,
          30.3698979
        ]
      },
      "id": "node/1645108217"
    },
    {
      "type": "Feature",
      "properties": {
        "@id": "node/1735338675",
        "highway": "trailhead",
        "name": "Mary Black Rail Trail"
      },
      "geometry": {
        "type": "Point",
        "coordinates": [
          -81.8952813,
          34.9318713
        ]
      },
      "id": "node/1735338675"
    },
    {
      "type": "Feature",
      "properties": {
        "@id": "node/2134389004",
        "fee": "no",
        "highway": "trailhead",
        "name": "Byron Herbert Reece Memorial Trailhead"
      },
      "geometry": {
        "type": "Point",
        "coordinates": [
          -83.9226829,
          34.7415215
        ]
      },
      "id": "node/2134389004"
    },
    {
      "type": "Feature",
      "properties": {
        "@id": "node/2446587837",
        "highway": "trailhead",
        "information": "map",
        "tourism": "information"
      },
      "geometry": {
        "type": "Point",
        "coordinates": [
          -84.1717157,
          33.6260476
        ]
      },
      "id": "node/2446587837"
    },
    {
      "type": "Feature",
      "properties": {
        "@id": "node/2502057035",
        "highway": "trailhead",
        "name": "College Avenue Trailhead"
      },
      "geometry": {
        "type": "Point",
        "coordinates": [
          -83.3778628,
          33.9705619
        ]
      },
      "id": "node/2502057035"
    },
    {
      "type": "Feature",
      "properties": {
        "@id": "node/2653944891",
        "alt_name": "Appalachian Approach Trailhead",
        "highway": "trailhead",
        "name": "Appalachian National Scenic Trailhead"
      },
      "geometry": {
        "type": "Point",
        "coordinates": [
          -84.2435491,
          34.5671672
        ]
      },
      "id": "node/2653944891"
    },
    {
      "type": "Feature",
      "properties": {
        "@id": "node/2921258164",
        "highway": "trailhead",
        "name": "Palmetto Trail: Capital City Passage Trailhead"
      },
      "geometry": {
        "type": "Point",
        "coordinates": [
          -81.0677443,
          34.0332258
        ]
      },
      "id": "node/2921258164"
    },
    {
      "type": "Feature",
      "properties": {
        "@id": "node/3199670251",
        "highway": "trailhead"
      },
      "geometry": {
        "type": "Point",
        "coordinates": [
          -85.4357081,
          30.5489921
        ]
      },
      "id": "node/3199670251"
    },
    {
      "type": "Feature",
      "properties": {
        "@id": "node/3375853049",
        "highway": "trailhead",
        "name": "Lake Olmstead Trailhead"
      },
      "geometry": {
        "type": "Point",
        "coordinates": [
          -82.0046336,
          33.4926206
        ]
      },
      "id": "node/3375853049"
    },
    {
      "type": "Feature",
      "properties": {
        "@id": "node/3699107071",
        "access": "yes",
        "fee": "no",
        "highway": "trailhead",
        "name": "Mount Yonah Trailhead"
      },
      "geometry": {
        "type": "Point",
        "coordinates": [
          -83.7256478,
          34.6373336
        ]
      },
      "id": "node/3699107071"
    },
    {
      "type": "Feature",
      "properties": {
        "@id": "node/3735373575",
        "fee": "yes",
        "highway": "trailhead",
        "information": "map",
        "tourism": "information"
      },
      "geometry": {
        "type": "Point",
        "coordinates": [
          -84.2117689,
          34.4263284
        ]
      },
      "id": "node/3735373575"
    },
    {
      "type": "Feature",
      "properties": {
        "@id": "node/3924629728",
        "highway": "trailhead",
        "name": "Duncan Ridge Trail Terminus",
        "wikidata": "Q5314587",
        "wikipedia": "en:Duncan Ridge Trail"
      },
      "geometry": {
        "type": "Point",
        "coordinates": [
          -83.9412836,
          34.7419049
        ]
      },
      "id": "node/3924629728"
    },
    {
      "type": "Feature",
      "properties": {
        "@id": "node/4154574413",
        "amenity": "parking",
        "highway": "trailhead",
        "name": "Gooch Gap"
      },
      "geometry": {
        "type": "Point",
        "coordinates": [
          -84.0322918,
          34.6522173
        ]
      },
      "id": "node/4154574413"
    },
    {
      "type": "Feature",
      "properties": {
        "@id": "node/4599072576",
        "amenity": "parking",
        "highway": "trailhead",
        "name": "Bull Mountain Trail System Parking"
      },
      "geometry": {
        "type": "Point",
        "coordinates": [
          -84.1442493,
          34.5828411
        ]
      },
      "id": "node/4599072576"
    },
    {
      "type": "Feature",
      "properties": {
        "@id": "node/4657847907",
        "highway": "trailhead",
        "name": "Hunt Club Trail"
      },
      "geometry": {
        "type": "Point",
        "coordinates": [
          -81.8271154,
          34.9572275
        ]
      },
      "id": "node/4657847907"
    },
    {
      "type": "Feature",
      "properties": {
        "@id": "node/4772062326",
        "highway": "trailhead"
      },
      "geometry": {
        "type": "Point",
        "coordinates": [
          -84.3986324,
          34.5281842
        ]
      },
      "id": "node/4772062326"
    },
    {
      "type": "Feature",
      "properties": {
        "@id": "node/5216978377",
        "highway": "trailhead"
      },
      "geometry": {
        "type": "Point",
        "coordinates": [
          -84.1287445,
          34.5652215
        ]
      },
      "id": "node/5216978377"
    },
    {
      "type": "Feature",
      "properties": {
        "@id": "node/5680738781",
        "highway": "trailhead",
        "name": "Opossum Creek Falls Trail"
      },
      "geometry": {
        "type": "Point",
        "coordinates": [
          -83.3042475,
          34.7734225
        ]
      },
      "id": "node/5680738781"
    },
    {
      "type": "Feature",
      "properties": {
        "@id": "node/5752357596",
        "highway": "trailhead",
        "name": "Siver Comet at Esom Hill"
      },
      "geometry": {
        "type": "Point",
        "coordinates": [
          -85.3886421,
          33.9523403
        ]
      },
      "id": "node/5752357596"
    },
    {
      "type": "Feature",
      "properties": {
        "@id": "node/5752405975",
        "highway": "trailhead",
        "name": "Silver Comet Trail at Coot's Lake Beach"
      },
      "geometry": {
        "type": "Point",
        "coordinates": [
          -85.0041686,
          33.9769557
        ]
      },
      "id": "node/5752405975"
    },
    {
      "type": "Feature",
      "properties": {
        "@id": "node/5752424962",
        "distance": "20.2 mi",
        "highway": "trailhead",
        "name": "Silver Comet Trail at Tara Drummond"
      },
      "geometry": {
        "type": "Point",
        "coordinates": [
          -84.8408335,
          33.9108245
        ]
      },
      "id": "node/5752424962"
    },
    {
      "type": "Feature",
      "properties": {
        "@id": "node/5824108924",
        "highway": "trailhead"
      },
      "geometry": {
        "type": "Point",
        "coordinates": [
          -81.4637488,
          30.4437999
        ]
      },
      "id": "node/5824108924"
    },
    {
      "type": "Feature",
      "properties": {
        "@id": "node/6167713012",
        "highway": "trailhead",
        "name": "Lake Olmsteads Augusta Canal Trailhead"
      },
      "geometry": {
        "type": "Point",
        "coordinates": [
          -81.9972955,
          33.4947672
        ]
      },
      "id": "node/6167713012"
    },
    {
      "type": "Feature",
      "properties": {
        "@id": "node/6167713026",
        "highway": "trailhead",
        "name": "Mill Village Augusta Canal Trailhead"
      },
      "geometry": {
        "type": "Point",
        "coordinates": [
          -81.9948164,
          33.487914
        ]
      },
      "id": "node/6167713026"
    },
    {
      "type": "Feature",
      "properties": {
        "@id": "node/6338307447",
        "highway": "trailhead",
        "name": "Milliken XC course 5k & 8k Start"
      },
      "geometry": {
        "type": "Point",
        "coordinates": [
          -81.9514186,
          34.9869437
        ]
      },
      "id": "node/6338307447"
    },
    {
      "type": "Feature",
      "properties": {
        "@id": "node/6416828879",
        "highway": "trailhead"
      },
      "geometry": {
        "type": "Point",
        "coordinates": [
          -83.1722959,
          33.3487648
        ]
      },
      "id": "node/6416828879"
    },
    {
      "type": "Feature",
      "properties": {
        "@id": "node/6506381288",
        "access": "yes",
        "bin": "yes",
        "fee": "no",
        "highway": "trailhead",
        "name": "Appalachian Approach Trail Trailhead",
        "parking": "yes",
        "toilets": "yes"
      },
      "geometry": {
        "type": "Point",
        "coordinates": [
          -84.2490989,
          34.5576464
        ]
      },
      "id": "node/6506381288"
    },
    {
      "type": "Feature",
      "properties": {
        "@id": "node/6636126479",
        "addr:city": "Waleska",
        "addr:housenumber": "1411",
        "addr:postcode": "30183",
        "addr:state": "GA",
        "addr:street": "Garland Mountain Way",
        "contact:website": "https://www.playcherokee.org",
        "highway": "trailhead",
        "name": "Garland Mountain Horse & Hiking Trails",
        "operator": "Cherokee Recreation & Parks Agency",
        "website": "https://www.playcherokee.org/228/Garland-Mountain-Horse-Hike-Trails"
      },
      "geometry": {
        "type": "Point",
        "coordinates": [
          -84.6215684,
          34.3656881
        ]
      },
      "id": "node/6636126479"
    },
    {
      "type": "Feature",
      "properties": {
        "@id": "node/6828726561",
        "addr:city": "Spartanburg",
        "addr:housenumber": "211",
        "addr:state": "SC",
        "addr:street": "Sydnor Road",
        "highway": "trailhead",
        "name": "Cottonwood Trail Fernwood Pool Entrance",
        "operator": "SPACE"
      },
      "geometry": {
        "type": "Point",
        "coordinates": [
          -81.8997021,
          34.9517941
        ]
      },
      "id": "node/6828726561"
    },
    {
      "type": "Feature",
      "properties": {
        "@id": "node/6865031230",
        "highway": "trailhead"
      },
      "geometry": {
        "type": "Point",
        "coordinates": [
          -82.6608526,
          34.8976741
        ]
      },
      "id": "node/6865031230"
    },
    {
      "type": "Feature",
      "properties": {
        "@id": "node/6887094738",
        "alt_name": "Kelsey Creek Trail",
        "highway": "trailhead",
        "name": "Palmetto Trail"
      },
      "geometry": {
        "type": "Point",
        "coordinates": [
          -81.8651087,
          34.8953743
        ]
      },
      "id": "node/6887094738"
    },
    {
      "type": "Feature",
      "properties": {
        "@id": "node/7132278802",
        "highway": "trailhead"
      },
      "geometry": {
        "type": "Point",
        "coordinates": [
          -84.3234686,
          33.8410875
        ]
      },
      "id": "node/7132278802"
    },
    {
      "type": "Feature",
      "properties": {
        "@id": "node/7132278864",
        "highway": "trailhead"
      },
      "geometry": {
        "type": "Point",
        "coordinates": [
          -84.3383128,
          33.8334031
        ]
      },
      "id": "node/7132278864"
    },
    {
      "type": "Feature",
      "properties": {
        "@id": "node/7284388829",
        "highway": "trailhead"
      },
      "geometry": {
        "type": "Point",
        "coordinates": [
          -84.9471254,
          30.5687203
        ]
      },
      "id": "node/7284388829"
    },
    {
      "type": "Feature",
      "properties": {
        "@id": "node/7324390389",
        "highway": "trailhead"
      },
      "geometry": {
        "type": "Point",
        "coordinates": [
          -82.2225005,
          33.4908563
        ]
      },
      "id": "node/7324390389"
    },
    {
      "type": "Feature",
      "properties": {
        "@id": "node/7453553098",
        "highway": "trailhead"
      },
      "geometry": {
        "type": "Point",
        "coordinates": [
          -82.852924,
          34.9585406
        ]
      },
      "id": "node/7453553098"
    },
    {
      "type": "Feature",
      "properties": {
        "@id": "node/7477443749",
        "highway": "trailhead",
        "name": "Palmetto Trail"
      },
      "geometry": {
        "type": "Point",
        "coordinates": [
          -80.8892666,
          33.9865005
        ]
      },
      "id": "node/7477443749"
    },
    {
      "type": "Feature",
      "properties": {
        "@id": "node/7515253776",
        "alt_name": "Willy Taco Way",
        "highway": "trailhead",
        "name": "River Birch Trail"
      },
      "geometry": {
        "type": "Point",
        "coordinates": [
          -81.9056935,
          34.9609586
        ]
      },
      "id": "node/7515253776"
    },
    {
      "type": "Feature",
      "properties": {
        "@id": "node/7654232961",
        "highway": "trailhead",
        "name": "Gate House & Locks Trailhead"
      },
      "geometry": {
        "type": "Point",
        "coordinates": [
          -82.0388285,
          33.5502935
        ]
      },
      "id": "node/7654232961"
    },
    {
      "type": "Feature",
      "properties": {
        "@id": "node/8433306144",
        "bicycle": "yes",
        "distance": "52 mi",
        "foot": "yes",
        "highway": "trailhead",
        "name": "Cedartown Depot"
      },
      "geometry": {
        "type": "Point",
        "coordinates": [
          -85.2542282,
          34.0087793
        ]
      },
      "id": "node/8433306144"
    },
    {
      "type": "Feature",
      "properties": {
        "@id": "node/8620261804",
        "highway": "trailhead",
        "name": "Chamber Trailhead"
      },
      "geometry": {
        "type": "Point",
        "coordinates": [
          -84.8286317,
          33.90702
        ]
      },
      "id": "node/8620261804"
    },
    {
      "type": "Feature",
      "properties": {
        "@id": "node/8789669965",
        "description": "trailhead to Hiking Loop/Red Trail",
        "highway": "trailhead"
      },
      "geometry": {
        "type": "Point",
        "coordinates": [
          -83.1745342,
          33.3513267
        ]
      },
      "id": "node/8789669965"
    },
    {
      "type": "Feature",
      "properties": {
        "@id": "node/8789669966",
        "description": "trailhead to Hiking Loop/Red Trail",
        "highway": "trailhead"
      },
      "geometry": {
        "type": "Point",
        "coordinates": [
          -83.17412,
          33.3520082
        ]
      },
      "id": "node/8789669966"
    },
    {
      "type": "Feature",
      "properties": {
        "@id": "node/8789669997",
        "fixme": "needs a .GPX trace for this trail.",
        "highway": "trailhead",
        "name": "McLean's Loop"
      },
      "geometry": {
        "type": "Point",
        "coordinates": [
          -83.1732375,
          33.3526497
        ]
      },
      "id": "node/8789669997"
    },
    {
      "type": "Feature",
      "properties": {
        "@id": "node/8789670016",
        "fixme": "need .GPX trace on McLean's Loop",
        "highway": "trailhead",
        "name": "McLean's Loop"
      },
      "geometry": {
        "type": "Point",
        "coordinates": [
          -83.1692591,
          33.3554392
        ]
      },
      "id": "node/8789670016"
    },
    {
      "type": "Feature",
      "properties": {
        "@id": "node/8815524411",
        "highway": "trailhead",
        "name": "Headgates Pedestrain Bridge Trailhead"
      },
      "geometry": {
        "type": "Point",
        "coordinates": [
          -82.0381125,
          33.5482212
        ]
      },
      "id": "node/8815524411"
    },
    {
      "type": "Feature",
      "properties": {
        "@id": "node/8896556080",
        "highway": "trailhead"
      },
      "geometry": {
        "type": "Point",
        "coordinates": [
          -80.985877,
          34.9918937
        ]
      },
      "id": "node/8896556080"
    },
    {
      "type": "Feature",
      "properties": {
        "@id": "node/9054601046",
        "highway": "trailhead",
        "operator": "Fortner Loop"
      },
      "geometry": {
        "type": "Point",
        "coordinates": [
          -84.3457763,
          34.4205318
        ]
      },
      "id": "node/9054601046"
    },
    {
      "type": "Feature",
      "properties": {
        "@id": "node/9054683404",
        "addr:city": "Jasper",
        "addr:housenumber": "4229",
        "addr:postcode": "30143",
        "addr:state": "GA",
        "addr:street": "Grandview Road",
        "highway": "trailhead",
        "operator": "Grandview Trail"
      },
      "geometry": {
        "type": "Point",
        "coordinates": [
          -84.4107702,
          34.5124332
        ]
      },
      "id": "node/9054683404"
    },
    {
      "type": "Feature",
      "properties": {
        "@id": "node/9054706753",
        "highway": "trailhead",
        "operator": "Grandview Trail"
      },
      "geometry": {
        "type": "Point",
        "coordinates": [
          -84.4267947,
          34.5101264
        ]
      },
      "id": "node/9054706753"
    },
    {
      "type": "Feature",
      "properties": {
        "@id": "node/9054743940",
        "addr:city": "Jasper",
        "addr:postcode": "30143",
        "addr:state": "GA",
        "addr:street": "Dragon Drive",
        "highway": "trailhead",
        "operator": "Sandy Bottoms Trail System"
      },
      "geometry": {
        "type": "Point",
        "coordinates": [
          -84.3973882,
          34.4422705
        ]
      },
      "id": "node/9054743940"
    },
    {
      "type": "Feature",
      "properties": {
        "@id": "node/9054743961",
        "addr:city": "Jasper",
        "addr:postcode": "30143",
        "addr:state": "GA",
        "addr:street": "GA 53",
        "highway": "trailhead",
        "name": "Pool's Pass Exit",
        "operator": "Sandy Bottoms Trail System"
      },
      "geometry": {
        "type": "Point",
        "coordinates": [
          -84.3537611,
          34.4351921
        ]
      },
      "id": "node/9054743961"
    },
    {
      "type": "Feature",
      "properties": {
        "@id": "node/9135409158",
        "access": "yes",
        "fee": "no",
        "highway": "trailhead",
        "name": "Carriage Lane Trailhead"
      },
      "geometry": {
        "type": "Point",
        "coordinates": [
          -83.3516436,
          33.9361443
        ]
      },
      "id": "node/9135409158"
    },
    {
      "type": "Feature",
      "properties": {
        "@id": "node/9641964898",
        "highway": "trailhead",
        "name": "FATS Trailhead South"
      },
      "geometry": {
        "type": "Point",
        "coordinates": [
          -82.0800564,
          33.6079548
        ]
      },
      "id": "node/9641964898"
    },
    {
      "type": "Feature",
      "properties": {
        "@id": "node/9757866346",
        "highway": "trailhead",
        "name": "Rocktown Trailhead"
      },
      "geometry": {
        "type": "Point",
        "coordinates": [
          -85.3898862,
          34.6589302
        ]
      },
      "id": "node/9757866346"
    },
    {
      "type": "Feature",
      "properties": {
        "@id": "node/9797763334",
        "highway": "trailhead",
        "name": "Alabama Street Trailhead"
      },
      "geometry": {
        "type": "Point",
        "coordinates": [
          -85.1052204,
          33.5891485
        ]
      },
      "id": "node/9797763334"
    },
    {
      "type": "Feature",
      "properties": {
        "@id": "node/9826800073",
        "access": "yes",
        "highway": "trailhead",
        "name": "Somerby Woods",
        "operator": "City of Peachtree City"
      },
      "geometry": {
        "type": "Point",
        "coordinates": [
          -84.5362547,
          33.3379184
        ]
      },
      "id": "node/9826800073"
    },
    {
      "type": "Feature",
      "properties": {
        "@id": "node/9864859758",
        "highway": "trailhead",
        "source": "trailhead"
      },
      "geometry": {
        "type": "Point",
        "coordinates": [
          -83.9979409,
          33.6613942
        ]
      },
      "id": "node/9864859758"
    },
    {
      "type": "Feature",
      "properties": {
        "@id": "node/9864862825",
        "access": "yes",
        "addr:city": "Dallas",
        "addr:postcode": "30132",
        "addr:state": "GA",
        "fee": "no",
        "highway": "trailhead",
        "name": "Silver Comet at McPherson Church"
      },
      "geometry": {
        "type": "Point",
        "coordinates": [
          -84.9163746,
          33.9449923
        ]
      },
      "id": "node/9864862825"
    },
    {
      "type": "Feature",
      "properties": {
        "@id": "node/9869198991",
        "highway": "trailhead"
      },
      "geometry": {
        "type": "Point",
        "coordinates": [
          -81.7222783,
          30.9584771
        ]
      },
      "id": "node/9869198991"
    },
    {
      "type": "Feature",
      "properties": {
        "@id": "node/10028909902",
        "highway": "trailhead"
      },
      "geometry": {
        "type": "Point",
        "coordinates": [
          -84.2922984,
          30.8909007
        ]
      },
      "id": "node/10028909902"
    },
    {
      "type": "Feature",
      "properties": {
        "@id": "node/10188040332",
        "highway": "trailhead"
      },
      "geometry": {
        "type": "Point",
        "coordinates": [
          -84.9503359,
          30.5691099
        ]
      },
      "id": "node/10188040332"
    },
    {
      "type": "Feature",
      "properties": {
        "@id": "node/10220447292",
        "highway": "trailhead"
      },
      "geometry": {
        "type": "Point",
        "coordinates": [
          -84.3354596,
          33.834987
        ]
      },
      "id": "node/10220447292"
    },
    {
      "type": "Feature",
      "properties": {
        "@id": "node/10248073803",
        "highway": "trailhead"
      },
      "geometry": {
        "type": "Point",
        "coordinates": [
          -84.2829934,
          30.5366247
        ]
      },
      "id": "node/10248073803"
    },
    {
      "type": "Feature",
      "properties": {
        "@id": "node/10287855680",
        "access": "yes",
        "fee": "no",
        "highway": "trailhead",
        "name": "Lindsay Pettus Greenway-Trail Access at Barr Street Learning Center"
      },
      "geometry": {
        "type": "Point",
        "coordinates": [
          -80.7650195,
          34.7275634
        ]
      },
      "id": "node/10287855680"
    },
    {
      "type": "Feature",
      "properties": {
        "@id": "node/10287855694",
        "highway": "trailhead",
        "name": "Lindsay Pettus Greenway Neighborhood Access Point-Almetta Street"
      },
      "geometry": {
        "type": "Point",
        "coordinates": [
          -80.7659722,
          34.7292776
        ]
      },
      "id": "node/10287855694"
    },
    {
      "type": "Feature",
      "properties": {
        "@id": "node/10287855696",
        "highway": "trailhead",
        "name": "Lindsay Pettus Greenway-Trail Access at Main Street"
      },
      "geometry": {
        "type": "Point",
        "coordinates": [
          -80.7757573,
          34.72951
        ]
      },
      "id": "node/10287855696"
    },
    {
      "type": "Feature",
      "properties": {
        "@id": "node/10597103946",
        "highway": "trailhead"
      },
      "geometry": {
        "type": "Point",
        "coordinates": [
          -84.0928596,
          30.4541622
        ]
      },
      "id": "node/10597103946"
    },
    {
      "type": "Feature",
      "properties": {
        "@id": "node/10693311703",
        "access": "yes",
        "fee": "no",
        "highway": "trailhead",
        "name": "Line Creek Trails Trailhead",
        "operator": "City of Peachtree City"
      },
      "geometry": {
        "type": "Point",
        "coordinates": [
          -84.604088,
          33.39367
        ]
      },
      "id": "node/10693311703"
    },
    {
      "type": "Feature",
      "properties": {
        "@id": "node/10698599630",
        "highway": "trailhead",
        "name": "Mvskoke En'nenuce",
        "name:en": "Trail of the Muscogee"
      },
      "geometry": {
        "type": "Point",
        "coordinates": [
          -84.1401006,
          33.818923
        ]
      },
      "id": "node/10698599630"
    },
    {
      "type": "Feature",
      "properties": {
        "@id": "node/10811661255",
        "access": "yes",
        "highway": "trailhead",
        "name": "Sugar Hill Greenway",
        "operator": "City of Sugar Hill"
      },
      "geometry": {
        "type": "Point",
        "coordinates": [
          -84.0764898,
          34.1014731
        ]
      },
      "id": "node/10811661255"
    },
    {
      "type": "Feature",
      "properties": {
        "@id": "node/10822353707",
        "highway": "trailhead"
      },
      "geometry": {
        "type": "Point",
        "coordinates": [
          -81.4310395,
          30.4351027
        ]
      },
      "id": "node/10822353707"
    },
    {
      "type": "Feature",
      "properties": {
        "@id": "node/10929675988",
        "highway": "trailhead"
      },
      "geometry": {
        "type": "Point",
        "coordinates": [
          -80.9080604,
          34.0920052
        ]
      },
      "id": "node/10929675988"
    },
    {
      "type": "Feature",
      "properties": {
        "@id": "node/10942516331",
        "access": "yes",
        "addr:city": "Quincy",
        "addr:housenumber": "730",
        "addr:state": "FL",
        "addr:street": "Cook's Landing Road",
        "fee": "yes",
        "highway": "trailhead",
        "name": "W. D. Lines Trails",
        "operator": "Lake Talquin State Forest"
      },
      "geometry": {
        "type": "Point",
        "coordinates": [
          -84.6336327,
          30.4402919
        ]
      },
      "id": "node/10942516331"
    },
    {
      "type": "Feature",
      "properties": {
        "@id": "node/11071504039",
        "highway": "trailhead",
        "name": "Birchmore Trail"
      },
      "geometry": {
        "type": "Point",
        "coordinates": [
          -83.3875772,
          33.9274328
        ]
      },
      "id": "node/11071504039"
    },
    {
      "type": "Feature",
      "properties": {
        "@id": "node/11084700986",
        "highway": "trailhead",
        "name": "Kelsey Creek Trail"
      },
      "geometry": {
        "type": "Point",
        "coordinates": [
          -81.8762626,
          34.9089481
        ]
      },
      "id": "node/11084700986"
    },
    {
      "type": "Feature",
      "properties": {
        "@id": "node/11085042285",
        "highway": "trailhead",
        "name": "Euchee Creek Greenway Columbia Road Trailhead"
      },
      "geometry": {
        "type": "Point",
        "coordinates": [
          -82.2303211,
          33.5169929
        ]
      },
      "id": "node/11085042285"
    },
    {
      "type": "Feature",
      "properties": {
        "@id": "node/11085042286",
        "highway": "trailhead",
        "name": "Euchee Creek Greenway Patriots Park Trailhead"
      },
      "geometry": {
        "type": "Point",
        "coordinates": [
          -82.2302873,
          33.5230455
        ]
      },
      "id": "node/11085042286"
    },
    {
      "type": "Feature",
      "properties": {
        "@id": "node/11251733427",
        "highway": "trailhead"
      },
      "geometry": {
        "type": "Point",
        "coordinates": [
          -84.1609175,
          34.2296701
        ]
      },
      "id": "node/11251733427"
    },
    {
      "type": "Feature",
      "properties": {
        "@id": "node/11928934637",
        "addr:city": "Winder",
        "addr:housenumber": "41",
        "addr:state": "GA",
        "addr:street": "Lee Street",
        "highway": "trailhead",
        "name": "Wilkins Greenway Trailhead"
      },
      "geometry": {
        "type": "Point",
        "coordinates": [
          -83.725473,
          33.987371
        ]
      },
      "id": "node/11928934637"
    },
    {
      "type": "Feature",
      "properties": {
        "@id": "node/12444696791",
        "access": "yes",
        "highway": "trailhead",
        "name": "Woody Gap Trailhead",
        "website": "https://www.fs.usda.gov/recarea/conf/recarea/?recid=10541"
      },
      "geometry": {
        "type": "Point",
        "coordinates": [
          -83.9995874,
          34.6779288
        ]
      },
      "id": "node/12444696791"
    },
    {
      "type": "Feature",
      "properties": {
        "@id": "node/12734543934",
        "access": "yes",
        "fee": "no",
        "highway": "trailhead",
        "name": "Sutallee Trace Trailhead (Boling)",
        "operator": "Sutallee Trace Stewards"
      },
      "geometry": {
        "type": "Point",
        "coordinates": [
          -84.5046518,
          34.236685
        ]
      },
      "id": "node/12734543934"
    },
    {
      "type": "Feature",
      "properties": {
        "@id": "node/12737523555",
        "access": "yes",
        "fee": "no",
        "hashtags": "#SutalleeTraceTrail",
        "highway": "trailhead",
        "name": "Sutallee Trace Trailhead (Hightower Church)",
        "operator": "Sutallee Trace Stewards",
        "website": "https://www.etowahhikingtrails.org/"
      },
      "geometry": {
        "type": "Point",
        "coordinates": [
          -84.5219379,
          34.2406716
        ]
      },
      "id": "node/12737523555"
    },
    {
      "type": "Feature",
      "properties": {
        "@id": "node/12737812430",
        "access": "yes",
        "fee": "no",
        "hashtags": "#SutalleeTraceTrail",
        "highway": "trailhead",
        "name": "Sutallee Trace Trailhead (Orange)",
        "operator": "Sutallee Trace Stewards",
        "website": "https://www.etowahhikingtrails.org/"
      },
      "geometry": {
        "type": "Point",
        "coordinates": [
          -84.5224944,
          34.2421684
        ]
      },
      "id": "node/12737812430"
    },
    {
      "type": "Feature",
      "properties": {
        "@id": "node/12849956914",
        "highway": "trailhead"
      },
      "geometry": {
        "type": "Point",
        "coordinates": [
          -84.7014594,
          34.1391168
        ]
      },
      "id": "node/12849956914"
    },
    {
      "type": "Feature",
      "properties": {
        "@id": "node/13013615141",
        "highway": "trailhead",
        "name": "River Birch Trail"
      },
      "geometry": {
        "type": "Point",
        "coordinates": [
          -81.8998384,
          34.9524684
        ]
      },
      "id": "node/13013615141"
    },
    {
      "type": "Feature",
      "properties": {
        "@id": "node/13013615142",
        "highway": "trailhead",
        "name": "Cottonwood Trail Beechwood Entrance",
        "operator": "SPACE"
      },
      "geometry": {
        "type": "Point",
        "coordinates": [
          -81.891848,
          34.9529459
        ]
      },
      "id": "node/13013615142"
    },
    {
      "type": "Feature",
      "properties": {
        "@id": "node/13013615143",
        "highway": "trailhead",
        "name": "Cottonwood Trail Woodburn Rd Entrance"
      },
      "geometry": {
        "type": "Point",
        "coordinates": [
          -81.8900044,
          34.9479228
        ]
      },
      "id": "node/13013615143"
    },
    {
      "type": "Feature",
      "properties": {
        "@id": "node/13013625514",
        "highway": "trailhead",
        "name": "Three Creeks Trail"
      },
      "geometry": {
        "type": "Point",
        "coordinates": [
          -81.9637466,
          34.9418471
        ]
      },
      "id": "node/13013625514"
    },
    {
      "type": "Feature",
      "properties": {
        "@id": "node/13013628846",
        "highway": "trailhead"
      },
      "geometry": {
        "type": "Point",
        "coordinates": [
          -81.8343709,
          34.8606741
        ]
      },
      "id": "node/13013628846"
    },
    {
      "type": "Feature",
      "properties": {
        "@id": "node/13013631758",
        "highway": "trailhead",
        "name": "Drayton Mills Trail"
      },
      "geometry": {
        "type": "Point",
        "coordinates": [
          -81.9093334,
          34.9689424
        ]
      },
      "id": "node/13013631758"
    },
    {
      "type": "Feature",
      "properties": {
        "@id": "node/13013651525",
        "highway": "trailhead",
        "name": "Mary Black Rail Trail"
      },
      "geometry": {
        "type": "Point",
        "coordinates": [
          -81.9214962,
          34.947501
        ]
      },
      "id": "node/13013651525"
    },
    {
      "type": "Feature",
      "properties": {
        "@id": "node/13013651526",
        "highway": "trailhead",
        "name": "Mary Black Rail Trail"
      },
      "geometry": {
        "type": "Point",
        "coordinates": [
          -81.914891,
          34.9454773
        ]
      },
      "id": "node/13013651526"
    },
    {
      "type": "Feature",
      "properties": {
        "@id": "node/13013651527",
        "highway": "trailhead"
      },
      "geometry": {
        "type": "Point",
        "coordinates": [
          -81.9018384,
          34.9369783
        ]
      },
      "id": "node/13013651527"
    },
    {
      "type": "Feature",
      "properties": {
        "@id": "node/13013673733",
        "highway": "trailhead",
        "name": "Glendale Shoals Trail"
      },
      "geometry": {
        "type": "Point",
        "coordinates": [
          -81.8384613,
          34.9422587
        ]
      },
      "id": "node/13013673733"
    },
    {
      "type": "Feature",
      "properties": {
        "@id": "node/13020057125",
        "fee": "no",
        "highway": "trailhead",
        "name": "Upper Chinquapin Greenway",
        "operator": "SPACE"
      },
      "geometry": {
        "type": "Point",
        "coordinates": [
          -81.9538596,
          34.9805678
        ]
      },
      "id": "node/13020057125"
    },
    {
      "type": "Feature",
      "properties": {
        "@id": "node/13020075979",
        "highway": "trailhead",
        "name": "Upper Chinquapin Greenway"
      },
      "geometry": {
        "type": "Point",
        "coordinates": [
          -81.962629,
          34.9842198
        ]
      },
      "id": "node/13020075979"
    },
    {
      "type": "Feature",
      "properties": {
        "@id": "node/13020076097",
        "highway": "trailhead"
      },
      "geometry": {
        "type": "Point",
        "coordinates": [
          -81.9607998,
          34.9814297
        ]
      },
      "id": "node/13020076097"
    },
    {
      "type": "Feature",
      "properties": {
        "@id": "node/13020076098",
        "highway": "trailhead",
        "name": "Upper Chinquapin Greenway"
      },
      "geometry": {
        "type": "Point",
        "coordinates": [
          -81.9635789,
          34.9845821
        ]
      },
      "id": "node/13020076098"
    },
    {
      "type": "Feature",
      "properties": {
        "@id": "node/13207675550",
        "highway": "trailhead",
        "name": "FATS Trailhead North"
      },
      "geometry": {
        "type": "Point",
        "coordinates": [
          -82.1141132,
          33.6145036
        ]
      },
      "id": "node/13207675550"
    },
    {
      "type": "Feature",
      "properties": {
        "@id": "node/13227707785",
        "access": "yes",
        "fee": "no",
        "highway": "trailhead",
        "name": "Coach Mike Castronis Memorial Athletic Trails"
      },
      "geometry": {
        "type": "Point",
        "coordinates": [
          -83.3706927,
          33.9322651
        ]
      },
      "id": "node/13227707785"
    },
    {
      "type": "Feature",
      "properties": {
        "@id": "node/13406656516",
        "access": "yes",
        "fee": "no",
        "highway": "trailhead",
        "name": "Garden of Eden Trailhead"
      },
      "geometry": {
        "type": "Point",
        "coordinates": [
          -84.9705151,
          30.4547486
        ]
      },
      "id": "node/13406656516"
    },
    {
      "type": "Feature",
      "properties": {
        "@id": "node/13462535011",
        "highway": "trailhead"
      },
      "geometry": {
        "type": "Point",
        "coordinates": [
          -81.782903,
          33.5900296
        ]
      },
      "id": "node/13462535011"
    },
    {
      "type": "Feature",
      "properties": {
        "@id": "node/13473725215",
        "highway": "trailhead",
        "name": "Rambo Trailhead"
      },
      "geometry": {
        "type": "Point",
        "coordinates": [
          -84.8683918,
          33.9150631
        ]
      },
      "id": "node/13473725215"
    }
  ]
}