{
  "type": "FeatureCollection",
  "generator": "overpass-turbo",
  "copyright": "The data included in this document is from www.openstreetmap.org. The data is made available under ODbL.",
  "timestamp": "2026-06-27T23:26:30Z",
  "features": [
    {
      "type": "Feature",
      "properties": {
        "@id": "way/78329129",
        "addr:city": "Chattanooga",
        "addr:housenumber": "427",
        "addr:postcode": "37408",
        "addr:state": "TN",
        "addr:street": "East Main Street",
        "amenity": "bouldering-pad_rental",
        "building": "yes",
        "leisure": "sports_centre",
        "name": "Synergy Climbing and Ninja",
        "source": "USGS Ortho;local knowledge",
        "sport": "climbing",
        "@geometry": "center"
      },
      "geometry": {
        "type": "Point",
        "coordinates": [
          -85.302039,
          35.0351419
        ]
      },
      "id": "way/78329129"
    },
    {
      "type": "Feature",
      "properties": {
        "@id": "way/146630029",
        "alt_name": "Little Rock City (LRC)",
        "climbing": "area",
        "name": "Stone Fort Bouldering Area",
        "sport": "climbing",
        "@geometry": "center"
      },
      "geometry": {
        "type": "Point",
        "coordinates": [
          -85.2176896,
          35.2503509
        ]
      },
      "id": "way/146630029"
    },
    {
      "type": "Feature",
      "properties": {
        "@id": "way/303563727",
        "alt_name": "COPE Tower",
        "building": "yes",
        "building:levels": "6",
        "building:material": "wood",
        "building:min_level": "0",
        "height": "60 ft",
        "leisure": "sports_centre",
        "man_made": "tower",
        "min_height": "0",
        "name": "Al Henderikson COPE Tower",
        "operator": "Middle Tennessee Council",
        "roof:height": "3 ft",
        "roof:material": "metal",
        "roof:orientation": "across",
        "roof:shape": "gabled",
        "sport": "climbing",
        "@geometry": "center"
      },
      "geometry": {
        "type": "Point",
        "coordinates": [
          -86.4583806,
          36.3200126
        ]
      },
      "id": "way/303563727"
    },
    {
      "type": "Feature",
      "properties": {
        "@id": "way/349876583",
        "leisure": "sports_centre",
        "name": "COPE Course at Boxwell",
        "sport": "climbing",
        "@geometry": "center"
      },
      "geometry": {
        "type": "Point",
        "coordinates": [
          -86.4577978,
          36.3200384
        ]
      },
      "id": "way/349876583"
    },
    {
      "type": "Feature",
      "properties": {
        "@id": "way/350367479",
        "aerialway": "zip_line",
        "leisure": "sports_centre",
        "name": "Boxwell Zip Line",
        "sport": "climbing",
        "@geometry": "center"
      },
      "geometry": {
        "type": "Point",
        "coordinates": [
          -86.4624982,
          36.317108
        ]
      },
      "id": "way/350367479"
    },
    {
      "type": "Feature",
      "properties": {
        "@id": "node/571527812",
        "sport": "climbing"
      },
      "geometry": {
        "type": "Point",
        "coordinates": [
          -85.2980263,
          35.0597887
        ]
      },
      "id": "node/571527812"
    },
    {
      "type": "Feature",
      "properties": {
        "@id": "way/701573153",
        "addr:city": "Taylors",
        "addr:housenumber": "301",
        "addr:postcode": "29687",
        "addr:state": "SC",
        "addr:street": "Bulls Road",
        "building": "yes",
        "leisure": "sports_centre",
        "name": "Climb Blue Ridge",
        "sport": "climbing",
        "website": "https://www.climbbr.com/",
        "@geometry": "center"
      },
      "geometry": {
        "type": "Point",
        "coordinates": [
          -82.3345297,
          34.9938676
        ]
      },
      "id": "way/701573153"
    },
    {
      "type": "Feature",
      "properties": {
        "@id": "way/778335191",
        "building": "yes",
        "leisure": "sports_centre",
        "name": "Memphis Rox",
        "sport": "climbing",
        "@geometry": "center"
      },
      "geometry": {
        "type": "Point",
        "coordinates": [
          -90.032704,
          35.1151565
        ]
      },
      "id": "way/778335191"
    },
    {
      "type": "Feature",
      "properties": {
        "@id": "way/1054950978",
        "addr:city": "Knoxville",
        "addr:housenumber": "5335",
        "addr:postcode": "37921",
        "addr:state": "TN",
        "addr:street": "Western Avenue",
        "building": "yes",
        "leisure": "sports_centre",
        "name": "Onsight Rock Gym",
        "sport": "climbing",
        "@geometry": "center"
      },
      "geometry": {
        "type": "Point",
        "coordinates": [
          -84.008918,
          35.9767608
        ]
      },
      "id": "way/1054950978"
    },
    {
      "type": "Feature",
      "properties": {
        "@id": "way/1301674544",
        "building": "yes",
        "leisure": "sports_centre",
        "sport": "climbing",
        "@geometry": "center"
      },
      "geometry": {
        "type": "Point",
        "coordinates": [
          -82.4762405,
          35.1916084
        ]
      },
      "id": "way/1301674544"
    },
    {
      "type": "Feature",
      "properties": {
        "@id": "way/1323460239",
        "building": "yes",
        "leisure": "sports_centre",
        "name": "Riveter",
        "sport": "climbing",
        "@geometry": "center"
      },
      "geometry": {
        "type": "Point",
        "coordinates": [
          -82.5452567,
          35.4284623
        ]
      },
      "id": "way/1323460239"
    },
    {
      "type": "Feature",
      "properties": {
        "@id": "way/1484719775",
        "building": "yes",
        "leisure": "sports_centre",
        "name": "High Point Climbing and Fitness",
        "sport": "climbing",
        "@geometry": "center"
      },
      "geometry": {
        "type": "Point",
        "coordinates": [
          -89.8582756,
          35.1321066
        ]
      },
      "id": "way/1484719775"
    },
    {
      "type": "Feature",
      "properties": {
        "@id": "node/2223141607",
        "name": "Buzzard Point",
        "natural": "peak",
        "source": "UTC Regional Resource Inventory",
        "sport": "climbing"
      },
      "geometry": {
        "type": "Point",
        "coordinates": [
          -85.0303056,
          35.5376321
        ]
      },
      "id": "node/2223141607"
    },
    {
      "type": "Feature",
      "properties": {
        "@id": "node/2223141610",
        "name": "Castle Rock",
        "source": "UTC Regional Resource Inventory",
        "sport": "climbing"
      },
      "geometry": {
        "type": "Point",
        "coordinates": [
          -85.6317634,
          35.1038345
        ]
      },
      "id": "node/2223141610"
    },
    {
      "type": "Feature",
      "properties": {
        "@id": "node/2223141615",
        "name": "Cumberland boulders",
        "source": "UTC Regional Resource Inventory",
        "sport": "climbing"
      },
      "geometry": {
        "type": "Point",
        "coordinates": [
          -85.1974459,
          35.2569212
        ]
      },
      "id": "node/2223141615"
    },
    {
      "type": "Feature",
      "properties": {
        "@id": "node/2223141619",
        "name": "Dayton Pocket Boulders",
        "natural": "rock",
        "source": "UTC Regional Resource Inventory",
        "sport": "climbing"
      },
      "geometry": {
        "type": "Point",
        "coordinates": [
          -85.0233869,
          35.5288862
        ]
      },
      "id": "node/2223141619"
    },
    {
      "type": "Feature",
      "properties": {
        "@id": "node/2223141623",
        "name": "Deep Creek",
        "source": "UTC Regional Resource Inventory",
        "sport": "climbing"
      },
      "geometry": {
        "type": "Point",
        "coordinates": [
          -85.1962775,
          35.2945268
        ]
      },
      "id": "node/2223141623"
    },
    {
      "type": "Feature",
      "properties": {
        "@id": "node/2223141640",
        "name": "Leda",
        "source": "UTC Regional Resource Inventory",
        "sport": "climbing"
      },
      "geometry": {
        "type": "Point",
        "coordinates": [
          -85.2295693,
          35.2361141
        ]
      },
      "id": "node/2223141640"
    },
    {
      "type": "Feature",
      "properties": {
        "@id": "node/2223141644",
        "name": "Middle Earth",
        "source": "UTC Regional Resource Inventory",
        "sport": "climbing"
      },
      "geometry": {
        "type": "Point",
        "coordinates": [
          -85.3731968,
          35.1248496
        ]
      },
      "id": "node/2223141644"
    },
    {
      "type": "Feature",
      "properties": {
        "@id": "node/2223141648",
        "name": "Starr Mountain",
        "source": "UTC Regional Resource Inventory",
        "sport": "climbing"
      },
      "geometry": {
        "type": "Point",
        "coordinates": [
          -84.5276204,
          35.2252641
        ]
      },
      "id": "node/2223141648"
    },
    {
      "type": "Feature",
      "properties": {
        "@id": "node/2223141649",
        "leisure": "sports_centre",
        "name": "Stone Fort aka LRC",
        "source": "UTC Regional Resource Inventory",
        "sport": "climbing"
      },
      "geometry": {
        "type": "Point",
        "coordinates": [
          -85.2204344,
          35.2476526
        ]
      },
      "id": "node/2223141649"
    },
    {
      "type": "Feature",
      "properties": {
        "@id": "node/2223141650",
        "name": "Suck Creek",
        "source": "UTC Regional Resource Inventory",
        "sport": "climbing"
      },
      "geometry": {
        "type": "Point",
        "coordinates": [
          -85.3918977,
          35.1475534
        ]
      },
      "id": "node/2223141650"
    },
    {
      "type": "Feature",
      "properties": {
        "@id": "node/2223141651",
        "name": "Sunset Rock",
        "source": "UTC Regional Resource Inventory",
        "sport": "climbing",
        "tourism": "viewpoint"
      },
      "geometry": {
        "type": "Point",
        "coordinates": [
          -85.3548868,
          35.0017537
        ]
      },
      "id": "node/2223141651"
    },
    {
      "type": "Feature",
      "properties": {
        "@id": "node/2223141653",
        "name": "Tennessee Wall",
        "natural": "cliff",
        "source": "UTC Regional Resource Inventory",
        "sport": "climbing"
      },
      "geometry": {
        "type": "Point",
        "coordinates": [
          -85.4025671,
          35.0739791
        ]
      },
      "id": "node/2223141653"
    },
    {
      "type": "Feature",
      "properties": {
        "@id": "node/2223141654",
        "name": "Urban Rocks Gym",
        "source": "UTC Regional Resource Inventory",
        "sport": "climbing"
      },
      "geometry": {
        "type": "Point",
        "coordinates": [
          -85.2653948,
          35.072404
        ]
      },
      "id": "node/2223141654"
    },
    {
      "type": "Feature",
      "properties": {
        "@id": "node/3678294570",
        "leisure": "sports_centre",
        "name": "The Ascent",
        "sport": "climbing"
      },
      "geometry": {
        "type": "Point",
        "coordinates": [
          -86.3968703,
          35.8337298
        ]
      },
      "id": "node/3678294570"
    },
    {
      "type": "Feature",
      "properties": {
        "@id": "node/5003235238",
        "addr:housenumber": "219",
        "addr:postcode": "37402",
        "addr:street": "Broad Street",
        "check_date": "2026-03-29",
        "check_date:opening_hours": "2026-03-29",
        "leisure": "sports_centre",
        "name": "High Point Climbing Gym",
        "opening_hours": "Mo-Fr 06:00-22:00; Sa 10:00-22:00; Su 10:00-20:00",
        "phone": "+1-423-602-7625",
        "sport": "climbing",
        "website": "https://www.highpointclimbing.com/locations/downtown"
      },
      "geometry": {
        "type": "Point",
        "coordinates": [
          -85.310981,
          35.0540679
        ]
      },
      "id": "node/5003235238"
    },
    {
      "type": "Feature",
      "properties": {
        "@id": "node/6391678583",
        "climbing": "crag",
        "name": "Ijams Crag",
        "sport": "climbing"
      },
      "geometry": {
        "type": "Point",
        "coordinates": [
          -83.8771972,
          35.9442494
        ]
      },
      "id": "node/6391678583"
    },
    {
      "type": "Feature",
      "properties": {
        "@id": "node/8677809892",
        "leisure": "sports_centre",
        "name": "Climb Murfreesboro",
        "sport": "climbing"
      },
      "geometry": {
        "type": "Point",
        "coordinates": [
          -86.386989,
          35.8660697
        ]
      },
      "id": "node/8677809892"
    },
    {
      "type": "Feature",
      "properties": {
        "@id": "node/10060036567",
        "addr:city": "Boone",
        "addr:housenumber": "131",
        "addr:postcode": "28607",
        "addr:state": "NC",
        "addr:street": "Depot Street",
        "leisure": "sports_centre",
        "name": "Rock Dimensions Climbing Guides",
        "sport": "climbing"
      },
      "geometry": {
        "type": "Point",
        "coordinates": [
          -81.6842354,
          36.2182605
        ]
      },
      "id": "node/10060036567"
    },
    {
      "type": "Feature",
      "properties": {
        "@id": "node/10736179544",
        "climbing": "boulder",
        "natural": "rock",
        "sport": "climbing"
      },
      "geometry": {
        "type": "Point",
        "coordinates": [
          -85.3162549,
          35.1370778
        ]
      },
      "id": "node/10736179544"
    },
    {
      "type": "Feature",
      "properties": {
        "@id": "node/11050017953",
        "addr:housenumber": "1007",
        "addr:street": "Appling Street",
        "check_date": "2023-07-16",
        "fee": "yes",
        "leisure": "sports_centre",
        "name": "High Point Climbing Riverside",
        "operator:type": "private",
        "sport": "climbing"
      },
      "geometry": {
        "type": "Point",
        "coordinates": [
          -85.2654621,
          35.0724024
        ]
      },
      "id": "node/11050017953"
    },
    {
      "type": "Feature",
      "properties": {
        "@id": "node/12186594605",
        "climbing": "boulder",
        "name": "The Mountain",
        "natural": "rock",
        "sport": "climbing"
      },
      "geometry": {
        "type": "Point",
        "coordinates": [
          -85.3329896,
          35.0137844
        ]
      },
      "id": "node/12186594605"
    },
    {
      "type": "Feature",
      "properties": {
        "@id": "node/12186594606",
        "climbing": "boulder",
        "name": "Luna",
        "natural": "rock",
        "sport": "climbing"
      },
      "geometry": {
        "type": "Point",
        "coordinates": [
          -85.333205,
          35.0132657
        ]
      },
      "id": "node/12186594606"
    },
    {
      "type": "Feature",
      "properties": {
        "@id": "node/13249890146",
        "climbing": "route",
        "name": "Horse Pen Point (Latimer Bluffs)",
        "sport": "climbing"
      },
      "geometry": {
        "type": "Point",
        "coordinates": [
          -85.2804557,
          35.804951
        ]
      },
      "id": "node/13249890146"
    }
  ]
}