{
  "type": "FeatureCollection",
  "generator": "overpass-turbo",
  "copyright": "The data included in this document is from www.openstreetmap.org. The data is made available under ODbL.",
  "timestamp": "2026-06-27T23:25:30Z",
  "features": [
    {
      "type": "Feature",
      "properties": {
        "@id": "node/113024000",
        "highway": "trailhead"
      },
      "geometry": {
        "type": "Point",
        "coordinates": [
          -82.479037,
          35.085758
        ]
      },
      "id": "node/113024000"
    },
    {
      "type": "Feature",
      "properties": {
        "@id": "node/171501738",
        "highway": "trailhead",
        "name": "Cataloochee Horse Trailhead"
      },
      "geometry": {
        "type": "Point",
        "coordinates": [
          -83.0881007,
          35.6314193
        ]
      },
      "id": "node/171501738"
    },
    {
      "type": "Feature",
      "properties": {
        "@id": "node/172124050",
        "highway": "trailhead"
      },
      "geometry": {
        "type": "Point",
        "coordinates": [
          -82.184338,
          35.7254214
        ]
      },
      "id": "node/172124050"
    },
    {
      "type": "Feature",
      "properties": {
        "@id": "node/173479303",
        "highway": "trailhead",
        "name": "Smokemont Loop Trail Trailhead",
        "operator": "National Park Service"
      },
      "geometry": {
        "type": "Point",
        "coordinates": [
          -83.3118794,
          35.5558319
        ]
      },
      "id": "node/173479303"
    },
    {
      "type": "Feature",
      "properties": {
        "@id": "node/173479329",
        "fee": "yes",
        "highway": "trailhead",
        "horse": "yes",
        "name": "Tow String Horse Trail Trailhead",
        "official_name": "Tow String Horse Camp",
        "operator": "National Park Service",
        "source": "NPS"
      },
      "geometry": {
        "type": "Point",
        "coordinates": [
          -83.2998707,
          35.5437226
        ]
      },
      "id": "node/173479329"
    },
    {
      "type": "Feature",
      "properties": {
        "@id": "node/173492582",
        "highway": "trailhead",
        "name": "Newton Bald Trail Trailhead",
        "operator": "National Park Service"
      },
      "geometry": {
        "type": "Point",
        "coordinates": [
          -83.3098246,
          35.5528039
        ]
      },
      "id": "node/173492582"
    },
    {
      "type": "Feature",
      "properties": {
        "@id": "node/173501710",
        "highway": "trailhead",
        "name": "Bradley Fork Trail Trailhead",
        "operator": "National Park Service",
        "source": "NPS"
      },
      "geometry": {
        "type": "Point",
        "coordinates": [
          -83.3105615,
          35.5630251
        ]
      },
      "id": "node/173501710"
    },
    {
      "type": "Feature",
      "properties": {
        "@id": "node/173539159",
        "highway": "trailhead",
        "name": "Beech Gap Trail Trailhead",
        "operator": "National Park Service",
        "source": "NPS"
      },
      "geometry": {
        "type": "Point",
        "coordinates": [
          -83.2114172,
          35.6241229
        ]
      },
      "id": "node/173539159"
    },
    {
      "type": "Feature",
      "properties": {
        "@id": "node/173539466",
        "highway": "trailhead",
        "name": "Balsam Mountain Trail Trailhead",
        "operator": "National Park Service"
      },
      "geometry": {
        "type": "Point",
        "coordinates": [
          -83.1790804,
          35.6336154
        ]
      },
      "id": "node/173539466"
    },
    {
      "type": "Feature",
      "properties": {
        "@id": "node/173546024",
        "highway": "trailhead",
        "name": "Newton Bald Concession Horse Trail Loop Trailhead",
        "operator": "National Park Service"
      },
      "geometry": {
        "type": "Point",
        "coordinates": [
          -83.3091498,
          35.5489798
        ]
      },
      "id": "node/173546024"
    },
    {
      "type": "Feature",
      "properties": {
        "@id": "node/201819888",
        "highway": "trailhead",
        "name": "Turkeypen Ridge Trail Trailhead"
      },
      "geometry": {
        "type": "Point",
        "coordinates": [
          -83.7449995,
          35.6066148
        ]
      },
      "id": "node/201819888"
    },
    {
      "type": "Feature",
      "properties": {
        "@id": "node/201997628",
        "highway": "trailhead",
        "name": "Osborne Farm Trailhead",
        "operator": "US Forest Service",
        "website": "https://www.fs.usda.gov/recarea/cherokee/recarea/?recid=34920"
      },
      "geometry": {
        "type": "Point",
        "coordinates": [
          -81.9605787,
          36.481342
        ]
      },
      "id": "node/201997628"
    },
    {
      "type": "Feature",
      "properties": {
        "@id": "node/202304218",
        "highway": "trailhead"
      },
      "geometry": {
        "type": "Point",
        "coordinates": [
          -86.940935,
          36.053034
        ]
      },
      "id": "node/202304218"
    },
    {
      "type": "Feature",
      "properties": {
        "@id": "node/202455032",
        "highway": "trailhead",
        "name": "Shadow Lane Community Connector Trailhead"
      },
      "geometry": {
        "type": "Point",
        "coordinates": [
          -86.7066036,
          36.1859759
        ]
      },
      "id": "node/202455032"
    },
    {
      "type": "Feature",
      "properties": {
        "@id": "node/202761884",
        "highway": "trailhead",
        "name": "Stringers Ridge West Bell Avenue Trailhead"
      },
      "geometry": {
        "type": "Point",
        "coordinates": [
          -85.3176915,
          35.0726742
        ]
      },
      "id": "node/202761884"
    },
    {
      "type": "Feature",
      "properties": {
        "@id": "node/202809073",
        "highway": "trailhead",
        "name": "Loop Trailhead"
      },
      "geometry": {
        "type": "Point",
        "coordinates": [
          -89.6616785,
          35.8470923
        ]
      },
      "id": "node/202809073"
    },
    {
      "type": "Feature",
      "properties": {
        "@id": "node/202819095",
        "highway": "trailhead"
      },
      "geometry": {
        "type": "Point",
        "coordinates": [
          -84.1598585,
          35.8945192
        ]
      },
      "id": "node/202819095"
    },
    {
      "type": "Feature",
      "properties": {
        "@id": "node/202822558",
        "highway": "trailhead"
      },
      "geometry": {
        "type": "Point",
        "coordinates": [
          -84.1619516,
          35.8632453
        ]
      },
      "id": "node/202822558"
    },
    {
      "type": "Feature",
      "properties": {
        "@id": "node/202845846",
        "highway": "trailhead"
      },
      "geometry": {
        "type": "Point",
        "coordinates": [
          -84.1562167,
          35.8983231
        ]
      },
      "id": "node/202845846"
    },
    {
      "type": "Feature",
      "properties": {
        "@id": "node/202855958",
        "highway": "trailhead",
        "name": "Dry Arm Trailhead"
      },
      "geometry": {
        "type": "Point",
        "coordinates": [
          -89.6630213,
          35.8508175
        ]
      },
      "id": "node/202855958"
    },
    {
      "type": "Feature",
      "properties": {
        "@id": "node/202873232",
        "highway": "trailhead"
      },
      "geometry": {
        "type": "Point",
        "coordinates": [
          -83.878655,
          35.9278948
        ]
      },
      "id": "node/202873232"
    },
    {
      "type": "Feature",
      "properties": {
        "@id": "node/202904272",
        "highway": "trailhead"
      },
      "geometry": {
        "type": "Point",
        "coordinates": [
          -83.8828337,
          35.9504492
        ]
      },
      "id": "node/202904272"
    },
    {
      "type": "Feature",
      "properties": {
        "@id": "node/202994450",
        "highway": "trailhead"
      },
      "geometry": {
        "type": "Point",
        "coordinates": [
          -84.1605378,
          35.864306
        ]
      },
      "id": "node/202994450"
    },
    {
      "type": "Feature",
      "properties": {
        "@id": "node/203069084",
        "highway": "trailhead"
      },
      "geometry": {
        "type": "Point",
        "coordinates": [
          -84.1655807,
          35.8564282
        ]
      },
      "id": "node/203069084"
    },
    {
      "type": "Feature",
      "properties": {
        "@id": "node/203095836",
        "highway": "trailhead"
      },
      "geometry": {
        "type": "Point",
        "coordinates": [
          -84.2022299,
          35.8638243
        ]
      },
      "id": "node/203095836"
    },
    {
      "type": "Feature",
      "properties": {
        "@id": "node/203391377",
        "highway": "trailhead"
      },
      "geometry": {
        "type": "Point",
        "coordinates": [
          -84.3867551,
          35.9499439
        ]
      },
      "id": "node/203391377"
    },
    {
      "type": "Feature",
      "properties": {
        "@id": "node/307752358",
        "highway": "trailhead",
        "name": "Lakeshore Trailhead Westside"
      },
      "geometry": {
        "type": "Point",
        "coordinates": [
          -83.8110526,
          35.4610506
        ]
      },
      "id": "node/307752358"
    },
    {
      "type": "Feature",
      "properties": {
        "@id": "node/392029508",
        "highway": "trailhead",
        "name": "Snowbird Backcountry Area Trailhead",
        "operator": "US Forest Service",
        "website": "https://www.fs.usda.gov/recarea/nfsnc/recarea/?recid=48930"
      },
      "geometry": {
        "type": "Point",
        "coordinates": [
          -83.9027625,
          35.2885069
        ]
      },
      "id": "node/392029508"
    },
    {
      "type": "Feature",
      "properties": {
        "@id": "node/1440984406",
        "highway": "trailhead"
      },
      "geometry": {
        "type": "Point",
        "coordinates": [
          -86.7753533,
          36.1434635
        ]
      },
      "id": "node/1440984406"
    },
    {
      "type": "Feature",
      "properties": {
        "@id": "node/1656846206",
        "highway": "trailhead",
        "name": "Sunwall Trailhead",
        "operator": "US Forest Service",
        "website": "https://www.fs.usda.gov/recarea/nfsnc/recarea/?recid=48146"
      },
      "geometry": {
        "type": "Point",
        "coordinates": [
          -82.7999711,
          35.3102024
        ]
      },
      "id": "node/1656846206"
    },
    {
      "type": "Feature",
      "properties": {
        "@id": "node/1788033937",
        "barrier": "gate",
        "highway": "trailhead",
        "name": "North Twentymile Trailhead",
        "website": "https://www.fs.usda.gov/r06/okanogan-wenatchee/recreation/north-twentymile-trailhead"
      },
      "geometry": {
        "type": "Point",
        "coordinates": [
          -83.8767898,
          35.4673456
        ]
      },
      "id": "node/1788033937"
    },
    {
      "type": "Feature",
      "properties": {
        "@id": "node/1788094573",
        "highway": "trailhead",
        "name": "Rough Fork Trail Trailhead",
        "operator": "National Park Service"
      },
      "geometry": {
        "type": "Point",
        "coordinates": [
          -83.1615808,
          35.5632822
        ]
      },
      "id": "node/1788094573"
    },
    {
      "type": "Feature",
      "properties": {
        "@id": "node/1788100749",
        "highway": "trailhead",
        "name": "Flat Creek Trail Trailhead",
        "operator": "National Park Service",
        "source": "NPS"
      },
      "geometry": {
        "type": "Point",
        "coordinates": [
          -83.1802827,
          35.5731394
        ]
      },
      "id": "node/1788100749"
    },
    {
      "type": "Feature",
      "properties": {
        "@id": "node/1788106313",
        "highway": "trailhead",
        "name": "Kephart Prong Trail Trailhead",
        "operator": "National Park Service"
      },
      "geometry": {
        "type": "Point",
        "coordinates": [
          -83.3583331,
          35.5857447
        ]
      },
      "id": "node/1788106313"
    },
    {
      "type": "Feature",
      "properties": {
        "@id": "node/1788106323",
        "highway": "trailhead",
        "name": "Thomas Divide Trailhead",
        "operator": "National Park Service",
        "source": "NPS"
      },
      "geometry": {
        "type": "Point",
        "coordinates": [
          -83.3989752,
          35.5858334
        ]
      },
      "id": "node/1788106323"
    },
    {
      "type": "Feature",
      "properties": {
        "@id": "node/1788107100",
        "highway": "trailhead",
        "name": "Kanati Fork Trail Trailhead",
        "operator": "National Park Service"
      },
      "geometry": {
        "type": "Point",
        "coordinates": [
          -83.3638541,
          35.5879108
        ]
      },
      "id": "node/1788107100"
    },
    {
      "type": "Feature",
      "properties": {
        "@id": "node/1788123143",
        "highway": "trailhead",
        "name": "Spruce Mountain Trail Trailhead",
        "operator": "National Park Service",
        "source": "NPS"
      },
      "geometry": {
        "type": "Point",
        "coordinates": [
          -83.184496,
          35.6110401
        ]
      },
      "id": "node/1788123143"
    },
    {
      "type": "Feature",
      "properties": {
        "@id": "node/1788130188",
        "highway": "trailhead",
        "name": "Rough Fork Trail"
      },
      "geometry": {
        "type": "Point",
        "coordinates": [
          -83.1208686,
          35.6162461
        ]
      },
      "id": "node/1788130188"
    },
    {
      "type": "Feature",
      "properties": {
        "@id": "node/1788134312",
        "highway": "trailhead",
        "name": "Big Fork Ridge Trail"
      },
      "geometry": {
        "type": "Point",
        "coordinates": [
          -83.1197865,
          35.6172293
        ]
      },
      "id": "node/1788134312"
    },
    {
      "type": "Feature",
      "properties": {
        "@id": "node/1788170536",
        "highway": "trailhead",
        "information": "guidepost",
        "name": "Schoolhouse Gap Trailhead",
        "operator": "National Park Service",
        "tourism": "information"
      },
      "geometry": {
        "type": "Point",
        "coordinates": [
          -83.7265978,
          35.6271844
        ]
      },
      "id": "node/1788170536"
    },
    {
      "type": "Feature",
      "properties": {
        "@id": "node/1788187283",
        "highway": "trailhead",
        "name": "Cataloochee Divide Trail Trailhead",
        "operator": "National Park Service"
      },
      "geometry": {
        "type": "Point",
        "coordinates": [
          -83.0449826,
          35.6326209
        ]
      },
      "id": "node/1788187283"
    },
    {
      "type": "Feature",
      "properties": {
        "@id": "node/1788195700",
        "highway": "trailhead",
        "name": "Chimney Tops Trailhead",
        "operator": "National Park Service"
      },
      "geometry": {
        "type": "Point",
        "coordinates": [
          -83.4697583,
          35.6354384
        ]
      },
      "id": "node/1788195700"
    },
    {
      "type": "Feature",
      "properties": {
        "@id": "node/1788220339",
        "highway": "trailhead",
        "name": "Chestnut Top Trail Trailhead",
        "operator": "National Park Service"
      },
      "geometry": {
        "type": "Point",
        "coordinates": [
          -83.7089887,
          35.6605366
        ]
      },
      "id": "node/1788220339"
    },
    {
      "type": "Feature",
      "properties": {
        "@id": "node/1788231058",
        "amenity": "parking",
        "highway": "trailhead",
        "information": "guidepost",
        "name": "Laurel Falls Trail - traillhead",
        "tourism": "information"
      },
      "geometry": {
        "type": "Point",
        "coordinates": [
          -83.5805034,
          35.6719328
        ]
      },
      "id": "node/1788231058"
    },
    {
      "type": "Feature",
      "properties": {
        "@id": "node/1788234244",
        "highway": "trailhead",
        "name": "Little Cataloochee Trail Trailhead",
        "operator": "National Park Service"
      },
      "geometry": {
        "type": "Point",
        "coordinates": [
          -83.0872604,
          35.676158
        ]
      },
      "id": "node/1788234244"
    },
    {
      "type": "Feature",
      "properties": {
        "@id": "node/1788234718",
        "highway": "trailhead",
        "kerb": "no",
        "name": "Baskins Creek Trail Trailhead",
        "operator": "National Park Service"
      },
      "geometry": {
        "type": "Point",
        "coordinates": [
          -83.4785422,
          35.6774456
        ]
      },
      "id": "node/1788234718"
    },
    {
      "type": "Feature",
      "properties": {
        "@id": "node/1788235749",
        "highway": "trailhead",
        "name": "Trillium Gap Trail Trailhead",
        "operator": "National Park Service"
      },
      "geometry": {
        "type": "Point",
        "coordinates": [
          -83.4626653,
          35.6802594
        ]
      },
      "id": "node/1788235749"
    },
    {
      "type": "Feature",
      "properties": {
        "@id": "node/1788242215",
        "highway": "trailhead",
        "name": "Old Sugarlands Trail Trailhead",
        "operator": "National Park Service"
      },
      "geometry": {
        "type": "Point",
        "coordinates": [
          -83.5349221,
          35.688305
        ]
      },
      "id": "node/1788242215"
    },
    {
      "type": "Feature",
      "properties": {
        "@id": "node/1788252223",
        "highway": "trailhead",
        "name": "Mount Sterling Trail Trailhead",
        "operator": "National Park Service"
      },
      "geometry": {
        "type": "Point",
        "coordinates": [
          -83.0974295,
          35.7002367
        ]
      },
      "id": "node/1788252223"
    },
    {
      "type": "Feature",
      "properties": {
        "@id": "node/1788256431",
        "access": "yes",
        "highway": "trailhead",
        "name": "Grapeyard Ridge Trail",
        "operator": "National Park Service"
      },
      "geometry": {
        "type": "Point",
        "coordinates": [
          -83.3826602,
          35.7079747
        ]
      },
      "id": "node/1788256431"
    },
    {
      "type": "Feature",
      "properties": {
        "@id": "node/1788274130",
        "highway": "trailhead",
        "name": "Low Gap Trail Access Trailhead",
        "operator": "National Park Service"
      },
      "geometry": {
        "type": "Point",
        "coordinates": [
          -83.2055105,
          35.7517343
        ]
      },
      "id": "node/1788274130"
    },
    {
      "type": "Feature",
      "properties": {
        "@id": "node/1788274190",
        "highway": "trailhead",
        "name": "Lower Mount Cammerer Trail Trailhead",
        "operator": "National Park Service"
      },
      "geometry": {
        "type": "Point",
        "coordinates": [
          -83.2049636,
          35.7519817
        ]
      },
      "id": "node/1788274190"
    },
    {
      "type": "Feature",
      "properties": {
        "@id": "node/1788276819",
        "highway": "trailhead",
        "name": "Low Gap Trail Trailhead",
        "operator": "National Park Service"
      },
      "geometry": {
        "type": "Point",
        "coordinates": [
          -83.2078045,
          35.7559248
        ]
      },
      "id": "node/1788276819"
    },
    {
      "type": "Feature",
      "properties": {
        "@id": "node/1798426253",
        "highway": "trailhead"
      },
      "geometry": {
        "type": "Point",
        "coordinates": [
          -86.9116409,
          36.0599256
        ]
      },
      "id": "node/1798426253"
    },
    {
      "type": "Feature",
      "properties": {
        "@id": "node/1798426254",
        "highway": "trailhead"
      },
      "geometry": {
        "type": "Point",
        "coordinates": [
          -86.911608,
          36.06
        ]
      },
      "id": "node/1798426254"
    },
    {
      "type": "Feature",
      "properties": {
        "@id": "node/1809435942",
        "highway": "trailhead"
      },
      "geometry": {
        "type": "Point",
        "coordinates": [
          -87.2666502,
          36.1124965
        ]
      },
      "id": "node/1809435942"
    },
    {
      "type": "Feature",
      "properties": {
        "@id": "node/1836993876",
        "highway": "trailhead",
        "name": "Ledford Branch Trailhead",
        "operator": "US Forest Service",
        "website": "https://www.fs.usda.gov/recarea/nfsnc/recarea/?recid=48136"
      },
      "geometry": {
        "type": "Point",
        "coordinates": [
          -82.6285782,
          35.4904428
        ]
      },
      "id": "node/1836993876"
    },
    {
      "type": "Feature",
      "properties": {
        "@id": "node/1935201859",
        "highway": "trailhead"
      },
      "geometry": {
        "type": "Point",
        "coordinates": [
          -85.007647,
          35.7926865
        ]
      },
      "id": "node/1935201859"
    },
    {
      "type": "Feature",
      "properties": {
        "@id": "node/1985055495",
        "highway": "trailhead",
        "name": "Sweetwater Trail",
        "website": "https://www.nps.gov/places/sweetwater-branch.htm"
      },
      "geometry": {
        "type": "Point",
        "coordinates": [
          -87.652502,
          35.2503977
        ]
      },
      "id": "node/1985055495"
    },
    {
      "type": "Feature",
      "properties": {
        "@id": "node/1987739460",
        "highway": "trailhead"
      },
      "geometry": {
        "type": "Point",
        "coordinates": [
          -82.2808091,
          35.1307524
        ]
      },
      "id": "node/1987739460"
    },
    {
      "type": "Feature",
      "properties": {
        "@id": "node/2001832919",
        "highway": "trailhead",
        "name": "Lakeshore Trailhead Eastside",
        "place": "locality"
      },
      "geometry": {
        "type": "Point",
        "coordinates": [
          -83.5379382,
          35.458951
        ]
      },
      "id": "node/2001832919"
    },
    {
      "type": "Feature",
      "properties": {
        "@id": "node/2013078664",
        "highway": "trailhead",
        "name": "Snake Den Ridge Trail Trailhead",
        "operator": "National Park Service"
      },
      "geometry": {
        "type": "Point",
        "coordinates": [
          -83.2103685,
          35.753136
        ]
      },
      "id": "node/2013078664"
    },
    {
      "type": "Feature",
      "properties": {
        "@id": "node/2210167422",
        "access": "yes",
        "fee": "no",
        "highway": "trailhead",
        "name": "Pinnacle Trail",
        "operator": "Town of Sylva Parks & Recreation"
      },
      "geometry": {
        "type": "Point",
        "coordinates": [
          -83.1892835,
          35.4403691
        ]
      },
      "id": "node/2210167422"
    },
    {
      "type": "Feature",
      "properties": {
        "@id": "node/2310264298",
        "highway": "trailhead",
        "name": "Cades Cove Horse Trail Trailhead",
        "operator": "National Park Service"
      },
      "geometry": {
        "type": "Point",
        "coordinates": [
          -83.7779158,
          35.605358
        ]
      },
      "id": "node/2310264298"
    },
    {
      "type": "Feature",
      "properties": {
        "@id": "node/2310266664",
        "highway": "trailhead",
        "name": "Abrams Falls"
      },
      "geometry": {
        "type": "Point",
        "coordinates": [
          -83.8528624,
          35.5913303
        ]
      },
      "id": "node/2310266664"
    },
    {
      "type": "Feature",
      "properties": {
        "@id": "node/2310268850",
        "highway": "trailhead",
        "name": "Elijah Oliver Cabin Access Trail Trailhead",
        "operator": "National Park Service"
      },
      "geometry": {
        "type": "Point",
        "coordinates": [
          -83.8434193,
          35.5978357
        ]
      },
      "id": "node/2310268850"
    },
    {
      "type": "Feature",
      "properties": {
        "@id": "node/2310290785",
        "highway": "trailhead",
        "name": "Rich Mountain Trail Trailhead",
        "operator": "National Park Service"
      },
      "geometry": {
        "type": "Point",
        "coordinates": [
          -83.8052115,
          35.64465
        ]
      },
      "id": "node/2310290785"
    },
    {
      "type": "Feature",
      "properties": {
        "@id": "node/2310474786",
        "highway": "trailhead",
        "name": "Ace Gap Trail Trailhead",
        "operator": "National Park Service"
      },
      "geometry": {
        "type": "Point",
        "coordinates": [
          -83.8053009,
          35.645682
        ]
      },
      "id": "node/2310474786"
    },
    {
      "type": "Feature",
      "properties": {
        "@id": "node/2313687866",
        "highway": "trailhead",
        "name": "Two Mile Lead Concession Horse Trail Trailhead",
        "operator": "National Park Service"
      },
      "geometry": {
        "type": "Point",
        "coordinates": [
          -83.5316366,
          35.6904325
        ]
      },
      "id": "node/2313687866"
    },
    {
      "type": "Feature",
      "properties": {
        "@id": "node/2316586112",
        "highway": "trailhead",
        "name": "Jakes Creek Trail Trailhead",
        "operator": "National Park Service"
      },
      "geometry": {
        "type": "Point",
        "coordinates": [
          -83.5812228,
          35.6520108
        ]
      },
      "id": "node/2316586112"
    },
    {
      "type": "Feature",
      "properties": {
        "@id": "node/2320219579",
        "highway": "trailhead",
        "name": "Curry Mountain Trail Trailhead",
        "operator": "National Park Service"
      },
      "geometry": {
        "type": "Point",
        "coordinates": [
          -83.6471624,
          35.677075
        ]
      },
      "id": "node/2320219579"
    },
    {
      "type": "Feature",
      "properties": {
        "@id": "node/2330061950",
        "highway": "trailhead",
        "name": "Metcalf Bottoms Trail Trailhead",
        "operator": "National Park Service"
      },
      "geometry": {
        "type": "Point",
        "coordinates": [
          -83.6473281,
          35.6791874
        ]
      },
      "id": "node/2330061950"
    },
    {
      "type": "Feature",
      "properties": {
        "@id": "node/2330063240",
        "highway": "trailhead",
        "name": "Little Brier Gap Trail Trailhead",
        "operator": "National Park Service"
      },
      "geometry": {
        "type": "Point",
        "coordinates": [
          -83.6395151,
          35.6838189
        ]
      },
      "id": "node/2330063240"
    },
    {
      "type": "Feature",
      "properties": {
        "@id": "node/2331413821",
        "highway": "trailhead",
        "name": "Big Creek Trail Trailhead",
        "operator": "National Park Service"
      },
      "geometry": {
        "type": "Point",
        "coordinates": [
          -83.1102214,
          35.7518823
        ]
      },
      "id": "node/2331413821"
    },
    {
      "type": "Feature",
      "properties": {
        "@id": "node/2331413970",
        "highway": "trailhead",
        "name": "Chestnut Branch Trail Trailhead",
        "operator": "National Park Service"
      },
      "geometry": {
        "type": "Point",
        "coordinates": [
          -83.1059513,
          35.7594801
        ]
      },
      "id": "node/2331413970"
    },
    {
      "type": "Feature",
      "properties": {
        "@id": "node/2334043445",
        "highway": "trailhead",
        "name": "Palmer Creek Trail Trailhead",
        "operator": "National Park Service"
      },
      "geometry": {
        "type": "Point",
        "coordinates": [
          -83.1738339,
          35.6281638
        ]
      },
      "id": "node/2334043445"
    },
    {
      "type": "Feature",
      "properties": {
        "@id": "node/2350123060",
        "highway": "trailhead",
        "name": "Rainbow Falls Trail Trailhead"
      },
      "geometry": {
        "type": "Point",
        "coordinates": [
          -83.4856738,
          35.6757032
        ]
      },
      "id": "node/2350123060"
    },
    {
      "type": "Feature",
      "properties": {
        "@id": "node/2350124766",
        "highway": "trailhead",
        "name": "Grassy Branch Trail Trailhead",
        "operator": "National Park Service"
      },
      "geometry": {
        "type": "Point",
        "coordinates": [
          -83.5071496,
          35.6966609
        ]
      },
      "id": "node/2350124766"
    },
    {
      "type": "Feature",
      "properties": {
        "@id": "node/2366027206",
        "highway": "trailhead",
        "name": "Baxter Creek Trail Trailhead",
        "operator": "National Park Service"
      },
      "geometry": {
        "type": "Point",
        "coordinates": [
          -83.1095063,
          35.7515669
        ]
      },
      "id": "node/2366027206"
    },
    {
      "type": "Feature",
      "properties": {
        "@id": "node/2366027308",
        "highway": "trailhead",
        "name": "Big Creek Horse Trailhead",
        "operator": "National Park Service"
      },
      "geometry": {
        "type": "Point",
        "coordinates": [
          -83.1079909,
          35.7540292
        ]
      },
      "id": "node/2366027308"
    },
    {
      "type": "Feature",
      "properties": {
        "@id": "node/2454926402",
        "highway": "trailhead",
        "name": "Hyatt Ridge Trail Trailhead",
        "operator": "National Park Service"
      },
      "geometry": {
        "type": "Point",
        "coordinates": [
          -83.2229669,
          35.6089039
        ]
      },
      "id": "node/2454926402"
    },
    {
      "type": "Feature",
      "properties": {
        "@id": "node/2455513345",
        "highway": "trailhead",
        "name": "Stiles Cemetery Access Trailhead"
      },
      "geometry": {
        "type": "Point",
        "coordinates": [
          -83.5189825,
          35.4568358
        ]
      },
      "id": "node/2455513345"
    },
    {
      "type": "Feature",
      "properties": {
        "@id": "node/2455611224",
        "highway": "trailhead",
        "name": "Alum Cave Trailhead",
        "operator": "National Park Service"
      },
      "geometry": {
        "type": "Point",
        "coordinates": [
          -83.4515379,
          35.6295483
        ]
      },
      "id": "node/2455611224"
    },
    {
      "type": "Feature",
      "properties": {
        "@id": "node/2624925580",
        "highway": "trailhead",
        "name": "Copper Creek Community Connector Trailhead"
      },
      "geometry": {
        "type": "Point",
        "coordinates": [
          -86.6981306,
          36.2010406
        ]
      },
      "id": "node/2624925580"
    },
    {
      "type": "Feature",
      "properties": {
        "@id": "node/2767589875",
        "highway": "trailhead",
        "name": "Turkey Pen Gap Trailhead",
        "operator": "US Forest Service",
        "website": "https://www.fs.usda.gov/r08/northcarolina/recreation/turkey-pen-gap-trailhead"
      },
      "geometry": {
        "type": "Point",
        "coordinates": [
          -82.6593261,
          35.3426902
        ]
      },
      "id": "node/2767589875"
    },
    {
      "type": "Feature",
      "properties": {
        "@id": "node/2812532513",
        "highway": "trailhead",
        "name": "Art Loeb & Black Balsam Knob Trailhead",
        "operator": "US Forest Service"
      },
      "geometry": {
        "type": "Point",
        "coordinates": [
          -82.876155,
          35.3208007
        ]
      },
      "id": "node/2812532513"
    },
    {
      "type": "Feature",
      "properties": {
        "@id": "node/2836540587",
        "highway": "trailhead",
        "name": "North Face Trailhead",
        "operator": "US Forest Service",
        "website": "https://www.fs.usda.gov/recarea/nfsnc/recarea/?recid=48146"
      },
      "geometry": {
        "type": "Point",
        "coordinates": [
          -82.7980292,
          35.3114763
        ]
      },
      "id": "node/2836540587"
    },
    {
      "type": "Feature",
      "properties": {
        "@id": "node/2859925781",
        "highway": "trailhead",
        "name": "Island Loop Trail Head"
      },
      "geometry": {
        "type": "Point",
        "coordinates": [
          -88.2309957,
          35.0511256
        ]
      },
      "id": "node/2859925781"
    },
    {
      "type": "Feature",
      "properties": {
        "@id": "node/2897088146",
        "highway": "trailhead"
      },
      "geometry": {
        "type": "Point",
        "coordinates": [
          -85.0548415,
          35.0482928
        ]
      },
      "id": "node/2897088146"
    },
    {
      "type": "Feature",
      "properties": {
        "@id": "node/2926776001",
        "highway": "trailhead",
        "information": "guidepost",
        "name": "Fiery Gizzard Trailhead",
        "tourism": "information"
      },
      "geometry": {
        "type": "Point",
        "coordinates": [
          -85.747253,
          35.2519976
        ]
      },
      "id": "node/2926776001"
    },
    {
      "type": "Feature",
      "properties": {
        "@id": "node/2935634091",
        "highway": "trailhead",
        "name": "TVA Little Cedar Mountail Trail"
      },
      "geometry": {
        "type": "Point",
        "coordinates": [
          -85.5814036,
          35.0307919
        ]
      },
      "id": "node/2935634091"
    },
    {
      "type": "Feature",
      "properties": {
        "@id": "node/3297518663",
        "highway": "trailhead"
      },
      "geometry": {
        "type": "Point",
        "coordinates": [
          -82.4788604,
          35.0866687
        ]
      },
      "id": "node/3297518663"
    },
    {
      "type": "Feature",
      "properties": {
        "@id": "node/3312426951",
        "highway": "trailhead"
      },
      "geometry": {
        "type": "Point",
        "coordinates": [
          -84.0799281,
          36.2172294
        ]
      },
      "id": "node/3312426951"
    },
    {
      "type": "Feature",
      "properties": {
        "@id": "node/3336606491",
        "highway": "trailhead"
      },
      "geometry": {
        "type": "Point",
        "coordinates": [
          -86.9157997,
          36.0511267
        ]
      },
      "id": "node/3336606491"
    },
    {
      "type": "Feature",
      "properties": {
        "@id": "node/3433241037",
        "highway": "trailhead",
        "name": "Fortland Avenue Trailhead"
      },
      "geometry": {
        "type": "Point",
        "coordinates": [
          -86.7199011,
          36.1724577
        ]
      },
      "id": "node/3433241037"
    },
    {
      "type": "Feature",
      "properties": {
        "@id": "node/3433287321",
        "highway": "trailhead",
        "name": "Main Trailhead"
      },
      "geometry": {
        "type": "Point",
        "coordinates": [
          -86.7254447,
          36.1681685
        ]
      },
      "id": "node/3433287321"
    },
    {
      "type": "Feature",
      "properties": {
        "@id": "node/3438496726",
        "highway": "trailhead",
        "name": "Forrest Green Trailhead"
      },
      "geometry": {
        "type": "Point",
        "coordinates": [
          -86.7028207,
          36.1973265
        ]
      },
      "id": "node/3438496726"
    },
    {
      "type": "Feature",
      "properties": {
        "@id": "node/3605540009",
        "highway": "trailhead"
      },
      "geometry": {
        "type": "Point",
        "coordinates": [
          -84.1606157,
          35.8644064
        ]
      },
      "id": "node/3605540009"
    },
    {
      "type": "Feature",
      "properties": {
        "@id": "node/3697152507",
        "highway": "trailhead",
        "name": "Murfreesboro Greenway Trailhead - Cason"
      },
      "geometry": {
        "type": "Point",
        "coordinates": [
          -86.424022,
          35.8257006
        ]
      },
      "id": "node/3697152507"
    },
    {
      "type": "Feature",
      "properties": {
        "@id": "node/4115257436",
        "highway": "trailhead",
        "name": "Coffin Springs Trail"
      },
      "geometry": {
        "type": "Point",
        "coordinates": [
          -84.4589827,
          36.1455771
        ]
      },
      "id": "node/4115257436"
    },
    {
      "type": "Feature",
      "properties": {
        "@id": "node/4115342955",
        "highway": "trailhead",
        "name": "Chimney Top Trail"
      },
      "geometry": {
        "type": "Point",
        "coordinates": [
          -84.5043775,
          36.1249032
        ]
      },
      "id": "node/4115342955"
    },
    {
      "type": "Feature",
      "properties": {
        "@id": "node/4256094253",
        "highway": "trailhead",
        "name": "Oconaluftee River Trail Trailhead",
        "operator": "National Park Service"
      },
      "geometry": {
        "type": "Point",
        "coordinates": [
          -83.3061513,
          35.5133225
        ]
      },
      "id": "node/4256094253"
    },
    {
      "type": "Feature",
      "properties": {
        "@id": "node/4565337312",
        "access": "yes",
        "highway": "trailhead",
        "name": "Lowry Cove Trail",
        "operator": "US Forest Service"
      },
      "geometry": {
        "type": "Point",
        "coordinates": [
          -84.5456867,
          35.2288199
        ]
      },
      "id": "node/4565337312"
    },
    {
      "type": "Feature",
      "properties": {
        "@id": "node/4770412176",
        "description": "Station Camp Greenway Trailhead",
        "highway": "trailhead",
        "name": "Station Camp Greenway Trailhead"
      },
      "geometry": {
        "type": "Point",
        "coordinates": [
          -86.5579448,
          36.372026
        ]
      },
      "id": "node/4770412176"
    },
    {
      "type": "Feature",
      "properties": {
        "@id": "node/4815676746",
        "highway": "trailhead"
      },
      "geometry": {
        "type": "Point",
        "coordinates": [
          -85.2344317,
          35.2375785
        ]
      },
      "id": "node/4815676746"
    },
    {
      "type": "Feature",
      "properties": {
        "@id": "node/4815677608",
        "highway": "trailhead"
      },
      "geometry": {
        "type": "Point",
        "coordinates": [
          -85.2784212,
          35.2318206
        ]
      },
      "id": "node/4815677608"
    },
    {
      "type": "Feature",
      "properties": {
        "@id": "node/4816966084",
        "highway": "trailhead",
        "name": "Licklog Ridge Trailhead"
      },
      "geometry": {
        "type": "Point",
        "coordinates": [
          -84.4732712,
          35.0446812
        ]
      },
      "id": "node/4816966084"
    },
    {
      "type": "Feature",
      "properties": {
        "@id": "node/4816969785",
        "highway": "trailhead",
        "name": "Big Frog Trail No. 64",
        "operator": "US Forest Service"
      },
      "geometry": {
        "type": "Point",
        "coordinates": [
          -84.501005,
          35.0544158
        ]
      },
      "id": "node/4816969785"
    },
    {
      "type": "Feature",
      "properties": {
        "@id": "node/4841989802",
        "highway": "trailhead"
      },
      "geometry": {
        "type": "Point",
        "coordinates": [
          -82.1974885,
          35.6892685
        ]
      },
      "id": "node/4841989802"
    },
    {
      "type": "Feature",
      "properties": {
        "@id": "node/5028786656",
        "highway": "trailhead",
        "name": "Coker  Creek Falls Trailhead"
      },
      "geometry": {
        "type": "Point",
        "coordinates": [
          -84.328819,
          35.3077662
        ]
      },
      "id": "node/5028786656"
    },
    {
      "type": "Feature",
      "properties": {
        "@id": "node/5065372156",
        "highway": "trailhead",
        "information": "guidepost",
        "operator": "Old Settlers Trail - trailhead",
        "tourism": "information"
      },
      "geometry": {
        "type": "Point",
        "coordinates": [
          -83.3799547,
          35.7077784
        ]
      },
      "id": "node/5065372156"
    },
    {
      "type": "Feature",
      "properties": {
        "@id": "node/5071918694",
        "highway": "trailhead",
        "name": "Little-Big Dudley Trailhead"
      },
      "geometry": {
        "type": "Point",
        "coordinates": [
          -83.4518968,
          35.7295919
        ]
      },
      "id": "node/5071918694"
    },
    {
      "type": "Feature",
      "properties": {
        "@id": "node/5072036319",
        "highway": "trailhead",
        "information": "guidepost",
        "operator": "Hickory Flats Quiet Walkway - west trailhead",
        "tourism": "information"
      },
      "geometry": {
        "type": "Point",
        "coordinates": [
          -83.5587775,
          35.679133
        ]
      },
      "id": "node/5072036319"
    },
    {
      "type": "Feature",
      "properties": {
        "@id": "node/5087327834",
        "highway": "trailhead",
        "information": "guidepost",
        "tourism": "information"
      },
      "geometry": {
        "type": "Point",
        "coordinates": [
          -83.4903395,
          35.6834614
        ]
      },
      "id": "node/5087327834"
    },
    {
      "type": "Feature",
      "properties": {
        "@id": "node/5087352233",
        "highway": "trailhead",
        "information": "guidepost",
        "tourism": "information"
      },
      "geometry": {
        "type": "Point",
        "coordinates": [
          -83.3574966,
          35.7026588
        ]
      },
      "id": "node/5087352233"
    },
    {
      "type": "Feature",
      "properties": {
        "@id": "node/5271064116",
        "highway": "trailhead",
        "name": "Pullian Creek Trailhead"
      },
      "geometry": {
        "type": "Point",
        "coordinates": [
          -82.3287429,
          35.291035
        ]
      },
      "id": "node/5271064116"
    },
    {
      "type": "Feature",
      "properties": {
        "@id": "node/5398506653",
        "access": "yes",
        "fee": "no",
        "highway": "trailhead"
      },
      "geometry": {
        "type": "Point",
        "coordinates": [
          -84.0297487,
          35.0918347
        ]
      },
      "id": "node/5398506653"
    },
    {
      "type": "Feature",
      "properties": {
        "@id": "node/5615907676",
        "highway": "trailhead",
        "name": "Sowell Trail"
      },
      "geometry": {
        "type": "Point",
        "coordinates": [
          -82.9534884,
          35.1881486
        ]
      },
      "id": "node/5615907676"
    },
    {
      "type": "Feature",
      "properties": {
        "@id": "node/5757231644",
        "highway": "trailhead",
        "name": "Walls of Jericho Hiking"
      },
      "geometry": {
        "type": "Point",
        "coordinates": [
          -86.0560838,
          35.0000834
        ]
      },
      "id": "node/5757231644"
    },
    {
      "type": "Feature",
      "properties": {
        "@id": "node/5759191169",
        "highway": "trailhead"
      },
      "geometry": {
        "type": "Point",
        "coordinates": [
          -86.9888396,
          34.9940498
        ]
      },
      "id": "node/5759191169"
    },
    {
      "type": "Feature",
      "properties": {
        "@id": "node/5777974590",
        "access": "yes",
        "fee": "no",
        "highway": "trailhead"
      },
      "geometry": {
        "type": "Point",
        "coordinates": [
          -84.0270444,
          35.0928178
        ]
      },
      "id": "node/5777974590"
    },
    {
      "type": "Feature",
      "properties": {
        "@id": "node/5902765483",
        "highway": "trailhead"
      },
      "geometry": {
        "type": "Point",
        "coordinates": [
          -82.1964316,
          35.6910716
        ]
      },
      "id": "node/5902765483"
    },
    {
      "type": "Feature",
      "properties": {
        "@id": "node/6039869741",
        "highway": "trailhead",
        "name": "Boone United Trailhead"
      },
      "geometry": {
        "type": "Point",
        "coordinates": [
          -81.6657417,
          36.2234587
        ]
      },
      "id": "node/6039869741"
    },
    {
      "type": "Feature",
      "properties": {
        "@id": "node/6209060036",
        "highway": "trailhead"
      },
      "geometry": {
        "type": "Point",
        "coordinates": [
          -85.3607304,
          35.8371156
        ]
      },
      "id": "node/6209060036"
    },
    {
      "type": "Feature",
      "properties": {
        "@id": "node/6338307447",
        "highway": "trailhead",
        "name": "Milliken XC course 5k & 8k Start"
      },
      "geometry": {
        "type": "Point",
        "coordinates": [
          -81.9514186,
          34.9869437
        ]
      },
      "id": "node/6338307447"
    },
    {
      "type": "Feature",
      "properties": {
        "@id": "node/6632229479",
        "highway": "trailhead",
        "name": "Walter Hill Trailhead"
      },
      "geometry": {
        "type": "Point",
        "coordinates": [
          -86.3778487,
          35.9411885
        ]
      },
      "id": "node/6632229479"
    },
    {
      "type": "Feature",
      "properties": {
        "@id": "node/6632245583",
        "highway": "trailhead",
        "name": "Central Valley Trailhead"
      },
      "geometry": {
        "type": "Point",
        "coordinates": [
          -86.3914698,
          35.9450832
        ]
      },
      "id": "node/6632245583"
    },
    {
      "type": "Feature",
      "properties": {
        "@id": "node/6726929207",
        "ele": "1173",
        "highway": "trailhead",
        "name": "Tellico Gap"
      },
      "geometry": {
        "type": "Point",
        "coordinates": [
          -83.5722967,
          35.2681162
        ]
      },
      "id": "node/6726929207"
    },
    {
      "type": "Feature",
      "properties": {
        "@id": "node/7092058165",
        "highway": "trailhead"
      },
      "geometry": {
        "type": "Point",
        "coordinates": [
          -84.2218241,
          35.8636461
        ]
      },
      "id": "node/7092058165"
    },
    {
      "type": "Feature",
      "properties": {
        "@id": "node/7228367206",
        "highway": "trailhead",
        "name": "Panther Branch Trailhead"
      },
      "geometry": {
        "type": "Point",
        "coordinates": [
          -84.48742,
          36.1367445
        ]
      },
      "id": "node/7228367206"
    },
    {
      "type": "Feature",
      "properties": {
        "@id": "node/7359285905",
        "addr:city": "Burnsville",
        "addr:postcode": "28714",
        "addr:state": "NC",
        "addr:street": "South Toe River Road",
        "highway": "trailhead",
        "name": "Mount Mitchell Trailhead"
      },
      "geometry": {
        "type": "Point",
        "coordinates": [
          -82.2199959,
          35.7509302
        ]
      },
      "id": "node/7359285905"
    },
    {
      "type": "Feature",
      "properties": {
        "@id": "node/7359285907",
        "highway": "trailhead",
        "name": "Buncombe Horse Range Trail"
      },
      "geometry": {
        "type": "Point",
        "coordinates": [
          -82.2833945,
          35.7262755
        ]
      },
      "id": "node/7359285907"
    },
    {
      "type": "Feature",
      "properties": {
        "@id": "node/7359285911",
        "highway": "trailhead",
        "name": "Craven Gap Trail"
      },
      "geometry": {
        "type": "Point",
        "coordinates": [
          -82.4916876,
          35.6479627
        ]
      },
      "id": "node/7359285911"
    },
    {
      "type": "Feature",
      "properties": {
        "@id": "node/7383484728",
        "amenity": "parking",
        "highway": "trailhead"
      },
      "geometry": {
        "type": "Point",
        "coordinates": [
          -84.0731614,
          36.1979967
        ]
      },
      "id": "node/7383484728"
    },
    {
      "type": "Feature",
      "properties": {
        "@id": "node/7566932004",
        "highway": "trailhead"
      },
      "geometry": {
        "type": "Point",
        "coordinates": [
          -81.9254251,
          35.9277016
        ]
      },
      "id": "node/7566932004"
    },
    {
      "type": "Feature",
      "properties": {
        "@id": "node/7650594993",
        "fee": "no",
        "highway": "trailhead",
        "name": "Boardwalk Trail",
        "operator": "Missouri State Parks"
      },
      "geometry": {
        "type": "Point",
        "coordinates": [
          -89.2879667,
          36.6439833
        ]
      },
      "id": "node/7650594993"
    },
    {
      "type": "Feature",
      "properties": {
        "@id": "node/7650595015",
        "fee": "no",
        "highway": "trailhead",
        "name": "Bottomland Trail",
        "operator": "Missouri State Parks"
      },
      "geometry": {
        "type": "Point",
        "coordinates": [
          -89.2904333,
          36.6411333
        ]
      },
      "id": "node/7650595015"
    },
    {
      "type": "Feature",
      "properties": {
        "@id": "node/7650595138",
        "fee": "no",
        "highway": "trailhead",
        "name": "Cypress Trail",
        "operator": "Missouri State Parks"
      },
      "geometry": {
        "type": "Point",
        "coordinates": [
          -89.291187,
          36.6414397
        ]
      },
      "id": "node/7650595138"
    },
    {
      "type": "Feature",
      "properties": {
        "@id": "node/7650595200",
        "fee": "no",
        "highway": "trailhead",
        "name": "Bottomland Trail",
        "operator": "Missouri State Parks"
      },
      "geometry": {
        "type": "Point",
        "coordinates": [
          -89.2870344,
          36.6440575
        ]
      },
      "id": "node/7650595200"
    },
    {
      "type": "Feature",
      "properties": {
        "@id": "node/7653665810",
        "highway": "trailhead"
      },
      "geometry": {
        "type": "Point",
        "coordinates": [
          -86.7731658,
          35.9469731
        ]
      },
      "id": "node/7653665810"
    },
    {
      "type": "Feature",
      "properties": {
        "@id": "node/7653775728",
        "highway": "trailhead"
      },
      "geometry": {
        "type": "Point",
        "coordinates": [
          -86.7805887,
          35.955034
        ]
      },
      "id": "node/7653775728"
    },
    {
      "type": "Feature",
      "properties": {
        "@id": "node/7782504145",
        "highway": "trailhead"
      },
      "geometry": {
        "type": "Point",
        "coordinates": [
          -83.9463778,
          35.949367
        ]
      },
      "id": "node/7782504145"
    },
    {
      "type": "Feature",
      "properties": {
        "@id": "node/7850570066",
        "colour": "green",
        "highway": "trailhead",
        "material": "wood",
        "name": "House on a Hill Hiking Trail"
      },
      "geometry": {
        "type": "Point",
        "coordinates": [
          -82.7001677,
          35.610986
        ]
      },
      "id": "node/7850570066"
    },
    {
      "type": "Feature",
      "properties": {
        "@id": "node/7870947988",
        "access": "yes",
        "highway": "trailhead",
        "name": "Noland Creek Trailhead",
        "operator": "National Park Service"
      },
      "geometry": {
        "type": "Point",
        "coordinates": [
          -83.5267239,
          35.4578063
        ]
      },
      "id": "node/7870947988"
    },
    {
      "type": "Feature",
      "properties": {
        "@id": "node/7885373331",
        "highway": "trailhead",
        "name": "Chattooga Cliffside Trail"
      },
      "geometry": {
        "type": "Point",
        "coordinates": [
          -83.1220699,
          35.0648123
        ]
      },
      "id": "node/7885373331"
    },
    {
      "type": "Feature",
      "properties": {
        "@id": "node/7906216171",
        "access": "yes",
        "bicycle": "no",
        "bin": "yes",
        "fee": "no",
        "foot": "designated",
        "highway": "trailhead",
        "horse": "designated",
        "motor_vehicle": "no",
        "name": "Chadwell Gap Trailhead",
        "operator": "National Park Service",
        "parking": "surface",
        "toilets": "no"
      },
      "geometry": {
        "type": "Point",
        "coordinates": [
          -83.4963727,
          36.6538439
        ]
      },
      "id": "node/7906216171"
    },
    {
      "type": "Feature",
      "properties": {
        "@id": "node/7906231661",
        "access": "yes",
        "bicycle": "no",
        "bin": "yes",
        "fee": "no",
        "foot": "designated",
        "highway": "trailhead",
        "horse": "no",
        "motor_vehicle": "no",
        "name": "Ewing Trail",
        "operator": "National Park Service",
        "parking": "surface",
        "toilets": "vault"
      },
      "geometry": {
        "type": "Point",
        "coordinates": [
          -83.4359942,
          36.6528509
        ]
      },
      "id": "node/7906231661"
    },
    {
      "type": "Feature",
      "properties": {
        "@id": "node/7982687286",
        "fee": "no",
        "highway": "trailhead",
        "name": "Beech Tree Trail",
        "operator": "Missouri State Parks"
      },
      "geometry": {
        "type": "Point",
        "coordinates": [
          -90.0451021,
          36.5536134
        ]
      },
      "id": "node/7982687286"
    },
    {
      "type": "Feature",
      "properties": {
        "@id": "node/8131873492",
        "highway": "trailhead",
        "name": "Mill Creek Greenway - Old Hickory Trailhead"
      },
      "geometry": {
        "type": "Point",
        "coordinates": [
          -86.6815528,
          36.0207225
        ]
      },
      "id": "node/8131873492"
    },
    {
      "type": "Feature",
      "properties": {
        "@id": "node/8158833125",
        "highway": "trailhead"
      },
      "geometry": {
        "type": "Point",
        "coordinates": [
          -82.1831121,
          35.7209553
        ]
      },
      "id": "node/8158833125"
    },
    {
      "type": "Feature",
      "properties": {
        "@id": "node/8293434035",
        "highway": "trailhead",
        "name": "Bullen Hollow Trailhead"
      },
      "geometry": {
        "type": "Point",
        "coordinates": [
          -82.7184903,
          36.0708759
        ]
      },
      "id": "node/8293434035"
    },
    {
      "type": "Feature",
      "properties": {
        "@id": "node/8325280096",
        "access": "yes",
        "fee": "no",
        "highway": "trailhead"
      },
      "geometry": {
        "type": "Point",
        "coordinates": [
          -82.3320252,
          35.473227
        ]
      },
      "id": "node/8325280096"
    },
    {
      "type": "Feature",
      "properties": {
        "@id": "node/8412686791",
        "alt_name": "Ross Gap Trail",
        "highway": "trailhead",
        "name": "Rocky Fork Trailhead"
      },
      "geometry": {
        "type": "Point",
        "coordinates": [
          -84.5113474,
          36.1249125
        ]
      },
      "id": "node/8412686791"
    },
    {
      "type": "Feature",
      "properties": {
        "@id": "node/8419516574",
        "highway": "trailhead"
      },
      "geometry": {
        "type": "Point",
        "coordinates": [
          -85.361562,
          35.213045
        ]
      },
      "id": "node/8419516574"
    },
    {
      "type": "Feature",
      "properties": {
        "@id": "node/8540665616",
        "highway": "trailhead",
        "name": "Bishop Branch Trailhead"
      },
      "geometry": {
        "type": "Point",
        "coordinates": [
          -82.3241876,
          35.2911146
        ]
      },
      "id": "node/8540665616"
    },
    {
      "type": "Feature",
      "properties": {
        "@id": "node/8699426260",
        "access": "yes",
        "fee": "no",
        "highway": "trailhead",
        "name": "Collier Cove Trailhead"
      },
      "geometry": {
        "type": "Point",
        "coordinates": [
          -82.5076561,
          35.4833704
        ]
      },
      "id": "node/8699426260"
    },
    {
      "type": "Feature",
      "properties": {
        "@id": "node/8764796964",
        "highway": "trailhead",
        "name": "Secret Falls Trailhead"
      },
      "geometry": {
        "type": "Point",
        "coordinates": [
          -83.1666524,
          35.0086975
        ]
      },
      "id": "node/8764796964"
    },
    {
      "type": "Feature",
      "properties": {
        "@id": "node/8887063922",
        "highway": "trailhead",
        "name": "Andy Cove Trailhead",
        "operator": "US Forest Service",
        "website": "https://www.fs.usda.gov/r08/northcarolina/recreation/andy-cove-trailhead"
      },
      "geometry": {
        "type": "Point",
        "coordinates": [
          -82.7265197,
          35.2852491
        ]
      },
      "id": "node/8887063922"
    },
    {
      "type": "Feature",
      "properties": {
        "@id": "node/8890782719",
        "highway": "trailhead",
        "name": "Marble Plains Overlook Trailhead"
      },
      "geometry": {
        "type": "Point",
        "coordinates": [
          -86.2561351,
          35.2206681
        ]
      },
      "id": "node/8890782719"
    },
    {
      "type": "Feature",
      "properties": {
        "@id": "node/8978585154",
        "highway": "trailhead",
        "name": "Cove Mountain Trail Trailhead",
        "operator": "National Park Service"
      },
      "geometry": {
        "type": "Point",
        "coordinates": [
          -83.5381621,
          35.6879702
        ]
      },
      "id": "node/8978585154"
    },
    {
      "type": "Feature",
      "properties": {
        "@id": "node/9004508284",
        "highway": "trailhead",
        "name": "Appalachian Trail Trailhead",
        "operator": "National Park Service"
      },
      "geometry": {
        "type": "Point",
        "coordinates": [
          -83.4248663,
          35.6109802
        ]
      },
      "id": "node/9004508284"
    },
    {
      "type": "Feature",
      "properties": {
        "@id": "node/9029287251",
        "highway": "trailhead",
        "name": "Deep Creek Trailhead",
        "operator": "National Park Service"
      },
      "geometry": {
        "type": "Point",
        "coordinates": [
          -83.4225539,
          35.5993276
        ]
      },
      "id": "node/9029287251"
    },
    {
      "type": "Feature",
      "properties": {
        "@id": "node/9050650538",
        "highway": "trailhead",
        "name": "Gatlinburg Trail Trailhead",
        "operator": "National Park Service"
      },
      "geometry": {
        "type": "Point",
        "coordinates": [
          -83.5237791,
          35.7060904
        ]
      },
      "id": "node/9050650538"
    },
    {
      "type": "Feature",
      "properties": {
        "@id": "node/9055869456",
        "highway": "trailhead",
        "information": "guidepost",
        "name": "Grapeyard Ridge Trailhead",
        "operator": "Grapeyard Ridge Trail - West Traiilhead",
        "tourism": "information"
      },
      "geometry": {
        "type": "Point",
        "coordinates": [
          -83.4665998,
          35.6947827
        ]
      },
      "id": "node/9055869456"
    },
    {
      "type": "Feature",
      "properties": {
        "@id": "node/9382752915",
        "highway": "trailhead"
      },
      "geometry": {
        "type": "Point",
        "coordinates": [
          -84.3858897,
          35.9650021
        ]
      },
      "id": "node/9382752915"
    },
    {
      "type": "Feature",
      "properties": {
        "@id": "node/9386722760",
        "highway": "trailhead"
      },
      "geometry": {
        "type": "Point",
        "coordinates": [
          -83.7045311,
          36.00229
        ]
      },
      "id": "node/9386722760"
    },
    {
      "type": "Feature",
      "properties": {
        "@id": "node/9505875137",
        "highway": "trailhead",
        "name": "Laurel Fork Trailhead",
        "operator": "Cherokee National Forest"
      },
      "geometry": {
        "type": "Point",
        "coordinates": [
          -82.1521241,
          36.285403
        ]
      },
      "id": "node/9505875137"
    },
    {
      "type": "Feature",
      "properties": {
        "@id": "node/9525144574",
        "highway": "trailhead"
      },
      "geometry": {
        "type": "Point",
        "coordinates": [
          -84.4125642,
          35.9076056
        ]
      },
      "id": "node/9525144574"
    },
    {
      "type": "Feature",
      "properties": {
        "@id": "node/9543583130",
        "highway": "trailhead"
      },
      "geometry": {
        "type": "Point",
        "coordinates": [
          -84.0741328,
          36.2120682
        ]
      },
      "id": "node/9543583130"
    },
    {
      "type": "Feature",
      "properties": {
        "@id": "node/9733235380",
        "highway": "trailhead"
      },
      "geometry": {
        "type": "Point",
        "coordinates": [
          -82.378277,
          36.0546525
        ]
      },
      "id": "node/9733235380"
    },
    {
      "type": "Feature",
      "properties": {
        "@id": "node/9763208040",
        "highway": "trailhead"
      },
      "geometry": {
        "type": "Point",
        "coordinates": [
          -85.9490039,
          36.3125975
        ]
      },
      "id": "node/9763208040"
    },
    {
      "type": "Feature",
      "properties": {
        "@id": "node/9870479537",
        "access": "yes",
        "addr:city": "Lake Toxaway",
        "addr:housenumber": "A",
        "addr:postcode": "28747",
        "addr:state": "NC",
        "addr:street": "FS 4674A",
        "fee": "no",
        "highway": "trailhead",
        "name": "Cold Mountain Gap trailhead",
        "operator": "USFS"
      },
      "geometry": {
        "type": "Point",
        "coordinates": [
          -82.9988724,
          35.1577785
        ]
      },
      "id": "node/9870479537"
    },
    {
      "type": "Feature",
      "properties": {
        "@id": "node/9948026395",
        "highway": "trailhead",
        "name": "Wilkie Trail"
      },
      "geometry": {
        "type": "Point",
        "coordinates": [
          -82.6389019,
          35.1719594
        ]
      },
      "id": "node/9948026395"
    },
    {
      "type": "Feature",
      "properties": {
        "@id": "node/9991958093",
        "highway": "trailhead",
        "name": "Coops Creek"
      },
      "geometry": {
        "type": "Point",
        "coordinates": [
          -85.3888862,
          35.3697675
        ]
      },
      "id": "node/9991958093"
    },
    {
      "type": "Feature",
      "properties": {
        "@id": "node/9991960233",
        "highway": "trailhead",
        "name": "Coops Creek"
      },
      "geometry": {
        "type": "Point",
        "coordinates": [
          -85.3978937,
          35.3606289
        ]
      },
      "id": "node/9991960233"
    },
    {
      "type": "Feature",
      "properties": {
        "@id": "node/10086065430",
        "highway": "trailhead",
        "name": "Lost Creek Overlook Trailhead",
        "operator": "Tims Ford State Park",
        "website": "https://tnstateparks.com/parks/tims-ford"
      },
      "geometry": {
        "type": "Point",
        "coordinates": [
          -86.2553508,
          35.2199914
        ]
      },
      "id": "node/10086065430"
    },
    {
      "type": "Feature",
      "properties": {
        "@id": "node/10111455254",
        "highway": "trailhead",
        "name": "WMA Unit 2 Access"
      },
      "geometry": {
        "type": "Point",
        "coordinates": [
          -86.392556,
          35.9619477
        ]
      },
      "id": "node/10111455254"
    },
    {
      "type": "Feature",
      "properties": {
        "@id": "node/10114663840",
        "highway": "trailhead"
      },
      "geometry": {
        "type": "Point",
        "coordinates": [
          -85.2141378,
          35.0690265
        ]
      },
      "id": "node/10114663840"
    },
    {
      "type": "Feature",
      "properties": {
        "@id": "node/10136627046",
        "highway": "trailhead",
        "information": "board",
        "name": "Bay Point Loop Trail",
        "tourism": "information"
      },
      "geometry": {
        "type": "Point",
        "coordinates": [
          -85.1197495,
          35.1682055
        ]
      },
      "id": "node/10136627046"
    },
    {
      "type": "Feature",
      "properties": {
        "@id": "node/10148698561",
        "highway": "trailhead",
        "name": "Strawberry Gap Trailhead"
      },
      "geometry": {
        "type": "Point",
        "coordinates": [
          -82.3564363,
          35.4878476
        ]
      },
      "id": "node/10148698561"
    },
    {
      "type": "Feature",
      "properties": {
        "@id": "node/10221477207",
        "access": "yes",
        "highway": "trailhead",
        "name": "High Ridge Trailhead"
      },
      "geometry": {
        "type": "Point",
        "coordinates": [
          -85.3134389,
          35.0737674
        ]
      },
      "id": "node/10221477207"
    },
    {
      "type": "Feature",
      "properties": {
        "@id": "node/10253097499",
        "access": "yes",
        "fee": "no",
        "highway": "trailhead"
      },
      "geometry": {
        "type": "Point",
        "coordinates": [
          -84.0195424,
          35.0999685
        ]
      },
      "id": "node/10253097499"
    },
    {
      "type": "Feature",
      "properties": {
        "@id": "node/10297311651",
        "highway": "trailhead",
        "name": "Lowry Falls Trail No. 168",
        "operator": "US Forest Service"
      },
      "geometry": {
        "type": "Point",
        "coordinates": [
          -84.5323988,
          35.2241501
        ]
      },
      "id": "node/10297311651"
    },
    {
      "type": "Feature",
      "properties": {
        "@id": "node/10771687951",
        "access": "yes",
        "fee": "no",
        "highway": "trailhead",
        "name": "Pinnacle Park Tour",
        "operator": "Town of Sylva Parks & Recreation"
      },
      "geometry": {
        "type": "Point",
        "coordinates": [
          -83.1912347,
          35.4226732
        ]
      },
      "id": "node/10771687951"
    },
    {
      "type": "Feature",
      "properties": {
        "@id": "node/10797079529",
        "access": "yes",
        "addr:city": "Cullowhee",
        "addr:postcode": "28723",
        "addr:state": "NC",
        "fee": "no",
        "highway": "trailhead",
        "name": "Mysterious Cabin Loop",
        "operator": "United States Forest Service",
        "source": "Jackson County GIS"
      },
      "geometry": {
        "type": "Point",
        "coordinates": [
          -83.1015832,
          35.3277563
        ]
      },
      "id": "node/10797079529"
    },
    {
      "type": "Feature",
      "properties": {
        "@id": "node/10797088681",
        "access": "yes",
        "addr:city": "Cullowhee",
        "addr:postcode": "28723",
        "addr:state": "NC",
        "fee": "no",
        "highway": "trailhead",
        "name": "Moses Creek Road",
        "operator": "United States Forest Service",
        "source": "Jackson County GIS"
      },
      "geometry": {
        "type": "Point",
        "coordinates": [
          -83.1015491,
          35.3275923
        ]
      },
      "id": "node/10797088681"
    },
    {
      "type": "Feature",
      "properties": {
        "@id": "node/10800237367",
        "access": "yes",
        "addr:city": "Cullowhee",
        "addr:postcode": "28723",
        "addr:state": "NC",
        "fee": "no",
        "highway": "trailhead",
        "name": "Hemlock Ridge",
        "operator": "United States Forest Service"
      },
      "geometry": {
        "type": "Point",
        "coordinates": [
          -83.1326636,
          35.3481378
        ]
      },
      "id": "node/10800237367"
    },
    {
      "type": "Feature",
      "properties": {
        "@id": "node/10800237369",
        "access": "yes",
        "addr:city": "Cullowhee",
        "addr:postcode": "28723",
        "addr:state": "NC",
        "fee": "no",
        "highway": "trailhead",
        "name": "Wayehutta Loop",
        "operator": "United States Forest Service"
      },
      "geometry": {
        "type": "Point",
        "coordinates": [
          -83.1326671,
          35.3481128
        ]
      },
      "id": "node/10800237369"
    },
    {
      "type": "Feature",
      "properties": {
        "@id": "node/10800493159",
        "access": "yes",
        "addr:city": "Cullowhee",
        "addr:postcode": "28723",
        "addr:state": "NC",
        "fee": "no",
        "highway": "trailhead",
        "name": "Rail Line Way",
        "operator": "United States Forest Service"
      },
      "geometry": {
        "type": "Point",
        "coordinates": [
          -83.130442,
          35.3563748
        ]
      },
      "id": "node/10800493159"
    },
    {
      "type": "Feature",
      "properties": {
        "@id": "node/10800493161",
        "access": "yes",
        "addr:city": "Cullowhee",
        "addr:postcode": "28723",
        "addr:state": "NC",
        "fee": "no",
        "highway": "trailhead",
        "name": "Blanton Branch",
        "operator": "United States Forest Service"
      },
      "geometry": {
        "type": "Point",
        "coordinates": [
          -83.1311314,
          35.3554621
        ]
      },
      "id": "node/10800493161"
    },
    {
      "type": "Feature",
      "properties": {
        "@id": "node/10800493162",
        "access": "yes",
        "addr:city": "Cullowhee",
        "addr:postcode": "28723",
        "addr:state": "NC",
        "fee": "no",
        "highway": "trailhead",
        "name": "Sawmill Bottoms Trail",
        "operator": "United States Forest Service"
      },
      "geometry": {
        "type": "Point",
        "coordinates": [
          -83.129019,
          35.3549262
        ]
      },
      "id": "node/10800493162"
    },
    {
      "type": "Feature",
      "properties": {
        "@id": "node/10800493165",
        "access": "yes",
        "addr:city": "Cullowhee",
        "addr:postcode": "28723",
        "addr:state": "NC",
        "fee": "no",
        "highway": "trailhead",
        "name": "Black Mountain",
        "operator": "United States Forest Service"
      },
      "geometry": {
        "type": "Point",
        "coordinates": [
          -83.124749,
          35.3412412
        ]
      },
      "id": "node/10800493165"
    },
    {
      "type": "Feature",
      "properties": {
        "@id": "node/10800493166",
        "access": "yes",
        "addr:city": "Cullowhee",
        "addr:postcode": "28723",
        "addr:state": "NC",
        "fee": "no",
        "highway": "trailhead",
        "name": "Parker Knob Connector",
        "operator": "United States Forest Service"
      },
      "geometry": {
        "type": "Point",
        "coordinates": [
          -83.1278486,
          35.3370217
        ]
      },
      "id": "node/10800493166"
    },
    {
      "type": "Feature",
      "properties": {
        "@id": "node/10800493168",
        "access": "yes",
        "addr:city": "Cullowhee",
        "addr:postcode": "28723",
        "addr:state": "NC",
        "fee": "no",
        "highway": "trailhead",
        "name": "Deep Gap",
        "operator": "United States Forest Service"
      },
      "geometry": {
        "type": "Point",
        "coordinates": [
          -83.1184114,
          35.3394286
        ]
      },
      "id": "node/10800493168"
    },
    {
      "type": "Feature",
      "properties": {
        "@id": "node/10800493171",
        "access": "yes",
        "addr:city": "Cullowhee",
        "addr:postcode": "28273",
        "addr:state": "NC",
        "fee": "no",
        "highway": "trailhead",
        "name": "Locust Gap Trail",
        "operator": "United States Forest Service"
      },
      "geometry": {
        "type": "Point",
        "coordinates": [
          -83.1165985,
          35.3457689
        ]
      },
      "id": "node/10800493171"
    },
    {
      "type": "Feature",
      "properties": {
        "@id": "node/10800493172",
        "access": "yes",
        "addr:city": "Cullowhee",
        "addr:postcode": "28723",
        "addr:state": "NC",
        "fee": "no",
        "highway": "trailhead",
        "name": "Locust Gap Connector",
        "operator": "United States Forest Service"
      },
      "geometry": {
        "type": "Point",
        "coordinates": [
          -83.1120938,
          35.3597275
        ]
      },
      "id": "node/10800493172"
    },
    {
      "type": "Feature",
      "properties": {
        "@id": "node/10800493179",
        "access": "yes",
        "addr:city": "Cullowhee",
        "addr:postcode": "28723",
        "addr:state": "NC",
        "fee": "no",
        "highway": "trailhead",
        "name": "Upper Wayehutta Creek",
        "operator": "United States Forest Service"
      },
      "geometry": {
        "type": "Point",
        "coordinates": [
          -83.1112809,
          35.361831
        ]
      },
      "id": "node/10800493179"
    },
    {
      "type": "Feature",
      "properties": {
        "@id": "node/10800523316",
        "access": "yes",
        "addr:city": "Cullowhee",
        "addr:postcode": "28723",
        "addr:state": "NC",
        "fee": "no",
        "highway": "trailhead",
        "name": "Buck Knob",
        "operator": "United States Forest Service"
      },
      "geometry": {
        "type": "Point",
        "coordinates": [
          -83.1311805,
          35.3550949
        ]
      },
      "id": "node/10800523316"
    },
    {
      "type": "Feature",
      "properties": {
        "@id": "node/10865439282",
        "highway": "trailhead",
        "name": "Smith Farm Trailhead"
      },
      "geometry": {
        "type": "Point",
        "coordinates": [
          -82.559833,
          35.8433714
        ]
      },
      "id": "node/10865439282"
    },
    {
      "type": "Feature",
      "properties": {
        "@id": "node/10962298972",
        "access": "yes",
        "fee": "no",
        "highway": "trailhead"
      },
      "geometry": {
        "type": "Point",
        "coordinates": [
          -84.0328765,
          35.0917471
        ]
      },
      "id": "node/10962298972"
    },
    {
      "type": "Feature",
      "properties": {
        "@id": "node/11007907785",
        "highway": "trailhead",
        "name": "Forney Ridge Trailhead",
        "operator": "National Park Service"
      },
      "geometry": {
        "type": "Point",
        "coordinates": [
          -83.4962405,
          35.5568132
        ]
      },
      "id": "node/11007907785"
    },
    {
      "type": "Feature",
      "properties": {
        "@id": "node/11007929923",
        "highway": "trailhead",
        "name": "Gabes Mountain Trail Trailhead",
        "operator": "National Park Service"
      },
      "geometry": {
        "type": "Point",
        "coordinates": [
          -83.2096325,
          35.7578331
        ]
      },
      "id": "node/11007929923"
    },
    {
      "type": "Feature",
      "properties": {
        "@id": "node/11282582556",
        "highway": "trailhead",
        "name": "North Ridge Trail Greenway"
      },
      "geometry": {
        "type": "Point",
        "coordinates": [
          -84.2767098,
          36.0234983
        ]
      },
      "id": "node/11282582556"
    },
    {
      "type": "Feature",
      "properties": {
        "@id": "node/11336758781",
        "highway": "trailhead",
        "name": "Little Egypt Trailhead"
      },
      "geometry": {
        "type": "Point",
        "coordinates": [
          -84.2243687,
          36.3254883
        ]
      },
      "id": "node/11336758781"
    },
    {
      "type": "Feature",
      "properties": {
        "@id": "node/11336864995",
        "access": "yes",
        "addr:city": "Hampton",
        "addr:housenumber": "717",
        "addr:postcode": "37658",
        "addr:state": "TN",
        "addr:street": "1st Avenue",
        "fee": "no",
        "highway": "trailhead",
        "name": "Hampton Watershed Trails",
        "operator": "City of Elizabethton"
      },
      "geometry": {
        "type": "Point",
        "coordinates": [
          -82.1740561,
          36.2797311
        ]
      },
      "id": "node/11336864995"
    },
    {
      "type": "Feature",
      "properties": {
        "@id": "node/11583006351",
        "highway": "trailhead",
        "name": "North Ridge Trail Mississippi Road Access"
      },
      "geometry": {
        "type": "Point",
        "coordinates": [
          -84.305126,
          36.0117505
        ]
      },
      "id": "node/11583006351"
    },
    {
      "type": "Feature",
      "properties": {
        "@id": "node/11769377207",
        "highway": "trailhead",
        "name": "Spicewood Trail"
      },
      "geometry": {
        "type": "Point",
        "coordinates": [
          -84.4956083,
          36.1248604
        ]
      },
      "id": "node/11769377207"
    },
    {
      "type": "Feature",
      "properties": {
        "@id": "node/11979171128",
        "access": "yes",
        "highway": "trailhead",
        "name": "Porters Creek Trail",
        "operator": "National Park Service"
      },
      "geometry": {
        "type": "Point",
        "coordinates": [
          -83.3882187,
          35.6967862
        ]
      },
      "id": "node/11979171128"
    },
    {
      "type": "Feature",
      "properties": {
        "@id": "node/11979171129",
        "access": "yes",
        "highway": "trailhead",
        "name": "Old Settlers Trailhead",
        "operator": "National Park Service"
      },
      "geometry": {
        "type": "Point",
        "coordinates": [
          -83.3800194,
          35.7077448
        ]
      },
      "id": "node/11979171129"
    },
    {
      "type": "Feature",
      "properties": {
        "@id": "node/12070739257",
        "access": "yes",
        "fee": "no",
        "highway": "trailhead",
        "name": "North Ridge Trail Illinois Avenue Access (East)"
      },
      "geometry": {
        "type": "Point",
        "coordinates": [
          -84.2863633,
          36.0200785
        ]
      },
      "id": "node/12070739257"
    },
    {
      "type": "Feature",
      "properties": {
        "@id": "node/12070826983",
        "access": "yes",
        "fee": "no",
        "highway": "trailhead",
        "name": "North Ridge Trail Illinois Avenue Access (West)"
      },
      "geometry": {
        "type": "Point",
        "coordinates": [
          -84.289928,
          36.0203316
        ]
      },
      "id": "node/12070826983"
    },
    {
      "type": "Feature",
      "properties": {
        "@id": "node/12070867871",
        "access": "yes",
        "fee": "no",
        "highway": "trailhead",
        "name": "North Ridge Trail Illinois Avenue Access (East)"
      },
      "geometry": {
        "type": "Point",
        "coordinates": [
          -84.2609925,
          36.0318943
        ]
      },
      "id": "node/12070867871"
    },
    {
      "type": "Feature",
      "properties": {
        "@id": "node/12070867872",
        "access": "yes",
        "fee": "no",
        "highway": "trailhead",
        "name": "North Ridge Trail Illinois Avenue Access (West)"
      },
      "geometry": {
        "type": "Point",
        "coordinates": [
          -84.2609034,
          36.0319009
        ]
      },
      "id": "node/12070867872"
    },
    {
      "type": "Feature",
      "properties": {
        "@id": "node/12070868045",
        "access": "yes",
        "fee": "no",
        "highway": "trailhead",
        "name": "North Ridge Trail Georgia Avenue Access"
      },
      "geometry": {
        "type": "Point",
        "coordinates": [
          -84.2406018,
          36.0369136
        ]
      },
      "id": "node/12070868045"
    },
    {
      "type": "Feature",
      "properties": {
        "@id": "node/12070868095",
        "access": "yes",
        "fee": "no",
        "highway": "trailhead",
        "name": "North Ridge Trail Endicott Lane Access"
      },
      "geometry": {
        "type": "Point",
        "coordinates": [
          -84.220879,
          36.0570349
        ]
      },
      "id": "node/12070868095"
    },
    {
      "type": "Feature",
      "properties": {
        "@id": "node/12166156813",
        "highway": "trailhead"
      },
      "geometry": {
        "type": "Point",
        "coordinates": [
          -82.6507678,
          36.2059815
        ]
      },
      "id": "node/12166156813"
    },
    {
      "type": "Feature",
      "properties": {
        "@id": "node/12320548872",
        "highway": "trailhead"
      },
      "geometry": {
        "type": "Point",
        "coordinates": [
          -82.2630239,
          35.0859752
        ]
      },
      "id": "node/12320548872"
    },
    {
      "type": "Feature",
      "properties": {
        "@id": "node/12434205832",
        "highway": "trailhead",
        "name": "Youngs Mountain Trailhead",
        "operator": "Conserving Carolina"
      },
      "geometry": {
        "type": "Point",
        "coordinates": [
          -82.1759506,
          35.4664486
        ]
      },
      "id": "node/12434205832"
    },
    {
      "type": "Feature",
      "properties": {
        "@id": "node/12451354314",
        "fee": "no",
        "highway": "trailhead"
      },
      "geometry": {
        "type": "Point",
        "coordinates": [
          -86.5780444,
          35.0988219
        ]
      },
      "id": "node/12451354314"
    },
    {
      "type": "Feature",
      "properties": {
        "@id": "node/12463582980",
        "access": "yes",
        "highway": "trailhead",
        "name": "Tank Springs Trailhead"
      },
      "geometry": {
        "type": "Point",
        "coordinates": [
          -84.1258712,
          36.3880965
        ]
      },
      "id": "node/12463582980"
    },
    {
      "type": "Feature",
      "properties": {
        "@id": "node/12466210223",
        "highway": "trailhead"
      },
      "geometry": {
        "type": "Point",
        "coordinates": [
          -84.1783765,
          35.856588
        ]
      },
      "id": "node/12466210223"
    },
    {
      "type": "Feature",
      "properties": {
        "@id": "node/12498366464",
        "highway": "trailhead"
      },
      "geometry": {
        "type": "Point",
        "coordinates": [
          -84.1625312,
          35.856559
        ]
      },
      "id": "node/12498366464"
    },
    {
      "type": "Feature",
      "properties": {
        "@id": "node/12549787996",
        "access": "yes",
        "charge": "5 USD",
        "fee": "yes",
        "highway": "trailhead",
        "name": "Fisherman's Loop Trailhead",
        "operator": "Virginia Department of Conservation and Recreation",
        "payment:cash": "yes"
      },
      "geometry": {
        "type": "Point",
        "coordinates": [
          -83.5215091,
          36.63023
        ]
      },
      "id": "node/12549787996"
    },
    {
      "type": "Feature",
      "properties": {
        "@id": "node/12550208084",
        "charge": "5 USD",
        "fee": "yes",
        "highway": "trailhead",
        "name": "Indian Ridge Trailhead",
        "operator": "Virginia Department of Conservation and Recreation",
        "payment:cash": "yes"
      },
      "geometry": {
        "type": "Point",
        "coordinates": [
          -83.5244137,
          36.6339827
        ]
      },
      "id": "node/12550208084"
    },
    {
      "type": "Feature",
      "properties": {
        "@id": "node/12566487015",
        "highway": "trailhead",
        "name": "Hard Times Trailhead"
      },
      "geometry": {
        "type": "Point",
        "coordinates": [
          -82.6242519,
          35.4877221
        ]
      },
      "id": "node/12566487015"
    },
    {
      "type": "Feature",
      "properties": {
        "@id": "node/12566960900",
        "highway": "trailhead",
        "name": "Morfield Trailhead",
        "operator": "Doe Mountain Recreation Area"
      },
      "geometry": {
        "type": "Point",
        "coordinates": [
          -81.9088148,
          36.3946714
        ]
      },
      "id": "node/12566960900"
    },
    {
      "type": "Feature",
      "properties": {
        "@id": "node/12724258914",
        "alt_name": "West Lookout Tower Trail",
        "highway": "trailhead",
        "name": "Big Cove Trailhead"
      },
      "geometry": {
        "type": "Point",
        "coordinates": [
          -84.497852,
          36.1342045
        ]
      },
      "id": "node/12724258914"
    },
    {
      "type": "Feature",
      "properties": {
        "@id": "node/12724258915",
        "highway": "trailhead",
        "name": "Bird Mountain Trail"
      },
      "geometry": {
        "type": "Point",
        "coordinates": [
          -84.4987719,
          36.135931
        ]
      },
      "id": "node/12724258915"
    },
    {
      "type": "Feature",
      "properties": {
        "@id": "node/12724258916",
        "highway": "trailhead",
        "name": "North Bird Mountain Trail"
      },
      "geometry": {
        "type": "Point",
        "coordinates": [
          -84.5002083,
          36.1467957
        ]
      },
      "id": "node/12724258916"
    },
    {
      "type": "Feature",
      "properties": {
        "@id": "node/12724258917",
        "highway": "trailhead",
        "name": "Emory Gap Trail"
      },
      "geometry": {
        "type": "Point",
        "coordinates": [
          -84.474752,
          36.1408948
        ]
      },
      "id": "node/12724258917"
    },
    {
      "type": "Feature",
      "properties": {
        "@id": "node/12724258924",
        "highway": "trailhead",
        "name": "Old Mac Trailhead"
      },
      "geometry": {
        "type": "Point",
        "coordinates": [
          -84.5003138,
          36.1269169
        ]
      },
      "id": "node/12724258924"
    },
    {
      "type": "Feature",
      "properties": {
        "@id": "node/12724258925",
        "highway": "trailhead",
        "name": "South Old Mac Trail"
      },
      "geometry": {
        "type": "Point",
        "coordinates": [
          -84.4956146,
          36.1250133
        ]
      },
      "id": "node/12724258925"
    },
    {
      "type": "Feature",
      "properties": {
        "@id": "node/12724258926",
        "highway": "trailhead",
        "name": "Judge Branch Trail"
      },
      "geometry": {
        "type": "Point",
        "coordinates": [
          -84.4952278,
          36.1244594
        ]
      },
      "id": "node/12724258926"
    },
    {
      "type": "Feature",
      "properties": {
        "@id": "node/12737960197",
        "highway": "trailhead",
        "name": "Sims Creek Overlook"
      },
      "geometry": {
        "type": "Point",
        "coordinates": [
          -81.7112737,
          36.1457905
        ]
      },
      "id": "node/12737960197"
    },
    {
      "type": "Feature",
      "properties": {
        "@id": "node/12793452601",
        "access": "yes",
        "fee": "no",
        "highway": "trailhead",
        "name": "Bartam Trail Extension No. 67-02A",
        "operator": "United States Forest Service"
      },
      "geometry": {
        "type": "Point",
        "coordinates": [
          -83.7948663,
          35.2573509
        ]
      },
      "id": "node/12793452601"
    },
    {
      "type": "Feature",
      "properties": {
        "@id": "node/12814680665",
        "highway": "trailhead"
      },
      "geometry": {
        "type": "Point",
        "coordinates": [
          -84.2673804,
          35.6494775
        ]
      },
      "id": "node/12814680665"
    },
    {
      "type": "Feature",
      "properties": {
        "@id": "node/13005006021",
        "highway": "trailhead",
        "name": "Looking Glass Rock Trailhead",
        "operator": "US Forest Service",
        "website": "https://www.fs.usda.gov/recarea/nfsnc/recarea/?recid=48142"
      },
      "geometry": {
        "type": "Point",
        "coordinates": [
          -82.7766797,
          35.2909797
        ]
      },
      "id": "node/13005006021"
    },
    {
      "type": "Feature",
      "properties": {
        "@id": "node/13009819974",
        "highway": "trailhead"
      },
      "geometry": {
        "type": "Point",
        "coordinates": [
          -82.4593597,
          35.3094802
        ]
      },
      "id": "node/13009819974"
    },
    {
      "type": "Feature",
      "properties": {
        "@id": "node/13020075979",
        "highway": "trailhead",
        "name": "Upper Chinquapin Greenway"
      },
      "geometry": {
        "type": "Point",
        "coordinates": [
          -81.962629,
          34.9842198
        ]
      },
      "id": "node/13020075979"
    },
    {
      "type": "Feature",
      "properties": {
        "@id": "node/13020076098",
        "highway": "trailhead",
        "name": "Upper Chinquapin Greenway"
      },
      "geometry": {
        "type": "Point",
        "coordinates": [
          -81.9635789,
          34.9845821
        ]
      },
      "id": "node/13020076098"
    },
    {
      "type": "Feature",
      "properties": {
        "@id": "node/13037758334",
        "access": "yes",
        "bicycle": "no",
        "bin": "no",
        "foot": "designated",
        "highway": "trailhead",
        "horse": "designated",
        "motor_vehicle": "no",
        "name": "Ewing Trail (Horseback)",
        "operator": "National Park Service",
        "parking": "no",
        "toilets": "no"
      },
      "geometry": {
        "type": "Point",
        "coordinates": [
          -83.4336825,
          36.6543533
        ]
      },
      "id": "node/13037758334"
    },
    {
      "type": "Feature",
      "properties": {
        "@id": "node/13121468107",
        "highway": "trailhead",
        "name": "West Prong Trail Trailhead",
        "operator": "National Park Service"
      },
      "geometry": {
        "type": "Point",
        "coordinates": [
          -83.6913891,
          35.6409543
        ]
      },
      "id": "node/13121468107"
    },
    {
      "type": "Feature",
      "properties": {
        "@id": "node/13121468846",
        "highway": "trailhead",
        "name": "Roundtop Trail Trailhead",
        "operator": "National Park Service"
      },
      "geometry": {
        "type": "Point",
        "coordinates": [
          -83.6460882,
          35.6924471
        ]
      },
      "id": "node/13121468846"
    },
    {
      "type": "Feature",
      "properties": {
        "@id": "node/13121576709",
        "highway": "trailhead",
        "name": "John Oliver Cabin Access Trailhead"
      },
      "geometry": {
        "type": "Point",
        "coordinates": [
          -83.7946771,
          35.6066456
        ]
      },
      "id": "node/13121576709"
    },
    {
      "type": "Feature",
      "properties": {
        "@id": "node/13121662442",
        "highway": "trailhead",
        "name": "Hemphill Bald Trail Trailhead",
        "operator": "National Park Service"
      },
      "geometry": {
        "type": "Point",
        "coordinates": [
          -83.1615639,
          35.5632538
        ]
      },
      "id": "node/13121662442"
    },
    {
      "type": "Feature",
      "properties": {
        "@id": "node/13121684442",
        "highway": "trailhead",
        "name": "Twin Creeks Trail Trailhead",
        "operator": "National Park Service"
      },
      "geometry": {
        "type": "Point",
        "coordinates": [
          -83.5112465,
          35.7009431
        ]
      },
      "id": "node/13121684442"
    },
    {
      "type": "Feature",
      "properties": {
        "@id": "node/13121707497",
        "highway": "trailhead",
        "name": "Meigs Creek Trail Trailhead",
        "operator": "National Park Service"
      },
      "geometry": {
        "type": "Point",
        "coordinates": [
          -83.6620869,
          35.669433
        ]
      },
      "id": "node/13121707497"
    },
    {
      "type": "Feature",
      "properties": {
        "@id": "node/13121713209",
        "highway": "trailhead",
        "name": "Noland Divide Trail Trailhead",
        "operator": "National Park Service"
      },
      "geometry": {
        "type": "Point",
        "coordinates": [
          -83.4385218,
          35.4596682
        ]
      },
      "id": "node/13121713209"
    },
    {
      "type": "Feature",
      "properties": {
        "@id": "node/13121930323",
        "highway": "trailhead",
        "name": "Gregory Ridge Trail Trailhead",
        "operator": "National Park Service"
      },
      "geometry": {
        "type": "Point",
        "coordinates": [
          -83.8457687,
          35.5624812
        ]
      },
      "id": "node/13121930323"
    },
    {
      "type": "Feature",
      "properties": {
        "@id": "node/13121955629",
        "highway": "trailhead",
        "name": "Fork Ridge Trail Trailhead",
        "operator": "National Park Service"
      },
      "geometry": {
        "type": "Point",
        "coordinates": [
          -83.469451,
          35.5903373
        ]
      },
      "id": "node/13121955629"
    },
    {
      "type": "Feature",
      "properties": {
        "@id": "node/13122731753",
        "highway": "trailhead",
        "name": "Middle Prong Trail Trailhead",
        "operator": "National Park Service"
      },
      "geometry": {
        "type": "Point",
        "coordinates": [
          -83.6697475,
          35.618106
        ]
      },
      "id": "node/13122731753"
    },
    {
      "type": "Feature",
      "properties": {
        "@id": "node/13316346568",
        "highway": "trailhead"
      },
      "geometry": {
        "type": "Point",
        "coordinates": [
          -85.3857537,
          35.0419035
        ]
      },
      "id": "node/13316346568"
    },
    {
      "type": "Feature",
      "properties": {
        "@id": "node/13357023221",
        "access": "yes",
        "fee": "no",
        "highway": "trailhead"
      },
      "geometry": {
        "type": "Point",
        "coordinates": [
          -84.0370057,
          35.0865931
        ]
      },
      "id": "node/13357023221"
    },
    {
      "type": "Feature",
      "properties": {
        "@id": "node/13357023227",
        "access": "yes",
        "fee": "no",
        "highway": "trailhead"
      },
      "geometry": {
        "type": "Point",
        "coordinates": [
          -84.0289594,
          35.0909349
        ]
      },
      "id": "node/13357023227"
    },
    {
      "type": "Feature",
      "properties": {
        "@id": "node/13357023250",
        "access": "yes",
        "fee": "no",
        "highway": "trailhead"
      },
      "geometry": {
        "type": "Point",
        "coordinates": [
          -84.0241053,
          35.0940394
        ]
      },
      "id": "node/13357023250"
    },
    {
      "type": "Feature",
      "properties": {
        "@id": "node/13460509090",
        "highway": "trailhead",
        "name": "Clemmer Trailhead",
        "operator": "US Forest Service",
        "website": "https://www.fs.usda.gov/recarea/cherokee/recarea/?recid=35082"
      },
      "geometry": {
        "type": "Point",
        "coordinates": [
          -84.5790913,
          35.1150519
        ]
      },
      "id": "node/13460509090"
    },
    {
      "type": "Feature",
      "properties": {
        "@id": "node/13516141134",
        "access": "yes",
        "fee": "no",
        "highway": "trailhead",
        "name": "Bartam Trail Extension No. 67-02A",
        "operator": "United States Forest Service"
      },
      "geometry": {
        "type": "Point",
        "coordinates": [
          -83.6917409,
          35.2730849
        ]
      },
      "id": "node/13516141134"
    },
    {
      "type": "Feature",
      "properties": {
        "@id": "node/13516207141",
        "access": "yes",
        "fee": "no",
        "highway": "trailhead"
      },
      "geometry": {
        "type": "Point",
        "coordinates": [
          -83.9383074,
          35.2643766
        ]
      },
      "id": "node/13516207141"
    },
    {
      "type": "Feature",
      "properties": {
        "@id": "node/13578408236",
        "highway": "trailhead",
        "name": "Virginia Creeper Trail: Watauga Trail Head"
      },
      "geometry": {
        "type": "Point",
        "coordinates": [
          -81.934998,
          36.6779791
        ]
      },
      "id": "node/13578408236"
    },
    {
      "type": "Feature",
      "properties": {
        "@id": "node/13675862147",
        "highway": "trailhead",
        "name": "Husky Gap Trailhead",
        "operator": "National Park Service"
      },
      "geometry": {
        "type": "Point",
        "coordinates": [
          -83.5265396,
          35.6632545
        ]
      },
      "id": "node/13675862147"
    },
    {
      "type": "Feature",
      "properties": {
        "@id": "node/13753190359",
        "highway": "trailhead",
        "name": "Barr Trailhead"
      },
      "geometry": {
        "type": "Point",
        "coordinates": [
          -89.7299449,
          35.8889185
        ]
      },
      "id": "node/13753190359"
    },
    {
      "type": "Feature",
      "properties": {
        "@id": "node/13753746085",
        "highway": "trailhead",
        "name": "Henderen Trailhead"
      },
      "geometry": {
        "type": "Point",
        "coordinates": [
          -89.6254981,
          35.8844793
        ]
      },
      "id": "node/13753746085"
    },
    {
      "type": "Feature",
      "properties": {
        "@id": "node/13753746099",
        "highway": "trailhead",
        "name": "Freeman Access Trailhead"
      },
      "geometry": {
        "type": "Point",
        "coordinates": [
          -89.6668842,
          35.864832
        ]
      },
      "id": "node/13753746099"
    },
    {
      "type": "Feature",
      "properties": {
        "@id": "node/13753746187",
        "highway": "trailhead",
        "name": "Morris Road Trailhead"
      },
      "geometry": {
        "type": "Point",
        "coordinates": [
          -89.6877255,
          35.8190247
        ]
      },
      "id": "node/13753746187"
    }
  ]
}