{
  "type": "FeatureCollection",
  "generator": "overpass-turbo",
  "copyright": "The data included in this document is from www.openstreetmap.org. The data is made available under ODbL.",
  "timestamp": "2026-06-28T00:58:51Z",
  "features": [
    {
      "type": "Feature",
      "properties": {
        "@id": "node/156187823",
        "name": "Tenskwatawa Falls",
        "waterway": "waterfall"
      },
      "geometry": {
        "type": "Point",
        "coordinates": [
          -80.3381745,
          38.6550915
        ]
      },
      "id": "node/156187823"
    },
    {
      "type": "Feature",
      "properties": {
        "@id": "node/445486843",
        "height": "20",
        "name": "Rose River Falls",
        "waterway": "waterfall"
      },
      "geometry": {
        "type": "Point",
        "coordinates": [
          -78.4086575,
          38.5315933
        ]
      },
      "id": "node/445486843"
    },
    {
      "type": "Feature",
      "properties": {
        "@id": "node/445502073",
        "ele": "649",
        "gnis:feature_id": "1474891",
        "height": "27",
        "name": "South River Falls",
        "waterway": "waterfall"
      },
      "geometry": {
        "type": "Point",
        "coordinates": [
          -78.5005416,
          38.3793755
        ]
      },
      "id": "node/445502073"
    },
    {
      "type": "Feature",
      "properties": {
        "@id": "node/445531370",
        "height": "18",
        "name": "Lower Whiteoak Falls",
        "waterway": "waterfall"
      },
      "geometry": {
        "type": "Point",
        "coordinates": [
          -78.3531594,
          38.5558436
        ]
      },
      "id": "node/445531370"
    },
    {
      "type": "Feature",
      "properties": {
        "@id": "node/445531389",
        "height": "12.5",
        "name": "Lower Whiteoak Falls",
        "waterway": "waterfall"
      },
      "geometry": {
        "type": "Point",
        "coordinates": [
          -78.3552217,
          38.5570907
        ]
      },
      "id": "node/445531389"
    },
    {
      "type": "Feature",
      "properties": {
        "@id": "node/445531425",
        "height": "26",
        "name": "Upper Whiteoak Falls",
        "waterway": "waterfall"
      },
      "geometry": {
        "type": "Point",
        "coordinates": [
          -78.3637429,
          38.5636002
        ]
      },
      "id": "node/445531425"
    },
    {
      "type": "Feature",
      "properties": {
        "@id": "node/445531443",
        "height": "10.6",
        "name": "Upper Whiteoak Falls",
        "waterway": "waterfall"
      },
      "geometry": {
        "type": "Point",
        "coordinates": [
          -78.3577061,
          38.5598486
        ]
      },
      "id": "node/445531443"
    },
    {
      "type": "Feature",
      "properties": {
        "@id": "node/445591279",
        "name": "Cave Falls",
        "waterway": "waterfall"
      },
      "geometry": {
        "type": "Point",
        "coordinates": [
          -78.2866694,
          38.6348845
        ]
      },
      "id": "node/445591279"
    },
    {
      "type": "Feature",
      "properties": {
        "@id": "node/447978327",
        "name": "Stubblefield Falls",
        "waterway": "waterfall"
      },
      "geometry": {
        "type": "Point",
        "coordinates": [
          -77.1952563,
          38.9688692
        ]
      },
      "id": "node/447978327"
    },
    {
      "type": "Feature",
      "properties": {
        "@id": "node/474006112",
        "waterway": "waterfall"
      },
      "geometry": {
        "type": "Point",
        "coordinates": [
          -79.529133,
          37.4970544
        ]
      },
      "id": "node/474006112"
    },
    {
      "type": "Feature",
      "properties": {
        "@id": "node/480165942",
        "NHD:ComID": "136642186",
        "NHD:FCode": "48700",
        "NHD:FType": "Waterfall",
        "NHD:RESOLUTION": "High",
        "NHD:way_id": "136642186",
        "attribution": "NHD",
        "gnis:feature_id": "1476582",
        "name": "White Falls",
        "source": "NHD_import_v0.2_20090823205030",
        "waterway": "waterfall"
      },
      "geometry": {
        "type": "Point",
        "coordinates": [
          -80.147467,
          36.837868
        ]
      },
      "id": "node/480165942"
    },
    {
      "type": "Feature",
      "properties": {
        "@id": "node/482324081",
        "name": "Fall Creek Falls",
        "waterway": "waterfall"
      },
      "geometry": {
        "type": "Point",
        "coordinates": [
          -79.9847321,
          36.5412139
        ]
      },
      "id": "node/482324081"
    },
    {
      "type": "Feature",
      "properties": {
        "@id": "node/482424449",
        "tourism": "attraction",
        "waterway": "waterfall"
      },
      "geometry": {
        "type": "Point",
        "coordinates": [
          -80.0981048,
          36.7857247
        ]
      },
      "id": "node/482424449"
    },
    {
      "type": "Feature",
      "properties": {
        "@id": "node/507437597",
        "NHD:ComID": "135969421",
        "NHD:FCode": "48700",
        "NHD:FType": "Waterfall",
        "NHD:RESOLUTION": "High",
        "NHD:way_id": "135969421",
        "attribution": "NHD",
        "source": "NHD_import_v0.2_20090924132727",
        "waterway": "waterfall"
      },
      "geometry": {
        "type": "Point",
        "coordinates": [
          -78.1494289,
          37.0464386
        ]
      },
      "id": "node/507437597"
    },
    {
      "type": "Feature",
      "properties": {
        "@id": "node/508029576",
        "ele": "39",
        "height": "14",
        "intermittent": "no",
        "name": "Great Falls",
        "waterway": "waterfall",
        "wikidata": "Q1475394",
        "wikipedia": "en:Great Falls (Potomac River)"
      },
      "geometry": {
        "type": "Point",
        "coordinates": [
          -77.2528664,
          38.9976913
        ]
      },
      "id": "node/508029576"
    },
    {
      "type": "Feature",
      "properties": {
        "@id": "node/518116285",
        "name": "Cedar Run Falls",
        "waterway": "waterfall"
      },
      "geometry": {
        "type": "Point",
        "coordinates": [
          -78.3672512,
          38.5422868
        ]
      },
      "id": "node/518116285"
    },
    {
      "type": "Feature",
      "properties": {
        "@id": "node/541281126",
        "waterway": "waterfall"
      },
      "geometry": {
        "type": "Point",
        "coordinates": [
          -81.520662,
          36.6368006
        ]
      },
      "id": "node/541281126"
    },
    {
      "type": "Feature",
      "properties": {
        "@id": "node/541625275",
        "name": "Chestnut Creek Falls",
        "waterway": "waterfall"
      },
      "geometry": {
        "type": "Point",
        "coordinates": [
          -80.9090849,
          36.7157561
        ]
      },
      "id": "node/541625275"
    },
    {
      "type": "Feature",
      "properties": {
        "@id": "node/824379463",
        "height": "0.5",
        "waterway": "waterfall"
      },
      "geometry": {
        "type": "Point",
        "coordinates": [
          -77.3320468,
          39.0904746
        ]
      },
      "id": "node/824379463"
    },
    {
      "type": "Feature",
      "properties": {
        "@id": "node/994284298",
        "height": "0.3",
        "waterway": "waterfall"
      },
      "geometry": {
        "type": "Point",
        "coordinates": [
          -76.6675354,
          39.291772
        ]
      },
      "id": "node/994284298"
    },
    {
      "type": "Feature",
      "properties": {
        "@id": "node/1001602347",
        "name": "McKeldin Falls",
        "waterway": "waterfall"
      },
      "geometry": {
        "type": "Point",
        "coordinates": [
          -76.8870932,
          39.3509671
        ]
      },
      "id": "node/1001602347"
    },
    {
      "type": "Feature",
      "properties": {
        "@id": "node/1080505815",
        "waterway": "waterfall"
      },
      "geometry": {
        "type": "Point",
        "coordinates": [
          -76.6339577,
          39.3776163
        ]
      },
      "id": "node/1080505815"
    },
    {
      "type": "Feature",
      "properties": {
        "@id": "node/1338513934",
        "waterway": "waterfall"
      },
      "geometry": {
        "type": "Point",
        "coordinates": [
          -76.5267982,
          39.3703842
        ]
      },
      "id": "node/1338513934"
    },
    {
      "type": "Feature",
      "properties": {
        "@id": "node/1352874124",
        "intermittent": "no",
        "name": "Cascade Falls",
        "waterway": "waterfall"
      },
      "geometry": {
        "type": "Point",
        "coordinates": [
          -76.7517768,
          39.239581
        ]
      },
      "id": "node/1352874124"
    },
    {
      "type": "Feature",
      "properties": {
        "@id": "node/1443407542",
        "height": "1",
        "intermittent": "no",
        "name": "Old Dam Waterfall",
        "waterway": "waterfall"
      },
      "geometry": {
        "type": "Point",
        "coordinates": [
          -77.7299981,
          39.4496097
        ]
      },
      "id": "node/1443407542"
    },
    {
      "type": "Feature",
      "properties": {
        "@id": "node/1617215763",
        "name": "Cascades",
        "waterway": "waterfall"
      },
      "geometry": {
        "type": "Point",
        "coordinates": [
          -80.5748887,
          37.3678981
        ]
      },
      "id": "node/1617215763"
    },
    {
      "type": "Feature",
      "properties": {
        "@id": "node/1737773824",
        "name": "Stony Run Falls",
        "waterway": "waterfall"
      },
      "geometry": {
        "type": "Point",
        "coordinates": [
          -79.8308535,
          37.8867424
        ]
      },
      "id": "node/1737773824"
    },
    {
      "type": "Feature",
      "properties": {
        "@id": "node/1800106871",
        "name": "Lands Run Falls",
        "source": "survey 4/2016",
        "waterway": "waterfall"
      },
      "geometry": {
        "type": "Point",
        "coordinates": [
          -78.1891405,
          38.828281
        ]
      },
      "id": "node/1800106871"
    },
    {
      "type": "Feature",
      "properties": {
        "@id": "node/1873933813",
        "waterway": "waterfall"
      },
      "geometry": {
        "type": "Point",
        "coordinates": [
          -79.3575049,
          39.0000406
        ]
      },
      "id": "node/1873933813"
    },
    {
      "type": "Feature",
      "properties": {
        "@id": "node/2068880604",
        "waterway": "waterfall"
      },
      "geometry": {
        "type": "Point",
        "coordinates": [
          -76.872774,
          39.0113614
        ]
      },
      "id": "node/2068880604"
    },
    {
      "type": "Feature",
      "properties": {
        "@id": "node/2325001906",
        "height": "19",
        "name": "Blackwater Falls",
        "waterway": "waterfall",
        "wikidata": "Q2422073"
      },
      "geometry": {
        "type": "Point",
        "coordinates": [
          -79.4830082,
          39.1135089
        ]
      },
      "id": "node/2325001906"
    },
    {
      "type": "Feature",
      "properties": {
        "@id": "node/2364523405",
        "name": "Cedar Falls",
        "waterway": "waterfall"
      },
      "geometry": {
        "type": "Point",
        "coordinates": [
          -82.5248519,
          39.4189721
        ]
      },
      "id": "node/2364523405"
    },
    {
      "type": "Feature",
      "properties": {
        "@id": "node/2364523416",
        "name": "Upper Falls",
        "tourism": "yes",
        "waterway": "waterfall"
      },
      "geometry": {
        "type": "Point",
        "coordinates": [
          -82.53903,
          39.4362181
        ]
      },
      "id": "node/2364523416"
    },
    {
      "type": "Feature",
      "properties": {
        "@id": "node/2364560700",
        "name": "Devil's Bathtub",
        "tourism": "yes",
        "waterway": "waterfall"
      },
      "geometry": {
        "type": "Point",
        "coordinates": [
          -82.5400037,
          39.4354189
        ]
      },
      "id": "node/2364560700"
    },
    {
      "type": "Feature",
      "properties": {
        "@id": "node/2442129172",
        "waterway": "waterfall"
      },
      "geometry": {
        "type": "Point",
        "coordinates": [
          -77.4770148,
          37.5333345
        ]
      },
      "id": "node/2442129172"
    },
    {
      "type": "Feature",
      "properties": {
        "@id": "node/2540647086",
        "ford": "yes",
        "waterway": "waterfall"
      },
      "geometry": {
        "type": "Point",
        "coordinates": [
          -76.6654899,
          38.7238491
        ]
      },
      "id": "node/2540647086"
    },
    {
      "type": "Feature",
      "properties": {
        "@id": "node/2785569264",
        "name": "Hooks Mill Falls",
        "waterway": "waterfall"
      },
      "geometry": {
        "type": "Point",
        "coordinates": [
          -78.4477135,
          39.2378375
        ]
      },
      "id": "node/2785569264"
    },
    {
      "type": "Feature",
      "properties": {
        "@id": "node/2918099204",
        "waterway": "waterfall"
      },
      "geometry": {
        "type": "Point",
        "coordinates": [
          -79.1790166,
          37.8085097
        ]
      },
      "id": "node/2918099204"
    },
    {
      "type": "Feature",
      "properties": {
        "@id": "node/2974686836",
        "name": "Lower Falls",
        "tourism": "yes",
        "waterway": "waterfall"
      },
      "geometry": {
        "type": "Point",
        "coordinates": [
          -82.5441942,
          39.4326769
        ]
      },
      "id": "node/2974686836"
    },
    {
      "type": "Feature",
      "properties": {
        "@id": "node/2975137733",
        "name": "Broken Rock Falls",
        "tourism": "yes",
        "waterway": "waterfall"
      },
      "geometry": {
        "type": "Point",
        "coordinates": [
          -82.546559,
          39.4324265
        ]
      },
      "id": "node/2975137733"
    },
    {
      "type": "Feature",
      "properties": {
        "@id": "node/3152439472",
        "waterway": "waterfall"
      },
      "geometry": {
        "type": "Point",
        "coordinates": [
          -77.0050773,
          39.0300652
        ]
      },
      "id": "node/3152439472"
    },
    {
      "type": "Feature",
      "properties": {
        "@id": "node/3287010496",
        "height": "6",
        "name": "High Falls",
        "waterway": "waterfall"
      },
      "geometry": {
        "type": "Point",
        "coordinates": [
          -79.7776044,
          38.7723064
        ]
      },
      "id": "node/3287010496"
    },
    {
      "type": "Feature",
      "properties": {
        "@id": "node/3827833390",
        "height": "19",
        "name": "Upper Whiteoak Falls",
        "waterway": "waterfall"
      },
      "geometry": {
        "type": "Point",
        "coordinates": [
          -78.3594972,
          38.5607171
        ]
      },
      "id": "node/3827833390"
    },
    {
      "type": "Feature",
      "properties": {
        "@id": "node/3827833396",
        "waterway": "waterfall"
      },
      "geometry": {
        "type": "Point",
        "coordinates": [
          -78.3612567,
          38.5373549
        ]
      },
      "id": "node/3827833396"
    },
    {
      "type": "Feature",
      "properties": {
        "@id": "node/3889709493",
        "intermittent": "no",
        "name": "Round Falls",
        "waterway": "waterfall",
        "wikidata": "Q113624694"
      },
      "geometry": {
        "type": "Point",
        "coordinates": [
          -76.6300421,
          39.3209477
        ]
      },
      "id": "node/3889709493"
    },
    {
      "type": "Feature",
      "properties": {
        "@id": "node/4012068153",
        "name": "Elakala Falls",
        "waterway": "waterfall",
        "wikidata": "Q37322"
      },
      "geometry": {
        "type": "Point",
        "coordinates": [
          -79.4992844,
          39.1071729
        ]
      },
      "id": "node/4012068153"
    },
    {
      "type": "Feature",
      "properties": {
        "@id": "node/4059922977",
        "waterway": "waterfall"
      },
      "geometry": {
        "type": "Point",
        "coordinates": [
          -77.0037179,
          39.0294221
        ]
      },
      "id": "node/4059922977"
    },
    {
      "type": "Feature",
      "properties": {
        "@id": "node/4192762197",
        "height": "28.3",
        "name": "Overall Run Falls",
        "waterway": "waterfall"
      },
      "geometry": {
        "type": "Point",
        "coordinates": [
          -78.294178,
          38.7827236
        ]
      },
      "id": "node/4192762197"
    },
    {
      "type": "Feature",
      "properties": {
        "@id": "node/4335701224",
        "waterway": "waterfall"
      },
      "geometry": {
        "type": "Point",
        "coordinates": [
          -77.4154227,
          39.4152425
        ]
      },
      "id": "node/4335701224"
    },
    {
      "type": "Feature",
      "properties": {
        "@id": "node/4484937552",
        "name": "Creation Falls",
        "waterway": "waterfall"
      },
      "geometry": {
        "type": "Point",
        "coordinates": [
          -83.561751,
          37.7694108
        ]
      },
      "id": "node/4484937552"
    },
    {
      "type": "Feature",
      "properties": {
        "@id": "node/4526882768",
        "waterway": "waterfall"
      },
      "geometry": {
        "type": "Point",
        "coordinates": [
          -77.4123942,
          39.2995974
        ]
      },
      "id": "node/4526882768"
    },
    {
      "type": "Feature",
      "properties": {
        "@id": "node/4526882776",
        "waterway": "waterfall"
      },
      "geometry": {
        "type": "Point",
        "coordinates": [
          -77.4117545,
          39.29881
        ]
      },
      "id": "node/4526882776"
    },
    {
      "type": "Feature",
      "properties": {
        "@id": "node/4745102362",
        "waterway": "waterfall"
      },
      "geometry": {
        "type": "Point",
        "coordinates": [
          -82.227974,
          38.422567
        ]
      },
      "id": "node/4745102362"
    },
    {
      "type": "Feature",
      "properties": {
        "@id": "node/4750849880",
        "waterway": "waterfall"
      },
      "geometry": {
        "type": "Point",
        "coordinates": [
          -82.1297956,
          38.433684
        ]
      },
      "id": "node/4750849880"
    },
    {
      "type": "Feature",
      "properties": {
        "@id": "node/4895439023",
        "waterway": "waterfall"
      },
      "geometry": {
        "type": "Point",
        "coordinates": [
          -77.1263363,
          37.6396794
        ]
      },
      "id": "node/4895439023"
    },
    {
      "type": "Feature",
      "properties": {
        "@id": "node/4957677725",
        "name": "Coe Creek",
        "waterway": "waterfall"
      },
      "geometry": {
        "type": "Point",
        "coordinates": [
          -77.364705,
          38.727991
        ]
      },
      "id": "node/4957677725"
    },
    {
      "type": "Feature",
      "properties": {
        "@id": "node/5250812769",
        "name": "Lace Falls",
        "waterway": "waterfall"
      },
      "geometry": {
        "type": "Point",
        "coordinates": [
          -79.5548156,
          37.6348473
        ]
      },
      "id": "node/5250812769"
    },
    {
      "type": "Feature",
      "properties": {
        "@id": "node/5298307749",
        "height": "8.8",
        "name": "Upper Overall Run Falls",
        "waterway": "waterfall"
      },
      "geometry": {
        "type": "Point",
        "coordinates": [
          -78.2925096,
          38.7817874
        ]
      },
      "id": "node/5298307749"
    },
    {
      "type": "Feature",
      "properties": {
        "@id": "node/5316513946",
        "height": "24",
        "name": "Lewis Spring Falls",
        "waterway": "waterfall"
      },
      "geometry": {
        "type": "Point",
        "coordinates": [
          -78.4498686,
          38.52027
        ]
      },
      "id": "node/5316513946"
    },
    {
      "type": "Feature",
      "properties": {
        "@id": "node/5320822772",
        "height": "15",
        "name": "Lower Whiteoak Falls",
        "waterway": "waterfall"
      },
      "geometry": {
        "type": "Point",
        "coordinates": [
          -78.3545424,
          38.5570371
        ]
      },
      "id": "node/5320822772"
    },
    {
      "type": "Feature",
      "properties": {
        "@id": "node/5323038144",
        "height": "21",
        "name": "Dark Hollow Falls",
        "waterway": "waterfall"
      },
      "geometry": {
        "type": "Point",
        "coordinates": [
          -78.4234033,
          38.5187538
        ]
      },
      "id": "node/5323038144"
    },
    {
      "type": "Feature",
      "properties": {
        "@id": "node/5334181000",
        "gnis:feature_id": "1481332",
        "name": "Apple Orchard Falls",
        "waterway": "waterfall"
      },
      "geometry": {
        "type": "Point",
        "coordinates": [
          -79.5327747,
          37.5162846
        ]
      },
      "id": "node/5334181000"
    },
    {
      "type": "Feature",
      "properties": {
        "@id": "node/5538898771",
        "intermittent": "yes",
        "waterway": "waterfall"
      },
      "geometry": {
        "type": "Point",
        "coordinates": [
          -77.5239886,
          39.1261793
        ]
      },
      "id": "node/5538898771"
    },
    {
      "type": "Feature",
      "properties": {
        "@id": "node/5834974290",
        "gnis:feature_id": "1481871",
        "name": "Blue Suck Falls",
        "waterway": "waterfall"
      },
      "geometry": {
        "type": "Point",
        "coordinates": [
          -79.8207594,
          37.9044941
        ]
      },
      "id": "node/5834974290"
    },
    {
      "type": "Feature",
      "properties": {
        "@id": "node/5928355352",
        "waterway": "waterfall"
      },
      "geometry": {
        "type": "Point",
        "coordinates": [
          -76.6445263,
          39.3257195
        ]
      },
      "id": "node/5928355352"
    },
    {
      "type": "Feature",
      "properties": {
        "@id": "node/5959128951",
        "waterway": "waterfall"
      },
      "geometry": {
        "type": "Point",
        "coordinates": [
          -78.4905473,
          38.4778223
        ]
      },
      "id": "node/5959128951"
    },
    {
      "type": "Feature",
      "properties": {
        "@id": "node/5963058926",
        "name": "Naked Creek Falls",
        "waterway": "waterfall"
      },
      "geometry": {
        "type": "Point",
        "coordinates": [
          -78.4598675,
          38.493325
        ]
      },
      "id": "node/5963058926"
    },
    {
      "type": "Feature",
      "properties": {
        "@id": "node/5964460282",
        "waterway": "waterfall"
      },
      "geometry": {
        "type": "Point",
        "coordinates": [
          -78.4645077,
          38.4902096
        ]
      },
      "id": "node/5964460282"
    },
    {
      "type": "Feature",
      "properties": {
        "@id": "node/5964460283",
        "waterway": "waterfall"
      },
      "geometry": {
        "type": "Point",
        "coordinates": [
          -78.461809,
          38.4918472
        ]
      },
      "id": "node/5964460283"
    },
    {
      "type": "Feature",
      "properties": {
        "@id": "node/5967521500",
        "height": "80",
        "intermittent": "no",
        "name": "Falling Spring Falls",
        "waterway": "waterfall",
        "wikidata": "Q99197109"
      },
      "geometry": {
        "type": "Point",
        "coordinates": [
          -79.947907,
          37.867772
        ]
      },
      "id": "node/5967521500"
    },
    {
      "type": "Feature",
      "properties": {
        "@id": "node/6064614519",
        "name": "Brambleton Sign/Water Decoration",
        "waterway": "waterfall"
      },
      "geometry": {
        "type": "Point",
        "coordinates": [
          -77.5284282,
          38.9809572
        ]
      },
      "id": "node/6064614519"
    },
    {
      "type": "Feature",
      "properties": {
        "@id": "node/6401570323",
        "height": "61",
        "name": "Bent Mountain Falls",
        "waterway": "waterfall"
      },
      "geometry": {
        "type": "Point",
        "coordinates": [
          -80.1803389,
          37.1167743
        ]
      },
      "id": "node/6401570323"
    },
    {
      "type": "Feature",
      "properties": {
        "@id": "node/6638246506",
        "name": "Big Rock Falls",
        "waterway": "waterfall"
      },
      "geometry": {
        "type": "Point",
        "coordinates": [
          -78.4237039,
          38.495292
        ]
      },
      "id": "node/6638246506"
    },
    {
      "type": "Feature",
      "properties": {
        "@id": "node/6765374743",
        "height": "19.2",
        "intermittent": "no",
        "name": "Lower Falls of Hills Creek",
        "waterway": "waterfall"
      },
      "geometry": {
        "type": "Point",
        "coordinates": [
          -80.334517,
          38.1731852
        ]
      },
      "id": "node/6765374743"
    },
    {
      "type": "Feature",
      "properties": {
        "@id": "node/6765374745",
        "height": "13.7",
        "intermittent": "no",
        "name": "Middle Falls of Hills Creek",
        "waterway": "waterfall"
      },
      "geometry": {
        "type": "Point",
        "coordinates": [
          -80.3352412,
          38.1741683
        ]
      },
      "id": "node/6765374745"
    },
    {
      "type": "Feature",
      "properties": {
        "@id": "node/6765374748",
        "height": "7.6",
        "intermittent": "no",
        "name": "Upper Falls of Hills Creek",
        "waterway": "waterfall"
      },
      "geometry": {
        "type": "Point",
        "coordinates": [
          -80.3366923,
          38.1774313
        ]
      },
      "id": "node/6765374748"
    },
    {
      "type": "Feature",
      "properties": {
        "@id": "node/6785072723",
        "name": "Laurel Creek Falls",
        "waterway": "waterfall"
      },
      "geometry": {
        "type": "Point",
        "coordinates": [
          -81.0296875,
          38.2141802
        ]
      },
      "id": "node/6785072723"
    },
    {
      "type": "Feature",
      "properties": {
        "@id": "node/6786123102",
        "name": "Peters Creek Falls",
        "waterway": "waterfall"
      },
      "geometry": {
        "type": "Point",
        "coordinates": [
          -81.0454918,
          38.2311973
        ]
      },
      "id": "node/6786123102"
    },
    {
      "type": "Feature",
      "properties": {
        "@id": "node/6842541512",
        "height": "3",
        "name": "Falls of Dismal",
        "waterway": "waterfall"
      },
      "geometry": {
        "type": "Point",
        "coordinates": [
          -80.9016386,
          37.1858777
        ]
      },
      "id": "node/6842541512"
    },
    {
      "type": "Feature",
      "properties": {
        "@id": "node/7424046735",
        "name": "Falling Water Cascades",
        "waterway": "waterfall",
        "wikidata": "Q46999181"
      },
      "geometry": {
        "type": "Point",
        "coordinates": [
          -79.5816154,
          37.4764026
        ]
      },
      "id": "node/7424046735"
    },
    {
      "type": "Feature",
      "properties": {
        "@id": "node/7610434198",
        "height": "4",
        "waterway": "waterfall",
        "width": "2"
      },
      "geometry": {
        "type": "Point",
        "coordinates": [
          -83.3883569,
          39.2090402
        ]
      },
      "id": "node/7610434198"
    },
    {
      "type": "Feature",
      "properties": {
        "@id": "node/7610434208",
        "height": "1",
        "waterway": "waterfall",
        "width": "2"
      },
      "geometry": {
        "type": "Point",
        "coordinates": [
          -83.3897159,
          39.2082942
        ]
      },
      "id": "node/7610434208"
    },
    {
      "type": "Feature",
      "properties": {
        "@id": "node/7644789896",
        "waterway": "waterfall"
      },
      "geometry": {
        "type": "Point",
        "coordinates": [
          -79.9000215,
          37.7100896
        ]
      },
      "id": "node/7644789896"
    },
    {
      "type": "Feature",
      "properties": {
        "@id": "node/7658947330",
        "waterway": "waterfall"
      },
      "geometry": {
        "type": "Point",
        "coordinates": [
          -79.8962179,
          37.7104797
        ]
      },
      "id": "node/7658947330"
    },
    {
      "type": "Feature",
      "properties": {
        "@id": "node/7674548071",
        "description": "Waterfall, swimming hole.",
        "name": "Upper Falls of Seneca Creek",
        "waterway": "waterfall"
      },
      "geometry": {
        "type": "Point",
        "coordinates": [
          -79.5082928,
          38.7676599
        ]
      },
      "id": "node/7674548071"
    },
    {
      "type": "Feature",
      "properties": {
        "@id": "node/7674548073",
        "name": "Small waterfall",
        "waterway": "waterfall"
      },
      "geometry": {
        "type": "Point",
        "coordinates": [
          -79.5081325,
          38.7712909
        ]
      },
      "id": "node/7674548073"
    },
    {
      "type": "Feature",
      "properties": {
        "@id": "node/7851662284",
        "intermittent": "no",
        "waterway": "waterfall"
      },
      "geometry": {
        "type": "Point",
        "coordinates": [
          -81.8229938,
          36.645531
        ]
      },
      "id": "node/7851662284"
    },
    {
      "type": "Feature",
      "properties": {
        "@id": "node/7856633921",
        "name": "Albert Falls",
        "waterway": "waterfall"
      },
      "geometry": {
        "type": "Point",
        "coordinates": [
          -79.5204122,
          39.1285351
        ]
      },
      "id": "node/7856633921"
    },
    {
      "type": "Feature",
      "properties": {
        "@id": "node/7856633922",
        "name": "Douglas Falls",
        "waterway": "waterfall"
      },
      "geometry": {
        "type": "Point",
        "coordinates": [
          -79.5194265,
          39.123843
        ]
      },
      "id": "node/7856633922"
    },
    {
      "type": "Feature",
      "properties": {
        "@id": "node/7885567689",
        "waterway": "waterfall"
      },
      "geometry": {
        "type": "Point",
        "coordinates": [
          -83.357123,
          39.2227878
        ]
      },
      "id": "node/7885567689"
    },
    {
      "type": "Feature",
      "properties": {
        "@id": "node/7911154288",
        "name": "High Falls of Cheat",
        "waterway": "waterfall"
      },
      "geometry": {
        "type": "Point",
        "coordinates": [
          -79.9546993,
          38.4956012
        ]
      },
      "id": "node/7911154288"
    },
    {
      "type": "Feature",
      "properties": {
        "@id": "node/8191086712",
        "height": "19",
        "name": "Lower Doyles River Falls",
        "waterway": "waterfall"
      },
      "geometry": {
        "type": "Point",
        "coordinates": [
          -78.691115,
          38.238587
        ]
      },
      "id": "node/8191086712"
    },
    {
      "type": "Feature",
      "properties": {
        "@id": "node/8276689212",
        "waterway": "waterfall"
      },
      "geometry": {
        "type": "Point",
        "coordinates": [
          -83.6556442,
          37.7921833
        ]
      },
      "id": "node/8276689212"
    },
    {
      "type": "Feature",
      "properties": {
        "@id": "node/8279786581",
        "name": "Silvermine Falls",
        "waterway": "waterfall"
      },
      "geometry": {
        "type": "Point",
        "coordinates": [
          -83.6262042,
          37.7838213
        ]
      },
      "id": "node/8279786581"
    },
    {
      "type": "Feature",
      "properties": {
        "@id": "node/8279786745",
        "name": "Upper Chimney Top Falls",
        "waterway": "waterfall"
      },
      "geometry": {
        "type": "Point",
        "coordinates": [
          -83.6422371,
          37.7864447
        ]
      },
      "id": "node/8279786745"
    },
    {
      "type": "Feature",
      "properties": {
        "@id": "node/8279786773",
        "waterway": "waterfall"
      },
      "geometry": {
        "type": "Point",
        "coordinates": [
          -83.641619,
          37.7878356
        ]
      },
      "id": "node/8279786773"
    },
    {
      "type": "Feature",
      "properties": {
        "@id": "node/8279786989",
        "name": "Cold Falls",
        "waterway": "waterfall"
      },
      "geometry": {
        "type": "Point",
        "coordinates": [
          -83.6324057,
          37.7880634
        ]
      },
      "id": "node/8279786989"
    },
    {
      "type": "Feature",
      "properties": {
        "@id": "node/8315114301",
        "waterway": "waterfall"
      },
      "geometry": {
        "type": "Point",
        "coordinates": [
          -77.0405078,
          38.888976
        ]
      },
      "id": "node/8315114301"
    },
    {
      "type": "Feature",
      "properties": {
        "@id": "node/8315114339",
        "waterway": "waterfall"
      },
      "geometry": {
        "type": "Point",
        "coordinates": [
          -77.0409651,
          38.8895578
        ]
      },
      "id": "node/8315114339"
    },
    {
      "type": "Feature",
      "properties": {
        "@id": "node/8315114340",
        "waterway": "waterfall"
      },
      "geometry": {
        "type": "Point",
        "coordinates": [
          -77.0409596,
          38.8892342
        ]
      },
      "id": "node/8315114340"
    },
    {
      "type": "Feature",
      "properties": {
        "@id": "node/8315128305",
        "waterway": "waterfall"
      },
      "geometry": {
        "type": "Point",
        "coordinates": [
          -77.0405243,
          38.8898284
        ]
      },
      "id": "node/8315128305"
    },
    {
      "type": "Feature",
      "properties": {
        "@id": "node/8459178558",
        "waterway": "waterfall"
      },
      "geometry": {
        "type": "Point",
        "coordinates": [
          -77.0020707,
          38.8735068
        ]
      },
      "id": "node/8459178558"
    },
    {
      "type": "Feature",
      "properties": {
        "@id": "node/8462833093",
        "waterway": "waterfall"
      },
      "geometry": {
        "type": "Point",
        "coordinates": [
          -77.4417193,
          37.8401633
        ]
      },
      "id": "node/8462833093"
    },
    {
      "type": "Feature",
      "properties": {
        "@id": "node/8477587808",
        "waterway": "waterfall"
      },
      "geometry": {
        "type": "Point",
        "coordinates": [
          -77.4465025,
          37.8393535
        ]
      },
      "id": "node/8477587808"
    },
    {
      "type": "Feature",
      "properties": {
        "@id": "node/8487334464",
        "waterway": "waterfall"
      },
      "geometry": {
        "type": "Point",
        "coordinates": [
          -79.07756,
          37.8498321
        ]
      },
      "id": "node/8487334464"
    },
    {
      "type": "Feature",
      "properties": {
        "@id": "node/8487334468",
        "waterway": "waterfall"
      },
      "geometry": {
        "type": "Point",
        "coordinates": [
          -79.0776155,
          37.8493538
        ]
      },
      "id": "node/8487334468"
    },
    {
      "type": "Feature",
      "properties": {
        "@id": "node/8487334474",
        "waterway": "waterfall"
      },
      "geometry": {
        "type": "Point",
        "coordinates": [
          -79.0775643,
          37.848734
        ]
      },
      "id": "node/8487334474"
    },
    {
      "type": "Feature",
      "properties": {
        "@id": "node/8487334479",
        "waterway": "waterfall"
      },
      "geometry": {
        "type": "Point",
        "coordinates": [
          -79.0774875,
          37.8479795
        ]
      },
      "id": "node/8487334479"
    },
    {
      "type": "Feature",
      "properties": {
        "@id": "node/8487334482",
        "waterway": "waterfall"
      },
      "geometry": {
        "type": "Point",
        "coordinates": [
          -79.0774235,
          37.8476157
        ]
      },
      "id": "node/8487334482"
    },
    {
      "type": "Feature",
      "properties": {
        "@id": "node/8487334491",
        "waterway": "waterfall"
      },
      "geometry": {
        "type": "Point",
        "coordinates": [
          -79.0769628,
          37.8464704
        ]
      },
      "id": "node/8487334491"
    },
    {
      "type": "Feature",
      "properties": {
        "@id": "node/8487334496",
        "waterway": "waterfall"
      },
      "geometry": {
        "type": "Point",
        "coordinates": [
          -79.0766471,
          37.8456553
        ]
      },
      "id": "node/8487334496"
    },
    {
      "type": "Feature",
      "properties": {
        "@id": "node/8487334499",
        "waterway": "waterfall"
      },
      "geometry": {
        "type": "Point",
        "coordinates": [
          -79.0765448,
          37.844958
        ]
      },
      "id": "node/8487334499"
    },
    {
      "type": "Feature",
      "properties": {
        "@id": "node/8487334502",
        "waterway": "waterfall"
      },
      "geometry": {
        "type": "Point",
        "coordinates": [
          -79.0758708,
          37.844219
        ]
      },
      "id": "node/8487334502"
    },
    {
      "type": "Feature",
      "properties": {
        "@id": "node/8487334505",
        "waterway": "waterfall"
      },
      "geometry": {
        "type": "Point",
        "coordinates": [
          -79.0751371,
          37.843907
        ]
      },
      "id": "node/8487334505"
    },
    {
      "type": "Feature",
      "properties": {
        "@id": "node/8593896465",
        "waterway": "waterfall"
      },
      "geometry": {
        "type": "Point",
        "coordinates": [
          -81.5768095,
          38.3836609
        ]
      },
      "id": "node/8593896465"
    },
    {
      "type": "Feature",
      "properties": {
        "@id": "node/8599801675",
        "waterway": "waterfall"
      },
      "geometry": {
        "type": "Point",
        "coordinates": [
          -79.3594691,
          38.9849554
        ]
      },
      "id": "node/8599801675"
    },
    {
      "type": "Feature",
      "properties": {
        "@id": "node/8622408839",
        "name": "Broke Leg Falls",
        "waterway": "waterfall"
      },
      "geometry": {
        "type": "Point",
        "coordinates": [
          -83.4895212,
          37.9066651
        ]
      },
      "id": "node/8622408839"
    },
    {
      "type": "Feature",
      "properties": {
        "@id": "node/8622408861",
        "height": "34",
        "name": "Mariba Fork Falls",
        "waterway": "waterfall",
        "width": "1"
      },
      "geometry": {
        "type": "Point",
        "coordinates": [
          -83.5754164,
          37.9085937
        ]
      },
      "id": "node/8622408861"
    },
    {
      "type": "Feature",
      "properties": {
        "@id": "node/8692456935",
        "intermittent": "no",
        "waterway": "waterfall"
      },
      "geometry": {
        "type": "Point",
        "coordinates": [
          -77.508798,
          38.3295523
        ]
      },
      "id": "node/8692456935"
    },
    {
      "type": "Feature",
      "properties": {
        "@id": "node/8692456937",
        "intermittent": "yes",
        "waterway": "waterfall"
      },
      "geometry": {
        "type": "Point",
        "coordinates": [
          -77.5088417,
          38.3293932
        ]
      },
      "id": "node/8692456937"
    },
    {
      "type": "Feature",
      "properties": {
        "@id": "node/8708061063",
        "name": "St. Mary's Falls",
        "waterway": "waterfall"
      },
      "geometry": {
        "type": "Point",
        "coordinates": [
          -79.1069678,
          37.9295381
        ]
      },
      "id": "node/8708061063"
    },
    {
      "type": "Feature",
      "properties": {
        "@id": "node/8725072766",
        "waterway": "waterfall"
      },
      "geometry": {
        "type": "Point",
        "coordinates": [
          -79.3928655,
          38.9923641
        ]
      },
      "id": "node/8725072766"
    },
    {
      "type": "Feature",
      "properties": {
        "@id": "node/8735306417",
        "name": "Whispering Cave",
        "waterway": "waterfall"
      },
      "geometry": {
        "type": "Point",
        "coordinates": [
          -82.5522745,
          39.423504
        ]
      },
      "id": "node/8735306417"
    },
    {
      "type": "Feature",
      "properties": {
        "@id": "node/8735306517",
        "name": "Whispering Falls",
        "waterway": "waterfall"
      },
      "geometry": {
        "type": "Point",
        "coordinates": [
          -82.5346056,
          39.4202025
        ]
      },
      "id": "node/8735306517"
    },
    {
      "type": "Feature",
      "properties": {
        "@id": "node/8735306718",
        "name": "Ash Cave",
        "waterway": "waterfall"
      },
      "geometry": {
        "type": "Point",
        "coordinates": [
          -82.5443462,
          39.399368
        ]
      },
      "id": "node/8735306718"
    },
    {
      "type": "Feature",
      "properties": {
        "@id": "node/8735306917",
        "name": "Lower Falls",
        "waterway": "waterfall"
      },
      "geometry": {
        "type": "Point",
        "coordinates": [
          -82.5788361,
          39.460307
        ]
      },
      "id": "node/8735306917"
    },
    {
      "type": "Feature",
      "properties": {
        "@id": "node/8853590334",
        "waterway": "waterfall"
      },
      "geometry": {
        "type": "Point",
        "coordinates": [
          -79.375218,
          39.0010905
        ]
      },
      "id": "node/8853590334"
    },
    {
      "type": "Feature",
      "properties": {
        "@id": "node/8927930883",
        "waterway": "waterfall"
      },
      "geometry": {
        "type": "Point",
        "coordinates": [
          -77.29013,
          38.6102749
        ]
      },
      "id": "node/8927930883"
    },
    {
      "type": "Feature",
      "properties": {
        "@id": "node/9125042495",
        "name": "Dog Fork Falls",
        "waterway": "waterfall"
      },
      "geometry": {
        "type": "Point",
        "coordinates": [
          -83.5779472,
          37.7801648
        ]
      },
      "id": "node/9125042495"
    },
    {
      "type": "Feature",
      "properties": {
        "@id": "node/9168565498",
        "name": "White Rock Falls",
        "waterway": "waterfall"
      },
      "geometry": {
        "type": "Point",
        "coordinates": [
          -79.0546668,
          37.9025625
        ]
      },
      "id": "node/9168565498"
    },
    {
      "type": "Feature",
      "properties": {
        "@id": "node/9318861341",
        "height": "12.8",
        "name": "Jones Run Falls",
        "waterway": "waterfall"
      },
      "geometry": {
        "type": "Point",
        "coordinates": [
          -78.7049583,
          38.2295038
        ]
      },
      "id": "node/9318861341"
    },
    {
      "type": "Feature",
      "properties": {
        "@id": "node/9318861342",
        "height": "8.5",
        "name": "Upper Doyles River Falls",
        "waterway": "waterfall"
      },
      "geometry": {
        "type": "Point",
        "coordinates": [
          -78.6897166,
          38.2406288
        ]
      },
      "id": "node/9318861342"
    },
    {
      "type": "Feature",
      "properties": {
        "@id": "node/9334652924",
        "name": "Scott's Run Falls",
        "waterway": "waterfall"
      },
      "geometry": {
        "type": "Point",
        "coordinates": [
          -77.2028723,
          38.9676643
        ]
      },
      "id": "node/9334652924"
    },
    {
      "type": "Feature",
      "properties": {
        "@id": "node/9533697494",
        "name": "Mountain Falls",
        "waterway": "waterfall"
      },
      "geometry": {
        "type": "Point",
        "coordinates": [
          -78.4061995,
          39.1416045
        ]
      },
      "id": "node/9533697494"
    },
    {
      "type": "Feature",
      "properties": {
        "@id": "node/9545170300",
        "waterway": "waterfall"
      },
      "geometry": {
        "type": "Point",
        "coordinates": [
          -81.7489535,
          39.3930393
        ]
      },
      "id": "node/9545170300"
    },
    {
      "type": "Feature",
      "properties": {
        "@id": "node/9569451343",
        "waterway": "waterfall"
      },
      "geometry": {
        "type": "Point",
        "coordinates": [
          -78.7466553,
          38.1661444
        ]
      },
      "id": "node/9569451343"
    },
    {
      "type": "Feature",
      "properties": {
        "@id": "node/9634561979",
        "name": "Nellie's Falls",
        "waterway": "waterfall"
      },
      "geometry": {
        "type": "Point",
        "coordinates": [
          -83.6414472,
          37.7291545
        ]
      },
      "id": "node/9634561979"
    },
    {
      "type": "Feature",
      "properties": {
        "@id": "node/9792748963",
        "waterway": "waterfall"
      },
      "geometry": {
        "type": "Point",
        "coordinates": [
          -82.1256422,
          39.3303129
        ]
      },
      "id": "node/9792748963"
    },
    {
      "type": "Feature",
      "properties": {
        "@id": "node/9973652805",
        "name": "Abrams Falls",
        "waterway": "waterfall"
      },
      "geometry": {
        "type": "Point",
        "coordinates": [
          -82.256612,
          36.6767308
        ]
      },
      "id": "node/9973652805"
    },
    {
      "type": "Feature",
      "properties": {
        "@id": "node/10186509304",
        "description": "Hidden off the Falls Ridge trail on an unofficial side trail, this beautiful waterfall is also unusual as it crashes into rocks next to a 60ft cliff instead of into a pool. In the summer standing under the falls is a great way to cool down on this hike.",
        "height": "8",
        "name": "Falls Ridge Waterfall",
        "waterway": "waterfall"
      },
      "geometry": {
        "type": "Point",
        "coordinates": [
          -78.7698605,
          38.8842703
        ]
      },
      "id": "node/10186509304"
    },
    {
      "type": "Feature",
      "properties": {
        "@id": "node/10272530066",
        "waterway": "waterfall"
      },
      "geometry": {
        "type": "Point",
        "coordinates": [
          -81.9853369,
          36.9088253
        ]
      },
      "id": "node/10272530066"
    },
    {
      "type": "Feature",
      "properties": {
        "@id": "node/10699931403",
        "waterway": "waterfall"
      },
      "geometry": {
        "type": "Point",
        "coordinates": [
          -76.644907,
          39.3253865
        ]
      },
      "id": "node/10699931403"
    },
    {
      "type": "Feature",
      "properties": {
        "@id": "node/10784760011",
        "waterway": "waterfall"
      },
      "geometry": {
        "type": "Point",
        "coordinates": [
          -76.5437676,
          39.4305178
        ]
      },
      "id": "node/10784760011"
    },
    {
      "type": "Feature",
      "properties": {
        "@id": "node/10857143556",
        "waterway": "waterfall"
      },
      "geometry": {
        "type": "Point",
        "coordinates": [
          -83.0698474,
          39.319534
        ]
      },
      "id": "node/10857143556"
    },
    {
      "type": "Feature",
      "properties": {
        "@id": "node/10879609291",
        "name": "Rim Trail Falls (off-trail)",
        "waterway": "waterfall"
      },
      "geometry": {
        "type": "Point",
        "coordinates": [
          -82.5772629,
          39.4601351
        ]
      },
      "id": "node/10879609291"
    },
    {
      "type": "Feature",
      "properties": {
        "@id": "node/10923045986",
        "waterway": "waterfall"
      },
      "geometry": {
        "type": "Point",
        "coordinates": [
          -77.969225,
          39.4499056
        ]
      },
      "id": "node/10923045986"
    },
    {
      "type": "Feature",
      "properties": {
        "@id": "node/10968066389",
        "waterway": "waterfall"
      },
      "geometry": {
        "type": "Point",
        "coordinates": [
          -77.4456883,
          37.5351811
        ]
      },
      "id": "node/10968066389"
    },
    {
      "type": "Feature",
      "properties": {
        "@id": "node/11115371719",
        "name": "Tecumseh Falls",
        "waterway": "waterfall"
      },
      "geometry": {
        "type": "Point",
        "coordinates": [
          -80.3499057,
          38.6773961
        ]
      },
      "id": "node/11115371719"
    },
    {
      "type": "Feature",
      "properties": {
        "@id": "node/11132378272",
        "name": "Pua Falls",
        "waterway": "waterfall"
      },
      "geometry": {
        "type": "Point",
        "coordinates": [
          -77.9027314,
          39.0690582
        ]
      },
      "id": "node/11132378272"
    },
    {
      "type": "Feature",
      "properties": {
        "@id": "node/11137268302",
        "fixme": "location approximate",
        "waterway": "waterfall"
      },
      "geometry": {
        "type": "Point",
        "coordinates": [
          -81.14711,
          38.1088512
        ]
      },
      "id": "node/11137268302"
    },
    {
      "type": "Feature",
      "properties": {
        "@id": "node/11285058588",
        "height": "4",
        "waterway": "waterfall"
      },
      "geometry": {
        "type": "Point",
        "coordinates": [
          -79.1175251,
          38.4647862
        ]
      },
      "id": "node/11285058588"
    },
    {
      "type": "Feature",
      "properties": {
        "@id": "node/11366969444",
        "name": "Box Falls",
        "waterway": "waterfall"
      },
      "geometry": {
        "type": "Point",
        "coordinates": [
          -83.5749009,
          37.8427625
        ]
      },
      "id": "node/11366969444"
    },
    {
      "type": "Feature",
      "properties": {
        "@id": "node/11367215859",
        "waterway": "waterfall"
      },
      "geometry": {
        "type": "Point",
        "coordinates": [
          -77.841166,
          39.2511957
        ]
      },
      "id": "node/11367215859"
    },
    {
      "type": "Feature",
      "properties": {
        "@id": "node/11368471143",
        "name": "Ataullah Falls",
        "waterway": "waterfall"
      },
      "geometry": {
        "type": "Point",
        "coordinates": [
          -83.57779,
          37.90565
        ]
      },
      "id": "node/11368471143"
    },
    {
      "type": "Feature",
      "properties": {
        "@id": "node/11382602339",
        "waterway": "waterfall"
      },
      "geometry": {
        "type": "Point",
        "coordinates": [
          -83.6611758,
          37.7886658
        ]
      },
      "id": "node/11382602339"
    },
    {
      "type": "Feature",
      "properties": {
        "@id": "node/11386738912",
        "source": "aerial imagery",
        "waterway": "waterfall"
      },
      "geometry": {
        "type": "Point",
        "coordinates": [
          -81.2584522,
          38.9061534
        ]
      },
      "id": "node/11386738912"
    },
    {
      "type": "Feature",
      "properties": {
        "@id": "node/11488838485",
        "name": "Burnsville Waterfall",
        "waterway": "waterfall"
      },
      "geometry": {
        "type": "Point",
        "coordinates": [
          -80.6286576,
          38.8445572
        ]
      },
      "id": "node/11488838485"
    },
    {
      "type": "Feature",
      "properties": {
        "@id": "node/11697951377",
        "height": "46",
        "intermittent": "yes",
        "name": "Big Creek Falls",
        "waterway": "waterfall"
      },
      "geometry": {
        "type": "Point",
        "coordinates": [
          -78.4744482,
          38.4622925
        ]
      },
      "id": "node/11697951377"
    },
    {
      "type": "Feature",
      "properties": {
        "@id": "node/11697982107",
        "height": "10",
        "intermittent": "yes",
        "name": "Upper Big Creek Falls",
        "waterway": "waterfall"
      },
      "geometry": {
        "type": "Point",
        "coordinates": [
          -78.4725756,
          38.4620995
        ]
      },
      "id": "node/11697982107"
    },
    {
      "type": "Feature",
      "properties": {
        "@id": "node/11761599268",
        "man_made": "yes",
        "waterway": "waterfall"
      },
      "geometry": {
        "type": "Point",
        "coordinates": [
          -77.3935614,
          37.5283976
        ]
      },
      "id": "node/11761599268"
    },
    {
      "type": "Feature",
      "properties": {
        "@id": "node/11919985920",
        "waterway": "waterfall"
      },
      "geometry": {
        "type": "Point",
        "coordinates": [
          -78.3587854,
          38.7119994
        ]
      },
      "id": "node/11919985920"
    },
    {
      "type": "Feature",
      "properties": {
        "@id": "node/11952898065",
        "height": "5",
        "intermittent": "no",
        "name": "Cedar Falls",
        "waterway": "waterfall"
      },
      "geometry": {
        "type": "Point",
        "coordinates": [
          -83.3825894,
          38.8321019
        ]
      },
      "id": "node/11952898065"
    },
    {
      "type": "Feature",
      "properties": {
        "@id": "node/11956730846",
        "name": "Miller Falls",
        "waterway": "waterfall"
      },
      "geometry": {
        "type": "Point",
        "coordinates": [
          -78.2082352,
          38.7810639
        ]
      },
      "id": "node/11956730846"
    },
    {
      "type": "Feature",
      "properties": {
        "@id": "node/11958977839",
        "name": "Copperas Falls",
        "waterway": "waterfall"
      },
      "geometry": {
        "type": "Point",
        "coordinates": [
          -83.5714757,
          37.8414688
        ]
      },
      "id": "node/11958977839"
    },
    {
      "type": "Feature",
      "properties": {
        "@id": "node/11983722901",
        "name": "Upper Shamokin Falls",
        "waterway": "waterfall"
      },
      "geometry": {
        "type": "Point",
        "coordinates": [
          -78.9323485,
          37.9358599
        ]
      },
      "id": "node/11983722901"
    },
    {
      "type": "Feature",
      "properties": {
        "@id": "node/12065208585",
        "name": "Cathedral Falls",
        "waterway": "waterfall",
        "website": "https://www.nps.gov/places/cathedral-falls.htm"
      },
      "geometry": {
        "type": "Point",
        "coordinates": [
          -81.1790541,
          38.1544718
        ]
      },
      "id": "node/12065208585"
    },
    {
      "type": "Feature",
      "properties": {
        "@id": "node/12091195981",
        "waterway": "waterfall"
      },
      "geometry": {
        "type": "Point",
        "coordinates": [
          -80.055087,
          37.5654996
        ]
      },
      "id": "node/12091195981"
    },
    {
      "type": "Feature",
      "properties": {
        "@id": "node/12103286783",
        "name": "Sandstone Falls",
        "waterway": "waterfall"
      },
      "geometry": {
        "type": "Point",
        "coordinates": [
          -80.9053576,
          37.7580312
        ]
      },
      "id": "node/12103286783"
    },
    {
      "type": "Feature",
      "properties": {
        "@id": "node/12103286784",
        "name": "Sandstone Falls",
        "waterway": "waterfall"
      },
      "geometry": {
        "type": "Point",
        "coordinates": [
          -80.9069681,
          37.7559941
        ]
      },
      "id": "node/12103286784"
    },
    {
      "type": "Feature",
      "properties": {
        "@id": "node/12152752192",
        "alt_name:1": "Big Rock Falls",
        "name": "Whitetop Laurel Falls",
        "waterway": "waterfall"
      },
      "geometry": {
        "type": "Point",
        "coordinates": [
          -81.748721,
          36.6341113
        ]
      },
      "id": "node/12152752192"
    },
    {
      "type": "Feature",
      "properties": {
        "@id": "node/12152760183",
        "name": "Straight Branch Falls",
        "waterway": "waterfall"
      },
      "geometry": {
        "type": "Point",
        "coordinates": [
          -81.7152348,
          36.6444065
        ]
      },
      "id": "node/12152760183"
    },
    {
      "type": "Feature",
      "properties": {
        "@id": "node/12256345199",
        "height": "6",
        "name": "Greasy Falls",
        "waterway": "waterfall",
        "width": "1"
      },
      "geometry": {
        "type": "Point",
        "coordinates": [
          -78.2675264,
          38.7739061
        ]
      },
      "id": "node/12256345199"
    },
    {
      "type": "Feature",
      "properties": {
        "@id": "node/12269902703",
        "waterway": "waterfall"
      },
      "geometry": {
        "type": "Point",
        "coordinates": [
          -79.5325947,
          37.5153358
        ]
      },
      "id": "node/12269902703"
    },
    {
      "type": "Feature",
      "properties": {
        "@id": "node/12292118842",
        "waterway": "waterfall"
      },
      "geometry": {
        "type": "Point",
        "coordinates": [
          -77.0037906,
          39.0296059
        ]
      },
      "id": "node/12292118842"
    },
    {
      "type": "Feature",
      "properties": {
        "@id": "node/12292664823",
        "waterway": "waterfall"
      },
      "geometry": {
        "type": "Point",
        "coordinates": [
          -77.0041136,
          39.0301495
        ]
      },
      "id": "node/12292664823"
    },
    {
      "type": "Feature",
      "properties": {
        "@id": "node/12319347659",
        "waterway": "waterfall"
      },
      "geometry": {
        "type": "Point",
        "coordinates": [
          -79.5809697,
          37.477184
        ]
      },
      "id": "node/12319347659"
    },
    {
      "type": "Feature",
      "properties": {
        "@id": "node/12319383630",
        "waterway": "waterfall"
      },
      "geometry": {
        "type": "Point",
        "coordinates": [
          -79.5813569,
          37.4767284
        ]
      },
      "id": "node/12319383630"
    },
    {
      "type": "Feature",
      "properties": {
        "@id": "node/12319383631",
        "waterway": "waterfall"
      },
      "geometry": {
        "type": "Point",
        "coordinates": [
          -79.5818831,
          37.4759894
        ]
      },
      "id": "node/12319383631"
    },
    {
      "type": "Feature",
      "properties": {
        "@id": "node/12373978014",
        "name": "Mariba Arches Complex Falls",
        "waterway": "waterfall"
      },
      "geometry": {
        "type": "Point",
        "coordinates": [
          -83.5749581,
          37.9013548
        ]
      },
      "id": "node/12373978014"
    },
    {
      "type": "Feature",
      "properties": {
        "@id": "node/12373978016",
        "height": "28.5",
        "name": "Lili’s Leap Falls",
        "waterway": "waterfall",
        "width": "1"
      },
      "geometry": {
        "type": "Point",
        "coordinates": [
          -83.5713594,
          37.890452
        ]
      },
      "id": "node/12373978016"
    },
    {
      "type": "Feature",
      "properties": {
        "@id": "node/12373978017",
        "name": "Bear Dog Falls",
        "waterway": "waterfall"
      },
      "geometry": {
        "type": "Point",
        "coordinates": [
          -83.5777503,
          37.9048974
        ]
      },
      "id": "node/12373978017"
    },
    {
      "type": "Feature",
      "properties": {
        "@id": "node/12373978019",
        "name": "West Mariba Fork Falls",
        "waterway": "waterfall"
      },
      "geometry": {
        "type": "Point",
        "coordinates": [
          -83.577729,
          37.905542
        ]
      },
      "id": "node/12373978019"
    },
    {
      "type": "Feature",
      "properties": {
        "@id": "node/12373991154",
        "name": "Eagle Point Falls",
        "waterway": "waterfall"
      },
      "geometry": {
        "type": "Point",
        "coordinates": [
          -83.5614519,
          37.8267154
        ]
      },
      "id": "node/12373991154"
    },
    {
      "type": "Feature",
      "properties": {
        "@id": "node/12374031941",
        "name": "Olivia Addison Falls",
        "waterway": "waterfall"
      },
      "geometry": {
        "type": "Point",
        "coordinates": [
          -83.5706848,
          37.8250876
        ]
      },
      "id": "node/12374031941"
    },
    {
      "type": "Feature",
      "properties": {
        "@id": "node/12391680160",
        "waterway": "waterfall"
      },
      "geometry": {
        "type": "Point",
        "coordinates": [
          -82.6297586,
          36.7069931
        ]
      },
      "id": "node/12391680160"
    },
    {
      "type": "Feature",
      "properties": {
        "@id": "node/12394850197",
        "name": "Pooch's Turtle Falls",
        "waterway": "waterfall"
      },
      "geometry": {
        "type": "Point",
        "coordinates": [
          -83.5655421,
          37.7758863
        ]
      },
      "id": "node/12394850197"
    },
    {
      "type": "Feature",
      "properties": {
        "@id": "node/12394924041",
        "name": "Swirly Falls",
        "waterway": "waterfall"
      },
      "geometry": {
        "type": "Point",
        "coordinates": [
          -83.62675,
          37.78638
        ]
      },
      "id": "node/12394924041"
    },
    {
      "type": "Feature",
      "properties": {
        "@id": "node/12394944865",
        "waterway": "waterfall"
      },
      "geometry": {
        "type": "Point",
        "coordinates": [
          -83.6415649,
          37.7885041
        ]
      },
      "id": "node/12394944865"
    },
    {
      "type": "Feature",
      "properties": {
        "@id": "node/12394944880",
        "name": "Hidden Arch Falls",
        "waterway": "waterfall"
      },
      "geometry": {
        "type": "Point",
        "coordinates": [
          -83.640729,
          37.787038
        ]
      },
      "id": "node/12394944880"
    },
    {
      "type": "Feature",
      "properties": {
        "@id": "node/12396109989",
        "name": "Wildcat Falls",
        "waterway": "waterfall"
      },
      "geometry": {
        "type": "Point",
        "coordinates": [
          -83.5787473,
          37.7889055
        ]
      },
      "id": "node/12396109989"
    },
    {
      "type": "Feature",
      "properties": {
        "@id": "node/12396109991",
        "name": "Mossy Falls",
        "waterway": "waterfall"
      },
      "geometry": {
        "type": "Point",
        "coordinates": [
          -83.5954306,
          37.7882599
        ]
      },
      "id": "node/12396109991"
    },
    {
      "type": "Feature",
      "properties": {
        "@id": "node/12396216003",
        "name": "Lower Mossy Falls",
        "waterway": "waterfall"
      },
      "geometry": {
        "type": "Point",
        "coordinates": [
          -83.5958881,
          37.7858705
        ]
      },
      "id": "node/12396216003"
    },
    {
      "type": "Feature",
      "properties": {
        "@id": "node/12405925584",
        "waterway": "waterfall"
      },
      "geometry": {
        "type": "Point",
        "coordinates": [
          -83.6326969,
          37.717652
        ]
      },
      "id": "node/12405925584"
    },
    {
      "type": "Feature",
      "properties": {
        "@id": "node/12405952991",
        "waterway": "waterfall"
      },
      "geometry": {
        "type": "Point",
        "coordinates": [
          -83.6328748,
          37.7173982
        ]
      },
      "id": "node/12405952991"
    },
    {
      "type": "Feature",
      "properties": {
        "@id": "node/12405952996",
        "waterway": "waterfall"
      },
      "geometry": {
        "type": "Point",
        "coordinates": [
          -83.6327892,
          37.71591
        ]
      },
      "id": "node/12405952996"
    },
    {
      "type": "Feature",
      "properties": {
        "@id": "node/12407926281",
        "intermittent": "yes",
        "waterway": "waterfall"
      },
      "geometry": {
        "type": "Point",
        "coordinates": [
          -79.4476798,
          37.5125506
        ]
      },
      "id": "node/12407926281"
    },
    {
      "type": "Feature",
      "properties": {
        "@id": "node/12466117284",
        "waterway": "waterfall"
      },
      "geometry": {
        "type": "Point",
        "coordinates": [
          -77.2492374,
          38.9963087
        ]
      },
      "id": "node/12466117284"
    },
    {
      "type": "Feature",
      "properties": {
        "@id": "node/12466117285",
        "waterway": "waterfall"
      },
      "geometry": {
        "type": "Point",
        "coordinates": [
          -77.2492877,
          38.9964927
        ]
      },
      "id": "node/12466117285"
    },
    {
      "type": "Feature",
      "properties": {
        "@id": "node/12466117295",
        "waterway": "waterfall"
      },
      "geometry": {
        "type": "Point",
        "coordinates": [
          -77.2505054,
          38.9970519
        ]
      },
      "id": "node/12466117295"
    },
    {
      "type": "Feature",
      "properties": {
        "@id": "node/12466117297",
        "waterway": "waterfall"
      },
      "geometry": {
        "type": "Point",
        "coordinates": [
          -77.2506811,
          38.9965714
        ]
      },
      "id": "node/12466117297"
    },
    {
      "type": "Feature",
      "properties": {
        "@id": "node/12529783651",
        "waterway": "waterfall"
      },
      "geometry": {
        "type": "Point",
        "coordinates": [
          -79.6276792,
          37.5195203
        ]
      },
      "id": "node/12529783651"
    },
    {
      "type": "Feature",
      "properties": {
        "@id": "node/12536724913",
        "name": "East Mariba Fork Falls",
        "waterway": "waterfall"
      },
      "geometry": {
        "type": "Point",
        "coordinates": [
          -83.5745346,
          37.9075554
        ]
      },
      "id": "node/12536724913"
    },
    {
      "type": "Feature",
      "properties": {
        "@id": "node/12542009520",
        "name": "Boundry Falls",
        "waterway": "waterfall"
      },
      "geometry": {
        "type": "Point",
        "coordinates": [
          -83.5566466,
          37.8407534
        ]
      },
      "id": "node/12542009520"
    },
    {
      "type": "Feature",
      "properties": {
        "@id": "node/12694791080",
        "waterway": "waterfall"
      },
      "geometry": {
        "type": "Point",
        "coordinates": [
          -83.6327082,
          37.5562617
        ]
      },
      "id": "node/12694791080"
    },
    {
      "type": "Feature",
      "properties": {
        "@id": "node/12736671873",
        "waterway": "waterfall"
      },
      "geometry": {
        "type": "Point",
        "coordinates": [
          -77.712035,
          38.8034747
        ]
      },
      "id": "node/12736671873"
    },
    {
      "type": "Feature",
      "properties": {
        "@id": "node/12739535494",
        "ele": "721",
        "gnis:feature_id": "1466013",
        "name": "Dry Run Falls",
        "waterway": "waterfall"
      },
      "geometry": {
        "type": "Point",
        "coordinates": [
          -78.5273617,
          38.3989341
        ]
      },
      "id": "node/12739535494"
    },
    {
      "type": "Feature",
      "properties": {
        "@id": "node/12740010975",
        "gnis:feature_id": "1464606",
        "name": "Cedar Falls",
        "waterway": "waterfall"
      },
      "geometry": {
        "type": "Point",
        "coordinates": [
          -78.5419381,
          38.3951687
        ]
      },
      "id": "node/12740010975"
    },
    {
      "type": "Feature",
      "properties": {
        "@id": "node/12772077048",
        "name": "Upper Laural Branch Falls",
        "waterway": "waterfall"
      },
      "geometry": {
        "type": "Point",
        "coordinates": [
          -83.605197,
          37.8117581
        ]
      },
      "id": "node/12772077048"
    },
    {
      "type": "Feature",
      "properties": {
        "@id": "node/12798348890",
        "ele": "755",
        "gnis:feature_id": "1551096",
        "name": "Falls of Seneca",
        "waterway": "waterfall"
      },
      "geometry": {
        "type": "Point",
        "coordinates": [
          -79.4905667,
          38.8180903
        ]
      },
      "id": "node/12798348890"
    },
    {
      "type": "Feature",
      "properties": {
        "@id": "node/12835199915",
        "name": "Bell Falls",
        "waterway": "waterfall"
      },
      "geometry": {
        "type": "Point",
        "coordinates": [
          -83.6021463,
          37.8313795
        ]
      },
      "id": "node/12835199915"
    },
    {
      "type": "Feature",
      "properties": {
        "@id": "node/12849790665",
        "waterway": "waterfall"
      },
      "geometry": {
        "type": "Point",
        "coordinates": [
          -81.4739725,
          36.7141379
        ]
      },
      "id": "node/12849790665"
    },
    {
      "type": "Feature",
      "properties": {
        "@id": "node/12961978305",
        "intermittent": "no",
        "name": "Panther Falls",
        "waterway": "waterfall"
      },
      "geometry": {
        "type": "Point",
        "coordinates": [
          -79.2891237,
          37.7067524
        ]
      },
      "id": "node/12961978305"
    },
    {
      "type": "Feature",
      "properties": {
        "@id": "node/12993202194",
        "name": "Rudolph Falls",
        "waterway": "waterfall"
      },
      "geometry": {
        "type": "Point",
        "coordinates": [
          -80.5288543,
          38.2392105
        ]
      },
      "id": "node/12993202194"
    },
    {
      "type": "Feature",
      "properties": {
        "@id": "node/12993261592",
        "waterway": "waterfall"
      },
      "geometry": {
        "type": "Point",
        "coordinates": [
          -78.7511379,
          38.1403279
        ]
      },
      "id": "node/12993261592"
    },
    {
      "type": "Feature",
      "properties": {
        "@id": "node/13010765007",
        "man_made": "yes",
        "waterway": "waterfall"
      },
      "geometry": {
        "type": "Point",
        "coordinates": [
          -77.3959543,
          37.5258932
        ]
      },
      "id": "node/13010765007"
    },
    {
      "type": "Feature",
      "properties": {
        "@id": "node/13103976384",
        "intermittent": "yes",
        "waterway": "waterfall"
      },
      "geometry": {
        "type": "Point",
        "coordinates": [
          -82.119797,
          39.324833
        ]
      },
      "id": "node/13103976384"
    },
    {
      "type": "Feature",
      "properties": {
        "@id": "node/13106647201",
        "name": "Middle Cascades",
        "waterway": "waterfall"
      },
      "geometry": {
        "type": "Point",
        "coordinates": [
          -80.2374775,
          37.6686108
        ]
      },
      "id": "node/13106647201"
    },
    {
      "type": "Feature",
      "properties": {
        "@id": "node/13106647231",
        "name": "The Cascades",
        "waterway": "waterfall"
      },
      "geometry": {
        "type": "Point",
        "coordinates": [
          -80.2346272,
          37.6647304
        ]
      },
      "id": "node/13106647231"
    },
    {
      "type": "Feature",
      "properties": {
        "@id": "node/13106647234",
        "name": "Beaverdam Falls",
        "waterway": "waterfall"
      },
      "geometry": {
        "type": "Point",
        "coordinates": [
          -80.2340815,
          37.6643851
        ]
      },
      "id": "node/13106647234"
    },
    {
      "type": "Feature",
      "properties": {
        "@id": "node/13117082626",
        "waterway": "waterfall"
      },
      "geometry": {
        "type": "Point",
        "coordinates": [
          -79.0611418,
          37.8901142
        ]
      },
      "id": "node/13117082626"
    },
    {
      "type": "Feature",
      "properties": {
        "@id": "node/13119421201",
        "name": "Comer’s Creek Falls",
        "waterway": "waterfall"
      },
      "geometry": {
        "type": "Point",
        "coordinates": [
          -81.4741304,
          36.7142944
        ]
      },
      "id": "node/13119421201"
    },
    {
      "type": "Feature",
      "properties": {
        "@id": "node/13320528238",
        "waterway": "waterfall"
      },
      "geometry": {
        "type": "Point",
        "coordinates": [
          -79.7620696,
          38.7911568
        ]
      },
      "id": "node/13320528238"
    },
    {
      "type": "Feature",
      "properties": {
        "@id": "node/13343506776",
        "intermittent": "yes",
        "name": "Grotto",
        "waterway": "waterfall"
      },
      "geometry": {
        "type": "Point",
        "coordinates": [
          -81.5746258,
          38.3850346
        ]
      },
      "id": "node/13343506776"
    },
    {
      "type": "Feature",
      "properties": {
        "@id": "node/13440207378",
        "waterway": "waterfall"
      },
      "geometry": {
        "type": "Point",
        "coordinates": [
          -78.0427209,
          39.3321894
        ]
      },
      "id": "node/13440207378"
    },
    {
      "type": "Feature",
      "properties": {
        "@id": "node/13469456136",
        "waterway": "waterfall"
      },
      "geometry": {
        "type": "Point",
        "coordinates": [
          -81.4821102,
          39.4400883
        ]
      },
      "id": "node/13469456136"
    },
    {
      "type": "Feature",
      "properties": {
        "@id": "node/13584051344",
        "name": "Gentry Creek Falls",
        "waterway": "waterfall"
      },
      "geometry": {
        "type": "Point",
        "coordinates": [
          -81.7050183,
          36.5676934
        ]
      },
      "id": "node/13584051344"
    },
    {
      "type": "Feature",
      "properties": {
        "@id": "node/13906148418",
        "name": "Upper Right Fork Falls",
        "waterway": "waterfall"
      },
      "geometry": {
        "type": "Point",
        "coordinates": [
          -83.5467533,
          37.6639485
        ]
      },
      "id": "node/13906148418"
    }
  ]
}