{
  "type": "FeatureCollection",
  "generator": "overpass-turbo",
  "copyright": "The data included in this document is from www.openstreetmap.org. The data is made available under ODbL.",
  "timestamp": "2026-06-28T00:51:45Z",
  "features": [
    {
      "type": "Feature",
      "properties": {
        "@id": "relation/110796",
        "access": "yes",
        "addr:city": "Danbury",
        "addr:housenumber": "1790",
        "addr:postcode": "27016",
        "addr:state": "NC",
        "addr:street": "Hanging Rock Park Road",
        "boundary": "protected_area",
        "email": "hanging.rock@ncparks.gov",
        "name": "Hanging Rock State Park",
        "operator": "North Carolina Division of Parks and Recreation",
        "operator:short": "NCDPR",
        "operator:type": "government",
        "operator:wikidata": "Q109328529",
        "ownership": "state",
        "phone": "+1-336-593-8480",
        "protect_class": "2",
        "protected": "perpetuity",
        "protection_title": "State Park",
        "start_date": "1935",
        "type": "boundary",
        "website": "https://www.ncparks.gov/hanging-rock-state-park",
        "wikidata": "Q3364061",
        "wikipedia": "en:Hanging Rock State Park",
        "@geometry": "center"
      },
      "geometry": {
        "type": "Point",
        "coordinates": [
          -80.2881939,
          36.3991785
        ]
      },
      "id": "relation/110796"
    },
    {
      "type": "Feature",
      "properties": {
        "@id": "relation/166587",
        "boundary": "protected_area",
        "name": "Blue Ridge Parkway",
        "operator": "National Park Service",
        "operator:short": "NPS",
        "operator:type": "public",
        "operator:wikidata": "Q308439",
        "operator:wikipedia": "en:National Park Service",
        "ownership": "national",
        "protect_class": "2",
        "protected": "perpetuity",
        "protection_title": "National Parkway",
        "source": "NC Center for Geographic Information and Analysis, Raleigh, North Carolina (http://www.nconemap.com)",
        "source:va": "USGS topographic maps",
        "type": "boundary",
        "wikidata": "Q885856",
        "wikipedia": "en:Blue Ridge Parkway",
        "@geometry": "center"
      },
      "geometry": {
        "type": "Point",
        "coordinates": [
          -81.0708144,
          36.6644872
        ]
      },
      "id": "relation/166587"
    },
    {
      "type": "Feature",
      "properties": {
        "@id": "relation/190496",
        "access": "yes",
        "addr:city": "Kelly",
        "addr:housenumber": "6707",
        "addr:postcode": "28448",
        "addr:state": "NC",
        "addr:street": "N.C. 53 E.",
        "boundary": "protected_area",
        "email": "singletary.lake@ncparks.gov",
        "leisure": "park",
        "name": "Singletary Lake State Park",
        "operator": "North Carolina Division of Parks and Recreation",
        "operator:short": "NCDPR",
        "operator:type": "public",
        "operator:wikidata": "Q109328529",
        "owner": "State of North Carolina",
        "ownership": "state",
        "phone": "+1-910-669-2928",
        "protect_class": "2",
        "protected": "perpetuity",
        "protection_title": "State Park",
        "source": "NCOnemap (http://www.nconemap.com/)",
        "start_date": "1939",
        "type": "boundary",
        "website": "https://www.ncparks.gov/singletary-lake-state-park",
        "wikidata": "Q7524083",
        "wikipedia": "en:Singletary Lake State Park",
        "@geometry": "center"
      },
      "geometry": {
        "type": "Point",
        "coordinates": [
          -78.458059,
          34.5914558
        ]
      },
      "id": "relation/190496"
    },
    {
      "type": "Feature",
      "properties": {
        "@id": "relation/190502",
        "access": "yes",
        "addr:city": "Elizabethtown",
        "addr:housenumber": "4117",
        "addr:postcode": "28337",
        "addr:state": "NC",
        "addr:street": "N.C. 242 N.",
        "boundary": "protected_area",
        "email": "jones.lake@ncparks.gov",
        "leisure": "park",
        "name": "Jones Lake State Park",
        "operator": "North Carolina Division of Parks and Recreation",
        "owner": "State of North Carolina",
        "ownership": "state",
        "phone": "+1-910-588-4550",
        "protect_class": "2",
        "protected": "perpetuity",
        "protection_title": "State Park",
        "source": "NCOnemap (http://www.nconemap.com/)",
        "start_date": "1939",
        "type": "boundary",
        "website": "https://www.ncparks.gov/jones-lake-state-park",
        "wikidata": "Q6275231",
        "wikipedia": "en:Jones Lake State Park",
        "@geometry": "center"
      },
      "geometry": {
        "type": "Point",
        "coordinates": [
          -78.621733,
          34.6971713
        ]
      },
      "id": "relation/190502"
    },
    {
      "type": "Feature",
      "properties": {
        "@id": "relation/2029657",
        "access": "yes",
        "addr:city": "Roaring Gap",
        "addr:housenumber": "3042",
        "addr:postcode": "28668",
        "addr:state": "NC",
        "addr:street": "Frank Parkway",
        "boundary": "protected_area",
        "email": "stone.mountain@ncparks.gov",
        "name": "Stone Mountain State Park",
        "operator": "North Carolina Division of Parks and Recreation",
        "operator:short": "NCDPR",
        "operator:type": "government",
        "operator:wikidata": "Q109328529",
        "owner": "State of North Carolina",
        "ownership": "state",
        "phone": "+1-336-957-8185",
        "protect_class": "2",
        "protected": "perpetuity",
        "protection_title": "State Park",
        "start_date": "1969",
        "type": "boundary",
        "website": "https://www.ncparks.gov/stone-mountain-state-park",
        "wikidata": "Q1935404",
        "wikipedia": "en:Stone Mountain State Park",
        "@geometry": "center"
      },
      "geometry": {
        "type": "Point",
        "coordinates": [
          -81.061538,
          36.3908143
        ]
      },
      "id": "relation/2029657"
    },
    {
      "type": "Feature",
      "properties": {
        "@id": "relation/2127652",
        "access": "yes",
        "addr:city": "Kings Mountain",
        "addr:housenumber": "522",
        "addr:postcode": "28086",
        "addr:state": "NC",
        "addr:street": "Park Office Lane",
        "boundary": "protected_area",
        "ele": "283",
        "email": "crowders.mountain@ncparks.gov",
        "gnis:feature_id": "1001621",
        "name": "Crowders Mountain State Park",
        "operator": "North Carolina Division of Parks and Recreation",
        "owner": "State of North Carolina",
        "ownership": "state",
        "phone": "+1-704-853-5375",
        "protect_class": "2",
        "protected": "perpetuity",
        "protection_title": "State Park",
        "source": "NCOnemap",
        "start_date": "1973",
        "type": "boundary",
        "website": "https://www.ncparks.gov/crowders-mountain-state-park",
        "wikidata": "Q2765408",
        "wikipedia": "en:Crowders Mountain State Park",
        "@geometry": "center"
      },
      "geometry": {
        "type": "Point",
        "coordinates": [
          -81.3193373,
          35.2065519
        ]
      },
      "id": "relation/2127652"
    },
    {
      "type": "Feature",
      "properties": {
        "@id": "relation/2131838",
        "boundary": "protected_area",
        "contact:facebook": "https://www.facebook.com/GreatSmokyMountainsNPS",
        "contact:instagram": "https://www.instagram.com/GreatSmokyNPS/",
        "contact:twitter": "https://twitter.com/GreatSmokyNPS",
        "heritage": "1",
        "heritage:operator": "whc",
        "leisure": "nature_reserve",
        "name": "Great Smoky Mountains National Park",
        "name:ar": "المنتزه الوطني لجبال غرايت سموكي العظيمة",
        "name:en": "Great Smoky Mountains National Park",
        "name:es": "Parque Nacional de Great Smoky Mountains",
        "name:fr": "Parc national des Great Smoky Mountains",
        "name:ja": "グレート・スモーキー山脈国立公園",
        "name:nl": "Nationaal park Great Smoky Mountains",
        "name:ru": "Национальный парк Грейт-Смоки-Маунтинс",
        "name:zh": "大烟雾山国家公园",
        "network": "National Parks of the United States",
        "network:wikidata": "Q34918903",
        "operator": "National Park Service",
        "operator:short": "NPS",
        "operator:type": "public",
        "operator:wikidata": "Q308439",
        "operator:wikipedia": "en:National Park Service",
        "ownership": "national",
        "phone": "+1-865-436-1200",
        "protect_class": "2",
        "protected": "perpetuity",
        "protected_area": "national_park",
        "protection_title": "National Park",
        "ref:whc": "259",
        "source": "NPS",
        "type": "boundary",
        "website": "https://www.nps.gov/grsm",
        "whc:criteria": "(vii)(viii)(ix)(x)",
        "whc:inscription_date": "1983",
        "wikidata": "Q464004",
        "wikipedia": "en:Great Smoky Mountains National Park",
        "@geometry": "center"
      },
      "geometry": {
        "type": "Point",
        "coordinates": [
          -83.5059667,
          35.6341466
        ]
      },
      "id": "relation/2131838"
    },
    {
      "type": "Feature",
      "properties": {
        "@id": "relation/2918229",
        "boundary": "protected_area",
        "leisure": "park",
        "name": "Merchants Millpond State Park",
        "ownership": "state",
        "protect_class": "2",
        "type": "multipolygon",
        "website": "https://www.ncparks.gov/state-parks/merchants-millpond-state-park",
        "wikidata": "Q6818438",
        "wikipedia": "en:Merchants Millpond State Park",
        "@geometry": "center"
      },
      "geometry": {
        "type": "Point",
        "coordinates": [
          -76.6634115,
          36.4337536
        ]
      },
      "id": "relation/2918229"
    },
    {
      "type": "Feature",
      "properties": {
        "@id": "relation/2918307",
        "access": "yes",
        "addr:postcode": "27278",
        "boundary": "protected_area",
        "email": "eno.river@ncparks.gov",
        "leisure": "park",
        "name": "Eno River State Park",
        "owner": "State of North Carolina",
        "ownership": "state",
        "phone": "+1-919-383-1686",
        "protect_class": "2",
        "protected": "perpetuity",
        "protection_title": "State Park",
        "type": "multipolygon",
        "website": "https://www.ncparks.gov/eno-river-state-park",
        "wikidata": "Q3364010",
        "wikipedia": "en:Eno River State Park",
        "@geometry": "center"
      },
      "geometry": {
        "type": "Point",
        "coordinates": [
          -79.0108987,
          36.0739057
        ]
      },
      "id": "relation/2918307"
    },
    {
      "type": "Feature",
      "properties": {
        "@id": "relation/2918501",
        "access": "yes",
        "addr:city": "Sapphire",
        "addr:housenumber": "976",
        "addr:postcode": "28774",
        "addr:state": "NC",
        "addr:street": "Grassy Ridge Road",
        "boundary": "protected_area",
        "ele": "577",
        "email": "gorges@ncparks.gov",
        "gnis:feature_id": "2374754",
        "name": "Gorges State Park",
        "operator": "North Carolina Division of Parks and Recreation",
        "owner": "State of North Carolina",
        "ownership": "state",
        "phone": "+1-828-966-9099",
        "protect_class": "2",
        "protected": "perpetuity",
        "protection_title": "State Park",
        "related_law": "SL 1997-276",
        "start_date": "1999",
        "type": "boundary",
        "website": "https://www.ncparks.gov/gorges-state-park",
        "wikidata": "Q3364051",
        "wikipedia": "en:Gorges State Park",
        "@geometry": "center"
      },
      "geometry": {
        "type": "Point",
        "coordinates": [
          -82.9172544,
          35.0897162
        ]
      },
      "id": "relation/2918501"
    },
    {
      "type": "Feature",
      "properties": {
        "@id": "relation/3085949",
        "access": "yes",
        "addr:city": "Nebo",
        "addr:housenumber": "7321",
        "addr:postcode": "28761",
        "addr:state": "NC",
        "addr:street": "NC Hwy 126",
        "boundary": "protected_area",
        "email": "lake.james@ncparks.gov",
        "name": "Lake James State Park",
        "operator": "North Carolina Division of Parks and Recreation",
        "owner": "State of North Carolina",
        "ownership": "state",
        "phone": "+1-828-584-7728",
        "protect_class": "2",
        "protected": "perpetuity",
        "protection_title": "State Park",
        "start_date": "1987",
        "type": "boundary",
        "website": "https://www.ncparks.gov/lake-james-state-park",
        "wikidata": "Q6476330",
        "wikipedia": "en:Lake James State Park",
        "@geometry": "center"
      },
      "geometry": {
        "type": "Point",
        "coordinates": [
          -81.8743012,
          35.7588527
        ]
      },
      "id": "relation/3085949"
    },
    {
      "type": "Feature",
      "properties": {
        "@id": "relation/4633431",
        "access": "private",
        "boundary": "protected_area",
        "name": "The Preserve at RiverWest",
        "old_name": "Millstone Golf Course",
        "protect_class": "2",
        "type": "multipolygon",
        "website": "https://thepreserveparks.com/the-preserve-at-riverwest",
        "@geometry": "center"
      },
      "geometry": {
        "type": "Point",
        "coordinates": [
          -82.4712332,
          34.8273518
        ]
      },
      "id": "relation/4633431"
    },
    {
      "type": "Feature",
      "properties": {
        "@id": "relation/5156604",
        "access": "yes",
        "addr:city": "Troutman",
        "addr:housenumber": "759",
        "addr:postcode": "28166",
        "addr:state": "NC",
        "addr:street": "State Park Road",
        "boundary": "protected_area",
        "ele": "275",
        "email": "lake.norman@ncparks.gov",
        "gnis:feature_id": "984402",
        "name": "Lake Norman State Park",
        "old_name": "Duke Power State Park",
        "operator": "North Carolina Division of Parks and Recreation",
        "owner": "State of North Carolina",
        "ownership": "state",
        "phone": "+1-704-528-6350",
        "protect_class": "2",
        "protected": "perpetuity",
        "protection_title": "State Park",
        "source": "NCOnemap",
        "start_date": "1962",
        "type": "boundary",
        "website": "https://www.ncparks.gov/lake-norman-state-park",
        "wikipedia": "en:Lake Norman State Park",
        "@geometry": "center"
      },
      "geometry": {
        "type": "Point",
        "coordinates": [
          -80.9402266,
          35.6615351
        ]
      },
      "id": "relation/5156604"
    },
    {
      "type": "Feature",
      "properties": {
        "@id": "relation/7192241",
        "boundary": "protected_area",
        "gnis:feature_id": "490476",
        "historic": "yes",
        "leisure": "nature_reserve",
        "name": "Cumberland Gap National Historical Park",
        "operator": "National Park Service",
        "operator:short": "NPS",
        "operator:type": "public",
        "operator:wikidata": "Q308439",
        "operator:wikipedia": "en:National Park Service",
        "ownership": "national",
        "protect_class": "2",
        "protected": "perpetuity",
        "protected_area": "historic_site",
        "protection_title": "National Historical Park",
        "start_date": "1940",
        "type": "boundary",
        "website": "https://www.nps.gov/cuga",
        "wikidata": "Q5193892",
        "wikipedia": "en:Cumberland Gap National Historical Park",
        "@geometry": "center"
      },
      "geometry": {
        "type": "Point",
        "coordinates": [
          -83.6062152,
          36.6186928
        ]
      },
      "id": "relation/7192241"
    },
    {
      "type": "Feature",
      "properties": {
        "@id": "relation/7270564",
        "access": "yes",
        "addr:city": "Burnsville",
        "addr:housenumber": "2388",
        "addr:postcode": "28714",
        "addr:state": "NC",
        "addr:street": "N.C. 128",
        "boundary": "protected_area",
        "email": "mount.mitchell@ncparks.gov",
        "name": "Mount Mitchell State Park",
        "operator": "North Carolina Division of Parks and Recreation",
        "owner": "State of North Carolina",
        "ownership": "state",
        "phone": "+1-828-675-4611",
        "protect_class": "2",
        "protected": "perpetuity",
        "protection_title": "State Park",
        "source": "NCOnemap",
        "start_date": "1915",
        "type": "boundary",
        "website": "https://www.ncparks.gov/mount-mitchell-state-park/",
        "wikidata": "Q6922218",
        "wikipedia": "en:Mount Mitchell State Park",
        "@geometry": "center"
      },
      "geometry": {
        "type": "Point",
        "coordinates": [
          -82.2943864,
          35.8040108
        ]
      },
      "id": "relation/7270564"
    },
    {
      "type": "Feature",
      "properties": {
        "@id": "relation/7359868",
        "access": "yes",
        "addr:city": "Todd",
        "addr:housenumber": "5564",
        "addr:postcode": "28684",
        "addr:state": "NC",
        "addr:street": "Meat Camp Road",
        "boundary": "protected_area",
        "ele": "1521",
        "email": "elk.knob@ncparks.gov",
        "gnis:feature_id": "2374752",
        "name": "Elk Knob State Park",
        "operator": "North Carolina Division of Parks and Recreation",
        "owner": "State of North Carolina",
        "ownership": "state",
        "phone": "+1-828-297-7261",
        "protect_class": "2",
        "protected": "perpetuity",
        "protection_title": "State Park",
        "source": "NCOnemap",
        "start_date": "2003",
        "type": "boundary",
        "website": "https://www.ncparks.gov/elk-knob-state-park",
        "wikidata": "Q3364009",
        "wikipedia": "en:Elk Knob State Park",
        "@geometry": "center"
      },
      "geometry": {
        "type": "Point",
        "coordinates": [
          -81.6696926,
          36.361856
        ]
      },
      "id": "relation/7359868"
    },
    {
      "type": "Feature",
      "properties": {
        "@id": "relation/7437580",
        "access": "yes",
        "addr:city": "Pinnacle",
        "addr:housenumber": "1792",
        "addr:postcode": "27043",
        "addr:state": "NC",
        "addr:street": "Pilot Knob Park Road",
        "boundary": "protected_area",
        "email": "pilot.mountain@ncparks.gov",
        "name": "Pilot Mountain State Park",
        "operator": "North Carolina Division of Parks and Recreation",
        "ownership": "state",
        "phone": "+1-336-325-2355",
        "protect_class": "2",
        "protected": "perpetuity",
        "protection_title": "State Park",
        "start_date": "1968",
        "type": "boundary",
        "website": "https://www.ncparks.gov/pilot-mountain-state-park",
        "wikipedia": "en:Pilot Mountain State Park",
        "@geometry": "center"
      },
      "geometry": {
        "type": "Point",
        "coordinates": [
          -80.4997981,
          36.3070845
        ]
      },
      "id": "relation/7437580"
    },
    {
      "type": "Feature",
      "properties": {
        "@id": "relation/7836251",
        "access": "yes",
        "boundary": "protected_area",
        "leisure": "park",
        "name": "Guilford Courthouse National Military Park",
        "operator": "National Park Service",
        "operator:short": "NPS",
        "operator:type": "public",
        "operator:wikidata": "Q308439",
        "operator:wikipedia": "en:National Park Service",
        "ownership": "national",
        "protect_class": "2",
        "protected": "perpetuity",
        "protected_area": "historic_site",
        "protection_title": "National Military Park",
        "source": "NCOnemap",
        "type": "multipolygon",
        "wikidata": "Q5615921",
        "wikipedia": "en:Guilford Courthouse National Military Park",
        "@geometry": "center"
      },
      "geometry": {
        "type": "Point",
        "coordinates": [
          -79.8431217,
          36.1313637
        ]
      },
      "id": "relation/7836251"
    },
    {
      "type": "Feature",
      "properties": {
        "@id": "relation/9324277",
        "access": "yes",
        "boundary": "protected_area",
        "ele": "235",
        "email": "haw.river@ncparks.gov",
        "gnis:feature_id": "2374755",
        "leisure": "park",
        "name": "Haw River State Park",
        "operator": "North Carolina Division of Parks and Recreation",
        "operator:short": "NCDPR",
        "operator:type": "public",
        "operator:wikidata": "Q109328529",
        "owner": "State of North Carolina",
        "ownership": "state",
        "phone": "+1-336-342-6163",
        "protect_class": "2",
        "protected": "perpetuity",
        "protection_title": "State Park",
        "start_date": "2003",
        "type": "boundary",
        "website": "https://www.ncparks.gov/haw-river-state-park",
        "wikidata": "Q5684135",
        "wikipedia": "en:Haw River State Park",
        "@geometry": "center"
      },
      "geometry": {
        "type": "Point",
        "coordinates": [
          -79.7965819,
          36.2463863
        ]
      },
      "id": "relation/9324277"
    },
    {
      "type": "Feature",
      "properties": {
        "@id": "relation/9324341",
        "access": "yes",
        "addr:city": "Mayodan",
        "addr:housenumber": "500",
        "addr:postcode": "27027",
        "addr:state": "NC",
        "addr:street": "Old Mayo Park Road",
        "boundary": "protected_area",
        "email": "mayo.river@ncparks.gov",
        "name": "Mayo River State Park (NC)",
        "operator": "North Carolina Division of Parks and Recreation",
        "owner": "State of North Carolina",
        "ownership": "state",
        "phone": "+1-336-427-2530",
        "protect_class": "2",
        "protected": "perpetuity",
        "protection_title": "State Park",
        "start_date": "2003",
        "type": "boundary",
        "website": "https://www.ncparks.gov/mayo-river-state-park",
        "wikidata": "Q6797548",
        "wikipedia": "en:Mayo River State Park (North Carolina)",
        "@geometry": "center"
      },
      "geometry": {
        "type": "Point",
        "coordinates": [
          -79.9731809,
          36.4680574
        ]
      },
      "id": "relation/9324341"
    },
    {
      "type": "Feature",
      "properties": {
        "@id": "relation/9327609",
        "access": "yes",
        "boundary": "protected_area",
        "email": "pettigrew@ncparks.gov",
        "leisure": "nature_reserve",
        "name": "Pettigrew State Park",
        "operator": "North Carolina Division of Parks and Recreation",
        "operator:short": "NCDPR",
        "operator:type": "government",
        "operator:wikidata": "Q109328529",
        "owner": "State of North Carolina",
        "ownership": "state",
        "phone": "+1-252-797-4475",
        "protect_class": "2",
        "protected": "perpetuity",
        "protection_title": "State Park",
        "source": "NCOnemap",
        "start_date": "1939",
        "type": "boundary",
        "website": "https://www.ncparks.gov/pettigrew-state-park",
        "wikidata": "Q7179343",
        "wikipedia": "en:Pettigrew State Park",
        "@geometry": "center"
      },
      "geometry": {
        "type": "Point",
        "coordinates": [
          -76.386403,
          35.8280085
        ]
      },
      "id": "relation/9327609"
    },
    {
      "type": "Feature",
      "properties": {
        "@id": "relation/9336020",
        "access": "yes",
        "addr:city": "Blacksburg",
        "addr:housenumber": "1277",
        "addr:postcode": "29702",
        "addr:state": "SC",
        "addr:street": "Park Road",
        "attribution": "SC GIS",
        "boundary": "protected_area",
        "ele": "235",
        "email": "kingsmountain@scprt.com",
        "gnis:feature_id": "1246253",
        "name": "Kings Mountain State Park",
        "operator": "South Carolina Department of Parks, Recreation & Tourism",
        "owner": "State of South Carolina",
        "ownership": "state",
        "phone": "+1-803-222-3209",
        "protect_class": "2",
        "protected": "perpetuity",
        "protection_title": "State Park",
        "scgis-shp:parksid": "1",
        "scgis-shp:propertyid": "6335",
        "scgis-shp:source": "DNR SCDBASE PRK",
        "scgis-shp:uuid": "5ac00053-d81a-4c20-8606-f41b069938c8",
        "start_date": "1934",
        "type": "boundary",
        "website": "https://southcarolinaparks.com/kings-mountain",
        "wikidata": "Q6412961",
        "wikipedia": "en:Kings Mountain State Park",
        "@geometry": "center"
      },
      "geometry": {
        "type": "Point",
        "coordinates": [
          -81.3646437,
          35.1322249
        ]
      },
      "id": "relation/9336020"
    },
    {
      "type": "Feature",
      "properties": {
        "@id": "relation/9424104",
        "boundary": "protected_area",
        "email": "grandfather.mountain@ncparks.gov",
        "name": "Grandfather Mountain State Park",
        "operator": "North Carolina Division of Parks and Recreation",
        "owner": "State of North Carolina",
        "ownership": "state",
        "phone": "+1-828-963-9522",
        "protect_class": "2",
        "protected": "perpetuity",
        "protection_title": "State Park",
        "start_date": "2008",
        "type": "boundary",
        "website": "https://www.ncparks.gov/state-parks/grandfather-mountain-state-park",
        "wikidata": "Q833467",
        "wikipedia": "en:Grandfather Mountain",
        "@geometry": "center"
      },
      "geometry": {
        "type": "Point",
        "coordinates": [
          -81.8104794,
          36.1165885
        ]
      },
      "id": "relation/9424104"
    },
    {
      "type": "Feature",
      "properties": {
        "@id": "relation/9438909",
        "boundary": "protected_area",
        "name": "Yellow Mountain State Natural Area",
        "operator": "North Carolina Division of Parks and Recreation",
        "operator:short": "NCDPR",
        "operator:type": "government",
        "operator:wikidata": "Q109328529",
        "owner": "State of North Carolina",
        "ownership": "state",
        "protect_class": "2",
        "protected": "perpetuity",
        "protection_title": "State Natural Area",
        "source": "NCOnemap",
        "start_date": "2008",
        "type": "boundary",
        "@geometry": "center"
      },
      "geometry": {
        "type": "Point",
        "coordinates": [
          -82.0509954,
          36.0365066
        ]
      },
      "id": "relation/9438909"
    },
    {
      "type": "Feature",
      "properties": {
        "@id": "relation/9596646",
        "access": "yes",
        "addr:city": "Spring Lake",
        "addr:housenumber": "2505",
        "addr:postcode": "28390",
        "addr:state": "NC",
        "addr:street": "Long Valley Road",
        "boundary": "protected_area",
        "email": "carvers.creek@ncparks.gov",
        "name": "Carvers Creek State Park",
        "operator": "North Carolina Division of Parks and Recreation",
        "operator:short": "NCDPR",
        "operator:type": "government",
        "operator:wikidata": "Q109328529",
        "owner": "State of North Carolina",
        "ownership": "state",
        "phone": "+1-910-436-4681",
        "protect_class": "2",
        "protected": "perpetuity",
        "protection_title": "State Park",
        "source": "NCOnemap",
        "start_date": "2005",
        "type": "boundary",
        "website": "https://www.ncparks.gov/carvers-creek-state-park",
        "@geometry": "center"
      },
      "geometry": {
        "type": "Point",
        "coordinates": [
          -78.9725262,
          35.2104387
        ]
      },
      "id": "relation/9596646"
    },
    {
      "type": "Feature",
      "properties": {
        "@id": "relation/9604120",
        "access": "yes",
        "addr:city": "Southern Pines",
        "addr:housenumber": "1024",
        "addr:postcode": "28387",
        "addr:state": "NC",
        "addr:street": "Fort Bragg Road",
        "boundary": "protected_area",
        "email": "weymouth.woods@ncparks.gov",
        "leisure": "park",
        "name": "Weymouth Woods-Sandhills Nature Preserve",
        "operator": "North Carolina Division of Parks and Recreation",
        "operator:short": "NCDPR",
        "operator:type": "public",
        "operator:wikidata": "Q109328529",
        "owner": "State of North Carolina",
        "ownership": "state",
        "phone": "+1-910-692-2167",
        "protect_class": "2",
        "protected": "perpetuity",
        "protection_title": "State Natural Area",
        "source": "NCOnemap",
        "start_date": "1963",
        "type": "multipolygon",
        "website": "https://www.ncparks.gov/weymouth-woods-sandhills-nature-preserve",
        "wikipedia": "en:Weymouth Woods-Sandhills Nature Preserve",
        "@geometry": "center"
      },
      "geometry": {
        "type": "Point",
        "coordinates": [
          -79.3794616,
          35.1558495
        ]
      },
      "id": "relation/9604120"
    },
    {
      "type": "Feature",
      "properties": {
        "@id": "relation/9659240",
        "access": "yes",
        "addr:city": "Orrum",
        "addr:housenumber": "2819",
        "addr:postcode": "28369",
        "addr:state": "NC",
        "addr:street": "Princess Ann Road",
        "boundary": "protected_area",
        "email": "lumber.river@ncparks.gov",
        "leisure": "park",
        "name": "Lumber River State Park",
        "operator": "North Carolina Division of Parks and Recreation",
        "operator:short": "NCDPR",
        "operator:type": "public",
        "operator:wikidata": "Q109328529",
        "owner": "State of North Carolina",
        "ownership": "state",
        "phone": "+1-910-628-4564",
        "protect_class": "2",
        "protected": "perpetuity",
        "protection_title": "State Park",
        "start_date": "1989",
        "type": "boundary",
        "website": "https://www.ncparks.gov/lumber-river-state-park",
        "wikipedia": "en:Lumber River State Park",
        "@geometry": "center"
      },
      "geometry": {
        "type": "Point",
        "coordinates": [
          -79.1349012,
          34.6415702
        ]
      },
      "id": "relation/9659240"
    },
    {
      "type": "Feature",
      "properties": {
        "@id": "relation/9742275",
        "access": "yes",
        "addr:city": "Hillsborough",
        "addr:housenumber": "625",
        "addr:postcode": "27278",
        "addr:state": "NC",
        "addr:street": "Virginia Cates Road",
        "boundary": "protected_area",
        "email": "eno.river@ncparks.gov",
        "leisure": "nature_reserve",
        "name": "Occoneechee Mountain State Natural Area",
        "owner": "State of North Carolina",
        "ownership": "state",
        "phone": "+1-919-383-1686",
        "protect_class": "2",
        "protected": "perpetuity",
        "protection_title": "State Natural Area",
        "source": "NCOnemap",
        "start_date": "1997",
        "type": "multipolygon",
        "wikidata": "Q7075722",
        "wikipedia": "en:Occoneechee Mountain State Natural Area",
        "@geometry": "center"
      },
      "geometry": {
        "type": "Point",
        "coordinates": [
          -79.1191956,
          36.0637756
        ]
      },
      "id": "relation/9742275"
    },
    {
      "type": "Feature",
      "properties": {
        "@id": "relation/9742879",
        "access": "yes",
        "boundary": "protected_area",
        "email": "eno.river@ncparks.gov",
        "leisure": "park",
        "name": "James M. Johnston Nature Preserve",
        "owner": "State of North Carolina",
        "ownership": "state",
        "phone": "+1-919-383-1686",
        "protect_class": "2",
        "type": "multipolygon",
        "@geometry": "center"
      },
      "geometry": {
        "type": "Point",
        "coordinates": [
          -79.0750006,
          36.0729366
        ]
      },
      "id": "relation/9742879"
    },
    {
      "type": "Feature",
      "properties": {
        "@id": "relation/9759455",
        "access": "yes",
        "addr:city": "West Jefferson",
        "addr:housenumber": "1481",
        "addr:postcode": "28694",
        "addr:state": "NC",
        "addr:street": "Mount Jefferson State Park Road",
        "boundary": "protected_area",
        "ele": "1390",
        "email": "mount.jefferson@ncparks.gov",
        "gnis:feature_id": "990423",
        "name": "Mount Jefferson State Natural Area",
        "nconemap:OWNER": "STATE OF NORTH CAROLINA",
        "operator": "North Carolina Division of Parks and Recreation",
        "owner": "State of North Carolina",
        "ownership": "state",
        "phone": "+1-336-246-9653",
        "protect_class": "2",
        "protected": "perpetuity",
        "protection_title": "State Natural Area",
        "source": "NCOnemap;Ashe County GIS",
        "start_date": "1956",
        "type": "boundary",
        "website": "https://www.ncparks.gov/mount-jefferson-state-natural-area",
        "wikidata": "Q6921496",
        "wikipedia": "en:Mount Jefferson State Natural Area",
        "@geometry": "center"
      },
      "geometry": {
        "type": "Point",
        "coordinates": [
          -81.4544472,
          36.3994643
        ]
      },
      "id": "relation/9759455"
    },
    {
      "type": "Feature",
      "properties": {
        "@id": "relation/10109782",
        "access": "yes",
        "addr:city": "Lake Waccamaw",
        "addr:housenumber": "1866",
        "addr:postcode": "28450",
        "addr:state": "NC",
        "addr:street": "State Park Drive",
        "boundary": "protected_area",
        "ele": "14",
        "email": "lake.waccamaw@ncparks.gov",
        "gnis:feature_id": "1000972",
        "leisure": "park",
        "name": "Lake Waccamaw State Park",
        "operator": "North Carolina Division of Parks and Recreation",
        "operator:short": "NCDPR",
        "operator:type": "public",
        "operator:wikidata": "Q109328529",
        "owner": "State of North Carolina",
        "ownership": "state",
        "phone": "+1-910-646-4748",
        "protect_class": "2",
        "protected": "perpetuity",
        "protection_title": "State Park",
        "source": "NCOnemap",
        "start_date": "1976",
        "type": "boundary",
        "website": "https://www.ncparks.gov/lake-waccamaw-state-park",
        "wikidata": "Q14708012",
        "wikipedia": "en:Lake Waccamaw State Park",
        "@geometry": "center"
      },
      "geometry": {
        "type": "Point",
        "coordinates": [
          -78.5089515,
          34.2782839
        ]
      },
      "id": "relation/10109782"
    },
    {
      "type": "Feature",
      "properties": {
        "@id": "relation/10110999",
        "access": "yes",
        "addr:city": "Blacksburg",
        "addr:housenumber": "2625",
        "addr:postcode": "29702",
        "addr:state": "SC",
        "addr:street": "Park Road",
        "attribution": "SC GIS",
        "boundary": "protected_area",
        "gnis:feature_id": "1223739",
        "leisure": "nature_reserve",
        "name": "Kings Mountain National Military Park",
        "operator": "National Park Service",
        "operator:short": "NPS",
        "operator:type": "public",
        "operator:wikidata": "Q308439",
        "ownership": "national",
        "phone": "+1-864-936-7921",
        "protect_class": "2",
        "protected": "perpetuity",
        "protected_area": "historic_site",
        "protection_title": "National Military Park",
        "scgis-shp:parksid": "2",
        "scgis-shp:propertyid": "5150",
        "scgis-shp:source": "DNR SCDBASE PRK",
        "scgis-shp:uuid": "5ac00053-d81a-4c20-8606-f41b069938c8",
        "start_date": "1931-03-03",
        "type": "boundary",
        "website": "https://www.nps.gov/kimo/index.htm",
        "wikidata": "Q1121121",
        "wikipedia": "en:Kings Mountain National Military Park",
        "@geometry": "center"
      },
      "geometry": {
        "type": "Point",
        "coordinates": [
          -81.389812,
          35.1373972
        ]
      },
      "id": "relation/10110999"
    },
    {
      "type": "Feature",
      "properties": {
        "@id": "relation/11051728",
        "access": "yes",
        "boundary": "protected_area",
        "name": "Mayo River State Park (VA)",
        "operator": "Virginia Department of Conservation and Recreation",
        "owner": "Commonwealth of Virginia",
        "protect_class": "2",
        "protected": "perpetuity",
        "protection_title": "State Park",
        "start_date": "2009",
        "type": "boundary",
        "website": "https://www.dcr.virginia.gov/state-parks/mayo-river-sp",
        "wikidata": "Q110459686",
        "wikipedia": "en:Mayo River State Park (Virginia)",
        "@geometry": "center"
      },
      "geometry": {
        "type": "Point",
        "coordinates": [
          -79.9916801,
          36.5526982
        ]
      },
      "id": "relation/11051728"
    },
    {
      "type": "Feature",
      "properties": {
        "@id": "relation/11323312",
        "boundary": "protected_area",
        "name": "Pisgah View State Park",
        "note": "NC plans on acquiring the land for the park in five phases from 2020 to 2025.",
        "operator": "North Carolina Division of Parks and Recreation",
        "owner": "State of North Carolina",
        "ownership": "state",
        "protect_class": "2",
        "protected": "perpetuity",
        "protection_title": "State Park",
        "related_law": "SL2019-138",
        "start_date": "2019",
        "type": "boundary",
        "wikidata": "Q85793442",
        "wikipedia": "en:Pisgah View State Park",
        "@geometry": "center"
      },
      "geometry": {
        "type": "Point",
        "coordinates": [
          -82.7800833,
          35.4830189
        ]
      },
      "id": "relation/11323312"
    },
    {
      "type": "Feature",
      "properties": {
        "@id": "relation/11748820",
        "boundary": "protected_area",
        "name": "Justin P. Wilson Cumberland Trail State Park",
        "operator": "Tennessee Department of Environment and Conservation",
        "operator:type": "government",
        "operator:wikidata": "Q7700063",
        "ownership": "state",
        "protect_class": "2",
        "protected": "perpetuity",
        "protection_title": "State Park",
        "start_date": "1998",
        "type": "boundary",
        "wikipedia": "en:Justin P. Wilson Cumberland Trail State Park",
        "@geometry": "center"
      },
      "geometry": {
        "type": "Point",
        "coordinates": [
          -84.5726387,
          35.8649713
        ]
      },
      "id": "relation/11748820"
    },
    {
      "type": "Feature",
      "properties": {
        "@id": "relation/11958334",
        "access": "yes",
        "addr:city": "Albemarle",
        "addr:housenumber": "49104",
        "addr:postcode": "28001",
        "addr:state": "NC",
        "addr:street": "Morrow Mountain Road",
        "boundary": "protected_area",
        "ele": "134",
        "gnis:feature_id": "1024496",
        "name": "Morrow Mountain State Park",
        "operator": "North Carolina Division of Parks and Recreation",
        "owner": "State of North Carolina",
        "ownership": "state",
        "protect_class": "2",
        "protected": "perpetuity",
        "protection_title": "State Park",
        "source": "NCOnemap",
        "type": "boundary",
        "website": "https://www.ncparks.gov/morrow-mountain-state-park",
        "wikidata": "Q6914207",
        "wikipedia": "en:Morrow Mountain State Park",
        "@geometry": "center"
      },
      "geometry": {
        "type": "Point",
        "coordinates": [
          -80.0830141,
          35.3808539
        ]
      },
      "id": "relation/11958334"
    },
    {
      "type": "Feature",
      "properties": {
        "@id": "relation/15486883",
        "access": "private",
        "area": "yes",
        "boundary": "protected_area",
        "name": "The Preserve at Lakewood",
        "protect_class": "2",
        "type": "multipolygon",
        "website": "https://thepreserveparks.com/the-preserve-at-lakewood",
        "@geometry": "center"
      },
      "geometry": {
        "type": "Point",
        "coordinates": [
          -82.3358546,
          34.7672438
        ]
      },
      "id": "relation/15486883"
    },
    {
      "type": "Feature",
      "properties": {
        "@id": "relation/15661507",
        "access": "yes",
        "addr:city": "Fayetteville",
        "addr:housenumber": "955",
        "addr:postcode": "28311",
        "addr:street": "McCloskey Road",
        "boundary": "protected_area",
        "email": "carvers.creek@ncparks.gov",
        "name": "Carvers Creek State Park - Sandhills Access",
        "operator": "North Carolina Division of Parks and Recreation",
        "operator:short": "NCDPR",
        "operator:type": "government",
        "operator:wikidata": "Q109328529",
        "owner": "State of North Carolina",
        "ownership": "state",
        "phone": "+1-910-436-4681",
        "protect_class": "2",
        "protected": "perpetuity",
        "protection_title": "State Park",
        "type": "boundary",
        "website": "https://www.ncparks.gov/carvers-creek-state-park",
        "@geometry": "center"
      },
      "geometry": {
        "type": "Point",
        "coordinates": [
          -78.8848436,
          35.1832211
        ]
      },
      "id": "relation/15661507"
    },
    {
      "type": "Feature",
      "properties": {
        "@id": "relation/15745078",
        "access": "yes",
        "addr:city": "Purlear",
        "addr:housenumber": "1956",
        "addr:postcode": "28665",
        "addr:state": "NC",
        "addr:street": "Rendezvous Mountain Road",
        "boundary": "protected_area",
        "email": "rendezvous.mountain@ncparks.gov",
        "name": "Rendezvous Mountain State Park",
        "note": "In 2022, Rendezvous Mountain Educational State Forest was subdivided into Rendezvous Mountain State Forest & Rendezvous Mountain State Park.",
        "operator": "North Carolina Division of Parks and Recreation",
        "owner": "State of North Carolina",
        "ownership": "state",
        "phone": "+1-336-667-5072",
        "protect_class": "2",
        "protected": "perpetuity",
        "protection_title": "State Park",
        "start_date": "1926",
        "type": "boundary",
        "website": "https://www.ncparks.gov/state-parks/rendezvous-mountain",
        "wikidata": "Q7312828",
        "wikipedia": "en:Rendezvous Mountain State Park",
        "@geometry": "center"
      },
      "geometry": {
        "type": "Point",
        "coordinates": [
          -81.309255,
          36.2272855
        ]
      },
      "id": "relation/15745078"
    },
    {
      "type": "Feature",
      "properties": {
        "@id": "relation/16486568",
        "boundary": "protected_area",
        "ownership": "national",
        "protect_class": "2",
        "protected": "perpetuity",
        "protection_title": "National Park",
        "source": "Purcell A. 2022. Congaree National Park Tract and Boundary Data. National Park Service (NPS), Chief Cartographer, Land Resources Division, WASO Fort Collins Land Resources Program Center. https://irma.nps.gov/DataStore/Reference/Profile/2299943",
        "source:version": "20220607",
        "type": "boundary",
        "@geometry": "center"
      },
      "geometry": {
        "type": "Point",
        "coordinates": [
          -80.7316474,
          33.7940409
        ]
      },
      "id": "relation/16486568"
    },
    {
      "type": "Feature",
      "properties": {
        "@id": "relation/20592218",
        "access": "yes",
        "addr:city": "Seven Springs",
        "addr:housenumber": "240",
        "addr:postcode": "28578",
        "addr:state": "NC",
        "addr:street": "Park Entrance Road",
        "boundary": "protected_area",
        "email": "cliffs.neuse@ncparks.gov",
        "gnis:feature_id": "1023912",
        "leisure": "nature_reserve",
        "name": "Cliffs of the Neuse State Park",
        "operator": "North Carolina Division of Parks and Recreation",
        "operator:short": "NCDPR",
        "operator:type": "government",
        "operator:wikidata": "Q109328529",
        "ownership": "state",
        "phone": "+1-919-778-6234",
        "protect_class": "2",
        "protected": "perpetuity",
        "protection_title": "State Park",
        "source": "NCOnemap (www.nconemap.com)",
        "start_date": "1945",
        "type": "boundary",
        "website": "https://www.ncparks.gov/state-parks/cliffs-neuse-state-park",
        "wikidata": "Q3364033",
        "wikipedia": "en:Cliffs of the Neuse State Park",
        "@geometry": "center"
      },
      "geometry": {
        "type": "Point",
        "coordinates": [
          -77.8852678,
          35.2416471
        ]
      },
      "id": "relation/20592218"
    }
  ]
}