{
  "type": "FeatureCollection",
  "generator": "overpass-turbo",
  "copyright": "The data included in this document is from www.openstreetmap.org. The data is made available under ODbL.",
  "timestamp": "2026-06-28T01:24:05Z",
  "features": [
    {
      "type": "Feature",
      "properties": {
        "@id": "node/154334732",
        "ele": "3",
        "gnis:feature_id": "1253464",
        "name": "Barrell Landing",
        "tourism": "viewpoint"
      },
      "geometry": {
        "type": "Point",
        "coordinates": [
          -80.9306648,
          32.295198
        ]
      },
      "id": "node/154334732"
    },
    {
      "type": "Feature",
      "properties": {
        "@id": "node/358748606",
        "ele": "100",
        "gnis:feature_id": "344264",
        "man_made": "tower",
        "name": "Jefferson Lookout Tower",
        "tourism": "viewpoint"
      },
      "geometry": {
        "type": "Point",
        "coordinates": [
          -82.3979296,
          32.9509739
        ]
      },
      "id": "node/358748606"
    },
    {
      "type": "Feature",
      "properties": {
        "@id": "node/571697368",
        "name": "Falls Overlook",
        "tourism": "viewpoint"
      },
      "geometry": {
        "type": "Point",
        "coordinates": [
          -82.4006917,
          34.8450185
        ]
      },
      "id": "node/571697368"
    },
    {
      "type": "Feature",
      "properties": {
        "@id": "node/611965259",
        "name": "Falls Overlook",
        "tourism": "viewpoint"
      },
      "geometry": {
        "type": "Point",
        "coordinates": [
          -82.4015144,
          34.8449452
        ]
      },
      "id": "node/611965259"
    },
    {
      "type": "Feature",
      "properties": {
        "@id": "node/1079077807",
        "fixme": "swing tagging might be incorrect.",
        "name": "Two swings with marsh view",
        "playground": "swing",
        "tourism": "viewpoint"
      },
      "geometry": {
        "type": "Point",
        "coordinates": [
          -80.4856738,
          32.3213247
        ]
      },
      "id": "node/1079077807"
    },
    {
      "type": "Feature",
      "properties": {
        "@id": "node/1089367769",
        "name": "View of Skull Inlet",
        "tourism": "viewpoint"
      },
      "geometry": {
        "type": "Point",
        "coordinates": [
          -80.5012785,
          32.3076784
        ]
      },
      "id": "node/1089367769"
    },
    {
      "type": "Feature",
      "properties": {
        "@id": "node/1103223477",
        "name": "Pigeon Point Boat Landing",
        "tourism": "viewpoint"
      },
      "geometry": {
        "type": "Point",
        "coordinates": [
          -80.6702695,
          32.4523264
        ]
      },
      "id": "node/1103223477"
    },
    {
      "type": "Feature",
      "properties": {
        "@id": "node/1115899451",
        "tourism": "viewpoint"
      },
      "geometry": {
        "type": "Point",
        "coordinates": [
          -80.4604777,
          32.3315648
        ]
      },
      "id": "node/1115899451"
    },
    {
      "type": "Feature",
      "properties": {
        "@id": "node/1226186065",
        "direction": "350",
        "name": "Whitewater Falls Overlook",
        "tourism": "viewpoint"
      },
      "geometry": {
        "type": "Point",
        "coordinates": [
          -83.0165845,
          35.0332586
        ]
      },
      "id": "node/1226186065"
    },
    {
      "type": "Feature",
      "properties": {
        "@id": "node/1244674047",
        "tourism": "viewpoint"
      },
      "geometry": {
        "type": "Point",
        "coordinates": [
          -79.0444878,
          33.8278187
        ]
      },
      "id": "node/1244674047"
    },
    {
      "type": "Feature",
      "properties": {
        "@id": "node/1404734723",
        "tourism": "viewpoint"
      },
      "geometry": {
        "type": "Point",
        "coordinates": [
          -79.9766748,
          32.7960796
        ]
      },
      "id": "node/1404734723"
    },
    {
      "type": "Feature",
      "properties": {
        "@id": "node/1541376573",
        "name": "View on Raven Cliff Falls",
        "tourism": "viewpoint"
      },
      "geometry": {
        "type": "Point",
        "coordinates": [
          -82.6582366,
          35.1090969
        ]
      },
      "id": "node/1541376573"
    },
    {
      "type": "Feature",
      "properties": {
        "@id": "node/1670544659",
        "tourism": "viewpoint"
      },
      "geometry": {
        "type": "Point",
        "coordinates": [
          -80.3899049,
          33.0306314
        ]
      },
      "id": "node/1670544659"
    },
    {
      "type": "Feature",
      "properties": {
        "@id": "node/1685196506",
        "tourism": "viewpoint"
      },
      "geometry": {
        "type": "Point",
        "coordinates": [
          -80.6902823,
          32.3711534
        ]
      },
      "id": "node/1685196506"
    },
    {
      "type": "Feature",
      "properties": {
        "@id": "node/2023152423",
        "name": "Table rock view point",
        "tourism": "viewpoint"
      },
      "geometry": {
        "type": "Point",
        "coordinates": [
          -82.699459,
          35.0530349
        ]
      },
      "id": "node/2023152423"
    },
    {
      "type": "Feature",
      "properties": {
        "@id": "node/2023152427",
        "name": "view point",
        "tourism": "viewpoint"
      },
      "geometry": {
        "type": "Point",
        "coordinates": [
          -82.7011371,
          35.0507854
        ]
      },
      "id": "node/2023152427"
    },
    {
      "type": "Feature",
      "properties": {
        "@id": "node/2023152430",
        "name": "Halfway Shelter",
        "tourism": "viewpoint"
      },
      "geometry": {
        "type": "Point",
        "coordinates": [
          -82.7144507,
          35.0427646
        ]
      },
      "id": "node/2023152430"
    },
    {
      "type": "Feature",
      "properties": {
        "@id": "node/2023152433",
        "name": "Bald Knob viewpoint",
        "tourism": "viewpoint"
      },
      "geometry": {
        "type": "Point",
        "coordinates": [
          -82.734578,
          35.0288616
        ]
      },
      "id": "node/2023152433"
    },
    {
      "type": "Feature",
      "properties": {
        "@id": "node/2030934985",
        "direction": "S",
        "name": "Weston Lake Overlook",
        "tourism": "viewpoint"
      },
      "geometry": {
        "type": "Point",
        "coordinates": [
          -80.8178374,
          33.8216593
        ]
      },
      "id": "node/2030934985"
    },
    {
      "type": "Feature",
      "properties": {
        "@id": "node/2630694228",
        "tourism": "viewpoint"
      },
      "geometry": {
        "type": "Point",
        "coordinates": [
          -83.0253653,
          35.027443
        ]
      },
      "id": "node/2630694228"
    },
    {
      "type": "Feature",
      "properties": {
        "@id": "node/2630699407",
        "direction": "330",
        "name": "Whitewater Falls Viewing Platform",
        "tourism": "viewpoint"
      },
      "geometry": {
        "type": "Point",
        "coordinates": [
          -83.0161566,
          35.0337555
        ]
      },
      "id": "node/2630699407"
    },
    {
      "type": "Feature",
      "properties": {
        "@id": "node/2630720712",
        "name": "Lower Whitewater Falls Platform",
        "tourism": "viewpoint"
      },
      "geometry": {
        "type": "Point",
        "coordinates": [
          -82.9899752,
          35.0137998
        ]
      },
      "id": "node/2630720712"
    },
    {
      "type": "Feature",
      "properties": {
        "@id": "node/2717284984",
        "name": "Spoonauger Falls",
        "tourism": "viewpoint"
      },
      "geometry": {
        "type": "Point",
        "coordinates": [
          -83.1100162,
          34.9748003
        ]
      },
      "id": "node/2717284984"
    },
    {
      "type": "Feature",
      "properties": {
        "@id": "node/2737707094",
        "name": "Salt Rock Overlook",
        "tourism": "viewpoint"
      },
      "geometry": {
        "type": "Point",
        "coordinates": [
          -83.0359191,
          35.1662618
        ]
      },
      "id": "node/2737707094"
    },
    {
      "type": "Feature",
      "properties": {
        "@id": "node/2738692020",
        "direction": "W",
        "name": "Dry Falls Viewing Platform",
        "tourism": "viewpoint",
        "wheelchair": "yes"
      },
      "geometry": {
        "type": "Point",
        "coordinates": [
          -83.2383671,
          35.0688564
        ]
      },
      "id": "node/2738692020"
    },
    {
      "type": "Feature",
      "properties": {
        "@id": "node/2915315893",
        "tourism": "viewpoint"
      },
      "geometry": {
        "type": "Point",
        "coordinates": [
          -80.4631802,
          32.3512927
        ]
      },
      "id": "node/2915315893"
    },
    {
      "type": "Feature",
      "properties": {
        "@id": "node/2915316892",
        "tourism": "viewpoint"
      },
      "geometry": {
        "type": "Point",
        "coordinates": [
          -80.4616841,
          32.3397351
        ]
      },
      "id": "node/2915316892"
    },
    {
      "type": "Feature",
      "properties": {
        "@id": "node/3056141952",
        "name": "Drawbar Cliffs",
        "tourism": "viewpoint"
      },
      "geometry": {
        "type": "Point",
        "coordinates": [
          -82.7448512,
          35.0284171
        ]
      },
      "id": "node/3056141952"
    },
    {
      "type": "Feature",
      "properties": {
        "@id": "node/3056152309",
        "tourism": "viewpoint"
      },
      "geometry": {
        "type": "Point",
        "coordinates": [
          -82.7267026,
          35.0948785
        ]
      },
      "id": "node/3056152309"
    },
    {
      "type": "Feature",
      "properties": {
        "@id": "node/3151839738",
        "tourism": "viewpoint"
      },
      "geometry": {
        "type": "Point",
        "coordinates": [
          -81.3132678,
          35.2067203
        ]
      },
      "id": "node/3151839738"
    },
    {
      "type": "Feature",
      "properties": {
        "@id": "node/3216791809",
        "amenity": "shelter",
        "shelter_type": "viewing_platform",
        "tourism": "viewpoint"
      },
      "geometry": {
        "type": "Point",
        "coordinates": [
          -82.8188809,
          35.0132686
        ]
      },
      "id": "node/3216791809"
    },
    {
      "type": "Feature",
      "properties": {
        "@id": "node/3226665361",
        "tourism": "viewpoint"
      },
      "geometry": {
        "type": "Point",
        "coordinates": [
          -80.4792319,
          33.5210436
        ]
      },
      "id": "node/3226665361"
    },
    {
      "type": "Feature",
      "properties": {
        "@id": "node/3239813384",
        "tourism": "viewpoint"
      },
      "geometry": {
        "type": "Point",
        "coordinates": [
          -81.0490257,
          33.9961345
        ]
      },
      "id": "node/3239813384"
    },
    {
      "type": "Feature",
      "properties": {
        "@id": "node/3315494881",
        "tourism": "viewpoint"
      },
      "geometry": {
        "type": "Point",
        "coordinates": [
          -80.8503436,
          35.0600933
        ]
      },
      "id": "node/3315494881"
    },
    {
      "type": "Feature",
      "properties": {
        "@id": "node/3354601413",
        "name": "Governor's Rock Overlook",
        "tourism": "viewpoint"
      },
      "geometry": {
        "type": "Point",
        "coordinates": [
          -82.7105454,
          35.0473717
        ]
      },
      "id": "node/3354601413"
    },
    {
      "type": "Feature",
      "properties": {
        "@id": "node/3432019785",
        "name": "Harbison Bluff",
        "tourism": "viewpoint"
      },
      "geometry": {
        "type": "Point",
        "coordinates": [
          -81.1080478,
          34.0911433
        ]
      },
      "id": "node/3432019785"
    },
    {
      "type": "Feature",
      "properties": {
        "@id": "node/3451288639",
        "tourism": "viewpoint"
      },
      "geometry": {
        "type": "Point",
        "coordinates": [
          -82.1270765,
          32.548042
        ]
      },
      "id": "node/3451288639"
    },
    {
      "type": "Feature",
      "properties": {
        "@id": "node/3462538752",
        "tourism": "viewpoint"
      },
      "geometry": {
        "type": "Point",
        "coordinates": [
          -82.8091642,
          35.0627563
        ]
      },
      "id": "node/3462538752"
    },
    {
      "type": "Feature",
      "properties": {
        "@id": "node/3462538753",
        "tourism": "viewpoint"
      },
      "geometry": {
        "type": "Point",
        "coordinates": [
          -82.8093439,
          35.0624348
        ]
      },
      "id": "node/3462538753"
    },
    {
      "type": "Feature",
      "properties": {
        "@id": "node/3532005257",
        "name": "Utilities Substation (No Parking)",
        "note": "Scenic View of Bull Creek off the Ashley River. Accessible by foot or bike. Posted \"No Parking\" signs. Utility substation.",
        "tourism": "viewpoint"
      },
      "geometry": {
        "type": "Point",
        "coordinates": [
          -80.0308316,
          32.8296124
        ]
      },
      "id": "node/3532005257"
    },
    {
      "type": "Feature",
      "properties": {
        "@id": "node/3564753805",
        "tourism": "viewpoint"
      },
      "geometry": {
        "type": "Point",
        "coordinates": [
          -83.0706349,
          34.0249577
        ]
      },
      "id": "node/3564753805"
    },
    {
      "type": "Feature",
      "properties": {
        "@id": "node/3564793445",
        "bench": "yes",
        "check_date": "2024-09-19",
        "tourism": "viewpoint"
      },
      "geometry": {
        "type": "Point",
        "coordinates": [
          -83.0637421,
          34.0244172
        ]
      },
      "id": "node/3564793445"
    },
    {
      "type": "Feature",
      "properties": {
        "@id": "node/3835899792",
        "direction": "270",
        "name": "Jumping Off Rock",
        "natural": "rock",
        "tourism": "viewpoint"
      },
      "geometry": {
        "type": "Point",
        "coordinates": [
          -82.8955566,
          35.0112579
        ]
      },
      "id": "node/3835899792"
    },
    {
      "type": "Feature",
      "properties": {
        "@id": "node/3993793417",
        "tourism": "viewpoint"
      },
      "geometry": {
        "type": "Point",
        "coordinates": [
          -82.3981596,
          34.8408068
        ]
      },
      "id": "node/3993793417"
    },
    {
      "type": "Feature",
      "properties": {
        "@id": "node/3993793445",
        "tourism": "viewpoint"
      },
      "geometry": {
        "type": "Point",
        "coordinates": [
          -82.3988161,
          34.8413633
        ]
      },
      "id": "node/3993793445"
    },
    {
      "type": "Feature",
      "properties": {
        "@id": "node/3994086257",
        "tourism": "viewpoint"
      },
      "geometry": {
        "type": "Point",
        "coordinates": [
          -82.3992031,
          34.8407263
        ]
      },
      "id": "node/3994086257"
    },
    {
      "type": "Feature",
      "properties": {
        "@id": "node/4083164278",
        "tourism": "viewpoint"
      },
      "geometry": {
        "type": "Point",
        "coordinates": [
          -80.5823437,
          32.3891641
        ]
      },
      "id": "node/4083164278"
    },
    {
      "type": "Feature",
      "properties": {
        "@id": "node/4095982772",
        "direction": "285",
        "tourism": "viewpoint"
      },
      "geometry": {
        "type": "Point",
        "coordinates": [
          -79.9098995,
          32.8026409
        ]
      },
      "id": "node/4095982772"
    },
    {
      "type": "Feature",
      "properties": {
        "@id": "node/4519322931",
        "name": "Boulders Overlook",
        "tourism": "viewpoint"
      },
      "geometry": {
        "type": "Point",
        "coordinates": [
          -81.3612268,
          35.1753105
        ]
      },
      "id": "node/4519322931"
    },
    {
      "type": "Feature",
      "properties": {
        "@id": "node/4922565342",
        "tourism": "viewpoint"
      },
      "geometry": {
        "type": "Point",
        "coordinates": [
          -81.2916665,
          35.2099605
        ]
      },
      "id": "node/4922565342"
    },
    {
      "type": "Feature",
      "properties": {
        "@id": "node/5055047414",
        "direction": "270",
        "tourism": "viewpoint"
      },
      "geometry": {
        "type": "Point",
        "coordinates": [
          -82.9686528,
          35.0937483
        ]
      },
      "id": "node/5055047414"
    },
    {
      "type": "Feature",
      "properties": {
        "@id": "node/5215167064",
        "tourism": "viewpoint"
      },
      "geometry": {
        "type": "Point",
        "coordinates": [
          -82.8517636,
          35.0292535
        ]
      },
      "id": "node/5215167064"
    },
    {
      "type": "Feature",
      "properties": {
        "@id": "node/5215202001",
        "tourism": "viewpoint"
      },
      "geometry": {
        "type": "Point",
        "coordinates": [
          -82.8777527,
          35.0222491
        ]
      },
      "id": "node/5215202001"
    },
    {
      "type": "Feature",
      "properties": {
        "@id": "node/5215202002",
        "tourism": "viewpoint"
      },
      "geometry": {
        "type": "Point",
        "coordinates": [
          -82.8804554,
          35.0211499
        ]
      },
      "id": "node/5215202002"
    },
    {
      "type": "Feature",
      "properties": {
        "@id": "node/5218741340",
        "tourism": "viewpoint"
      },
      "geometry": {
        "type": "Point",
        "coordinates": [
          -82.9096842,
          34.9895754
        ]
      },
      "id": "node/5218741340"
    },
    {
      "type": "Feature",
      "properties": {
        "@id": "node/5237289899",
        "name": "Wigington Overlook",
        "tourism": "viewpoint"
      },
      "geometry": {
        "type": "Point",
        "coordinates": [
          -83.0436451,
          35.0008473
        ]
      },
      "id": "node/5237289899"
    },
    {
      "type": "Feature",
      "properties": {
        "@id": "node/5249456064",
        "name": "Overlook",
        "tourism": "viewpoint"
      },
      "geometry": {
        "type": "Point",
        "coordinates": [
          -83.0208959,
          35.1708923
        ]
      },
      "id": "node/5249456064"
    },
    {
      "type": "Feature",
      "properties": {
        "@id": "node/5249456065",
        "name": "Purdy Point",
        "tourism": "viewpoint"
      },
      "geometry": {
        "type": "Point",
        "coordinates": [
          -83.024482,
          35.1710984
        ]
      },
      "id": "node/5249456065"
    },
    {
      "type": "Feature",
      "properties": {
        "@id": "node/5249456066",
        "name": "Tranquility Point",
        "tourism": "viewpoint"
      },
      "geometry": {
        "type": "Point",
        "coordinates": [
          -83.0144076,
          35.164424
        ]
      },
      "id": "node/5249456066"
    },
    {
      "type": "Feature",
      "properties": {
        "@id": "node/5249456331",
        "description": "Near the Endless Sky Above Us\nUp in Canaan Land\nLies the Beauty of High Bethel\nMade by God's Own Hand\n\nHere We Watch the Sunset\nHis Love We Understand\nIn the Majesty of Mountains\nHere We Join God's Hand\n\nBegun 1956.  Completed 1974.",
        "direction": "180-360",
        "name": "High Bethel",
        "tourism": "viewpoint"
      },
      "geometry": {
        "type": "Point",
        "coordinates": [
          -82.9892543,
          35.1656879
        ]
      },
      "id": "node/5249456331"
    },
    {
      "type": "Feature",
      "properties": {
        "@id": "node/5274410691",
        "direction": "n",
        "tourism": "viewpoint"
      },
      "geometry": {
        "type": "Point",
        "coordinates": [
          -83.2387996,
          35.0307048
        ]
      },
      "id": "node/5274410691"
    },
    {
      "type": "Feature",
      "properties": {
        "@id": "node/5274411835",
        "direction": "n",
        "tourism": "viewpoint"
      },
      "geometry": {
        "type": "Point",
        "coordinates": [
          -83.2384534,
          35.0314107
        ]
      },
      "id": "node/5274411835"
    },
    {
      "type": "Feature",
      "properties": {
        "@id": "node/5274411864",
        "direction": "S",
        "name": "Glen Falls Overlook",
        "tourism": "viewpoint"
      },
      "geometry": {
        "type": "Point",
        "coordinates": [
          -83.2381457,
          35.0316924
        ]
      },
      "id": "node/5274411864"
    },
    {
      "type": "Feature",
      "properties": {
        "@id": "node/5523826917",
        "tourism": "viewpoint"
      },
      "geometry": {
        "type": "Point",
        "coordinates": [
          -83.1217518,
          34.8065343
        ]
      },
      "id": "node/5523826917"
    },
    {
      "type": "Feature",
      "properties": {
        "@id": "node/5625861223",
        "tourism": "viewpoint"
      },
      "geometry": {
        "type": "Point",
        "coordinates": [
          -82.2286513,
          33.4564688
        ]
      },
      "id": "node/5625861223"
    },
    {
      "type": "Feature",
      "properties": {
        "@id": "node/5627823735",
        "tourism": "viewpoint"
      },
      "geometry": {
        "type": "Point",
        "coordinates": [
          -82.2286621,
          33.4573219
        ]
      },
      "id": "node/5627823735"
    },
    {
      "type": "Feature",
      "properties": {
        "@id": "node/6089140756",
        "tourism": "viewpoint"
      },
      "geometry": {
        "type": "Point",
        "coordinates": [
          -79.692052,
          34.8840949
        ]
      },
      "id": "node/6089140756"
    },
    {
      "type": "Feature",
      "properties": {
        "@id": "node/6245894649",
        "tourism": "viewpoint"
      },
      "geometry": {
        "type": "Point",
        "coordinates": [
          -82.8205355,
          35.0316143
        ]
      },
      "id": "node/6245894649"
    },
    {
      "type": "Feature",
      "properties": {
        "@id": "node/6419803577",
        "name": "Raven Rock",
        "tourism": "viewpoint"
      },
      "geometry": {
        "type": "Point",
        "coordinates": [
          -82.8863667,
          34.9397444
        ]
      },
      "id": "node/6419803577"
    },
    {
      "type": "Feature",
      "properties": {
        "@id": "node/6530599378",
        "direction": "E",
        "name": "Griffin's Whirl",
        "tourism": "viewpoint"
      },
      "geometry": {
        "type": "Point",
        "coordinates": [
          -78.9987662,
          34.3911487
        ]
      },
      "id": "node/6530599378"
    },
    {
      "type": "Feature",
      "properties": {
        "@id": "node/6566800254",
        "tourism": "viewpoint"
      },
      "geometry": {
        "type": "Point",
        "coordinates": [
          -79.8503424,
          33.0436836
        ]
      },
      "id": "node/6566800254"
    },
    {
      "type": "Feature",
      "properties": {
        "@id": "node/6594643823",
        "tourism": "viewpoint"
      },
      "geometry": {
        "type": "Point",
        "coordinates": [
          -79.8996271,
          32.7865591
        ]
      },
      "id": "node/6594643823"
    },
    {
      "type": "Feature",
      "properties": {
        "@id": "node/6594685534",
        "tourism": "viewpoint"
      },
      "geometry": {
        "type": "Point",
        "coordinates": [
          -79.7983336,
          32.8223675
        ]
      },
      "id": "node/6594685534"
    },
    {
      "type": "Feature",
      "properties": {
        "@id": "node/6614751343",
        "name": "Rock Mountain View",
        "tourism": "viewpoint"
      },
      "geometry": {
        "type": "Point",
        "coordinates": [
          -82.7824533,
          35.0363497
        ]
      },
      "id": "node/6614751343"
    },
    {
      "type": "Feature",
      "properties": {
        "@id": "node/6614819346",
        "tourism": "viewpoint"
      },
      "geometry": {
        "type": "Point",
        "coordinates": [
          -82.7912021,
          35.0378661
        ]
      },
      "id": "node/6614819346"
    },
    {
      "type": "Feature",
      "properties": {
        "@id": "node/6646799187",
        "tourism": "viewpoint"
      },
      "geometry": {
        "type": "Point",
        "coordinates": [
          -82.7897697,
          35.0397161
        ]
      },
      "id": "node/6646799187"
    },
    {
      "type": "Feature",
      "properties": {
        "@id": "node/6737538815",
        "direction": "225",
        "tourism": "viewpoint"
      },
      "geometry": {
        "type": "Point",
        "coordinates": [
          -79.8810418,
          32.7928092
        ]
      },
      "id": "node/6737538815"
    },
    {
      "type": "Feature",
      "properties": {
        "@id": "node/6804568644",
        "direction": "SE",
        "name": "Gorges Overlook",
        "tourism": "viewpoint"
      },
      "geometry": {
        "type": "Point",
        "coordinates": [
          -82.946721,
          35.0968138
        ]
      },
      "id": "node/6804568644"
    },
    {
      "type": "Feature",
      "properties": {
        "@id": "node/6804569272",
        "direction": "NE",
        "tourism": "viewpoint"
      },
      "geometry": {
        "type": "Point",
        "coordinates": [
          -82.9429341,
          35.1013188
        ]
      },
      "id": "node/6804569272"
    },
    {
      "type": "Feature",
      "properties": {
        "@id": "node/6837907602",
        "tourism": "viewpoint"
      },
      "geometry": {
        "type": "Point",
        "coordinates": [
          -78.5981789,
          34.6904274
        ]
      },
      "id": "node/6837907602"
    },
    {
      "type": "Feature",
      "properties": {
        "@id": "node/6837907641",
        "direction": "S",
        "tourism": "viewpoint"
      },
      "geometry": {
        "type": "Point",
        "coordinates": [
          -78.600082,
          34.69227
        ]
      },
      "id": "node/6837907641"
    },
    {
      "type": "Feature",
      "properties": {
        "@id": "node/6837908403",
        "direction": "N",
        "tourism": "viewpoint"
      },
      "geometry": {
        "type": "Point",
        "coordinates": [
          -78.6266117,
          34.6987315
        ]
      },
      "id": "node/6837908403"
    },
    {
      "type": "Feature",
      "properties": {
        "@id": "node/6865031270",
        "tourism": "viewpoint"
      },
      "geometry": {
        "type": "Point",
        "coordinates": [
          -82.6612961,
          34.9017647
        ]
      },
      "id": "node/6865031270"
    },
    {
      "type": "Feature",
      "properties": {
        "@id": "node/6865046616",
        "tourism": "viewpoint"
      },
      "geometry": {
        "type": "Point",
        "coordinates": [
          -82.6610141,
          34.9008057
        ]
      },
      "id": "node/6865046616"
    },
    {
      "type": "Feature",
      "properties": {
        "@id": "node/6879610883",
        "tourism": "viewpoint"
      },
      "geometry": {
        "type": "Point",
        "coordinates": [
          -82.659469,
          34.9003912
        ]
      },
      "id": "node/6879610883"
    },
    {
      "type": "Feature",
      "properties": {
        "@id": "node/6879645139",
        "tourism": "viewpoint"
      },
      "geometry": {
        "type": "Point",
        "coordinates": [
          -82.6587661,
          34.9014096
        ]
      },
      "id": "node/6879645139"
    },
    {
      "type": "Feature",
      "properties": {
        "@id": "node/6879645160",
        "tourism": "viewpoint"
      },
      "geometry": {
        "type": "Point",
        "coordinates": [
          -82.658517,
          34.9003499
        ]
      },
      "id": "node/6879645160"
    },
    {
      "type": "Feature",
      "properties": {
        "@id": "node/6907517632",
        "tourism": "viewpoint"
      },
      "geometry": {
        "type": "Point",
        "coordinates": [
          -82.8092902,
          35.06224
        ]
      },
      "id": "node/6907517632"
    },
    {
      "type": "Feature",
      "properties": {
        "@id": "node/6985151784",
        "name": "High Rock Overlook",
        "tourism": "viewpoint"
      },
      "geometry": {
        "type": "Point",
        "coordinates": [
          -82.5721125,
          35.0988354
        ]
      },
      "id": "node/6985151784"
    },
    {
      "type": "Feature",
      "properties": {
        "@id": "node/7018312363",
        "tourism": "viewpoint"
      },
      "geometry": {
        "type": "Point",
        "coordinates": [
          -83.0807636,
          34.9617337
        ]
      },
      "id": "node/7018312363"
    },
    {
      "type": "Feature",
      "properties": {
        "@id": "node/7237201296",
        "direction": "310",
        "tourism": "viewpoint"
      },
      "geometry": {
        "type": "Point",
        "coordinates": [
          -80.8584422,
          35.1466854
        ]
      },
      "id": "node/7237201296"
    },
    {
      "type": "Feature",
      "properties": {
        "@id": "node/7312618178",
        "tourism": "viewpoint"
      },
      "geometry": {
        "type": "Point",
        "coordinates": [
          -83.1499194,
          34.6800975
        ]
      },
      "id": "node/7312618178"
    },
    {
      "type": "Feature",
      "properties": {
        "@id": "node/7312630885",
        "tourism": "viewpoint"
      },
      "geometry": {
        "type": "Point",
        "coordinates": [
          -83.1484848,
          34.680961
        ]
      },
      "id": "node/7312630885"
    },
    {
      "type": "Feature",
      "properties": {
        "@id": "node/7372171356",
        "name": "High Falls Overlook",
        "tourism": "viewpoint"
      },
      "geometry": {
        "type": "Point",
        "coordinates": [
          -82.6149186,
          35.1937393
        ]
      },
      "id": "node/7372171356"
    },
    {
      "type": "Feature",
      "properties": {
        "@id": "node/7375970204",
        "tourism": "viewpoint"
      },
      "geometry": {
        "type": "Point",
        "coordinates": [
          -82.8099536,
          34.95757
        ]
      },
      "id": "node/7375970204"
    },
    {
      "type": "Feature",
      "properties": {
        "@id": "node/7426234120",
        "tourism": "viewpoint"
      },
      "geometry": {
        "type": "Point",
        "coordinates": [
          -82.7759783,
          34.9679514
        ]
      },
      "id": "node/7426234120"
    },
    {
      "type": "Feature",
      "properties": {
        "@id": "node/7926529676",
        "tourism": "viewpoint"
      },
      "geometry": {
        "type": "Point",
        "coordinates": [
          -82.7439284,
          35.0251066
        ]
      },
      "id": "node/7926529676"
    },
    {
      "type": "Feature",
      "properties": {
        "@id": "node/7929707437",
        "tourism": "viewpoint"
      },
      "geometry": {
        "type": "Point",
        "coordinates": [
          -82.7452809,
          35.0209887
        ]
      },
      "id": "node/7929707437"
    },
    {
      "type": "Feature",
      "properties": {
        "@id": "node/7955110631",
        "tourism": "viewpoint"
      },
      "geometry": {
        "type": "Point",
        "coordinates": [
          -82.7132544,
          35.0940852
        ]
      },
      "id": "node/7955110631"
    },
    {
      "type": "Feature",
      "properties": {
        "@id": "node/8199295569",
        "tourism": "viewpoint"
      },
      "geometry": {
        "type": "Point",
        "coordinates": [
          -82.3572452,
          34.7777797
        ]
      },
      "id": "node/8199295569"
    },
    {
      "type": "Feature",
      "properties": {
        "@id": "node/8309658028",
        "name": "Chandler Rock Overlook",
        "tourism": "viewpoint"
      },
      "geometry": {
        "type": "Point",
        "coordinates": [
          -82.6058057,
          35.0829333
        ]
      },
      "id": "node/8309658028"
    },
    {
      "type": "Feature",
      "properties": {
        "@id": "node/8359019108",
        "tourism": "viewpoint"
      },
      "geometry": {
        "type": "Point",
        "coordinates": [
          -82.6355299,
          35.1789986
        ]
      },
      "id": "node/8359019108"
    },
    {
      "type": "Feature",
      "properties": {
        "@id": "node/8549862630",
        "name": "Observation Deck",
        "tourism": "viewpoint"
      },
      "geometry": {
        "type": "Point",
        "coordinates": [
          -80.2499731,
          34.6052777
        ]
      },
      "id": "node/8549862630"
    },
    {
      "type": "Feature",
      "properties": {
        "@id": "node/8608678574",
        "tourism": "viewpoint"
      },
      "geometry": {
        "type": "Point",
        "coordinates": [
          -80.7957869,
          35.0494233
        ]
      },
      "id": "node/8608678574"
    },
    {
      "type": "Feature",
      "properties": {
        "@id": "node/8746041202",
        "direction": "10",
        "tourism": "viewpoint"
      },
      "geometry": {
        "type": "Point",
        "coordinates": [
          -83.2394026,
          35.0296386
        ]
      },
      "id": "node/8746041202"
    },
    {
      "type": "Feature",
      "properties": {
        "@id": "node/8751724505",
        "tourism": "viewpoint"
      },
      "geometry": {
        "type": "Point",
        "coordinates": [
          -83.0722653,
          34.9858926
        ]
      },
      "id": "node/8751724505"
    },
    {
      "type": "Feature",
      "properties": {
        "@id": "node/8878646291",
        "name": "Wetland Overlook",
        "tourism": "viewpoint"
      },
      "geometry": {
        "type": "Point",
        "coordinates": [
          -80.8826955,
          35.0870688
        ]
      },
      "id": "node/8878646291"
    },
    {
      "type": "Feature",
      "properties": {
        "@id": "node/8902361217",
        "tourism": "viewpoint"
      },
      "geometry": {
        "type": "Point",
        "coordinates": [
          -80.999747,
          35.0163714
        ]
      },
      "id": "node/8902361217"
    },
    {
      "type": "Feature",
      "properties": {
        "@id": "node/8990685181",
        "tourism": "viewpoint"
      },
      "geometry": {
        "type": "Point",
        "coordinates": [
          -82.6970691,
          35.0266299
        ]
      },
      "id": "node/8990685181"
    },
    {
      "type": "Feature",
      "properties": {
        "@id": "node/9007286354",
        "direction": "310",
        "name": "Grant Meadow Overlook",
        "tourism": "viewpoint"
      },
      "geometry": {
        "type": "Point",
        "coordinates": [
          -82.6844241,
          35.0342961
        ]
      },
      "id": "node/9007286354"
    },
    {
      "type": "Feature",
      "properties": {
        "@id": "node/9201194617",
        "tourism": "viewpoint"
      },
      "geometry": {
        "type": "Point",
        "coordinates": [
          -80.7926762,
          32.3690475
        ]
      },
      "id": "node/9201194617"
    },
    {
      "type": "Feature",
      "properties": {
        "@id": "node/9311510930",
        "tourism": "viewpoint"
      },
      "geometry": {
        "type": "Point",
        "coordinates": [
          -83.074254,
          34.8720813
        ]
      },
      "id": "node/9311510930"
    },
    {
      "type": "Feature",
      "properties": {
        "@id": "node/9418343600",
        "direction": "230",
        "tourism": "viewpoint"
      },
      "geometry": {
        "type": "Point",
        "coordinates": [
          -79.7447099,
          33.8746399
        ]
      },
      "id": "node/9418343600"
    },
    {
      "type": "Feature",
      "properties": {
        "@id": "node/9418350282",
        "direction": "235",
        "tourism": "viewpoint"
      },
      "geometry": {
        "type": "Point",
        "coordinates": [
          -79.7459039,
          33.8758999
        ]
      },
      "id": "node/9418350282"
    },
    {
      "type": "Feature",
      "properties": {
        "@id": "node/9422993627",
        "tourism": "viewpoint"
      },
      "geometry": {
        "type": "Point",
        "coordinates": [
          -80.5744158,
          32.6553391
        ]
      },
      "id": "node/9422993627"
    },
    {
      "type": "Feature",
      "properties": {
        "@id": "node/10178811590",
        "tourism": "viewpoint"
      },
      "geometry": {
        "type": "Point",
        "coordinates": [
          -80.3453618,
          32.6791407
        ]
      },
      "id": "node/10178811590"
    },
    {
      "type": "Feature",
      "properties": {
        "@id": "node/10287855630",
        "tourism": "viewpoint"
      },
      "geometry": {
        "type": "Point",
        "coordinates": [
          -80.7797541,
          34.7288801
        ]
      },
      "id": "node/10287855630"
    },
    {
      "type": "Feature",
      "properties": {
        "@id": "node/10650496073",
        "tourism": "viewpoint"
      },
      "geometry": {
        "type": "Point",
        "coordinates": [
          -82.6996333,
          35.0526584
        ]
      },
      "id": "node/10650496073"
    },
    {
      "type": "Feature",
      "properties": {
        "@id": "node/10713428618",
        "direction": "275",
        "tourism": "viewpoint"
      },
      "geometry": {
        "type": "Point",
        "coordinates": [
          -80.8666849,
          35.1228191
        ]
      },
      "id": "node/10713428618"
    },
    {
      "type": "Feature",
      "properties": {
        "@id": "node/10713428619",
        "direction": "280",
        "tourism": "viewpoint"
      },
      "geometry": {
        "type": "Point",
        "coordinates": [
          -80.8755253,
          35.1032214
        ]
      },
      "id": "node/10713428619"
    },
    {
      "type": "Feature",
      "properties": {
        "@id": "node/10713428620",
        "direction": "140",
        "tourism": "viewpoint"
      },
      "geometry": {
        "type": "Point",
        "coordinates": [
          -80.8809287,
          35.0902364
        ]
      },
      "id": "node/10713428620"
    },
    {
      "type": "Feature",
      "properties": {
        "@id": "node/10713428621",
        "direction": "290",
        "tourism": "viewpoint"
      },
      "geometry": {
        "type": "Point",
        "coordinates": [
          -80.8820888,
          35.0881564
        ]
      },
      "id": "node/10713428621"
    },
    {
      "type": "Feature",
      "properties": {
        "@id": "node/10713428622",
        "direction": "15",
        "tourism": "viewpoint"
      },
      "geometry": {
        "type": "Point",
        "coordinates": [
          -80.8832531,
          35.0789298
        ]
      },
      "id": "node/10713428622"
    },
    {
      "type": "Feature",
      "properties": {
        "@id": "node/10717568882",
        "direction": "0",
        "tourism": "viewpoint"
      },
      "geometry": {
        "type": "Point",
        "coordinates": [
          -80.8966077,
          35.0718153
        ]
      },
      "id": "node/10717568882"
    },
    {
      "type": "Feature",
      "properties": {
        "@id": "node/11079685497",
        "tourism": "viewpoint"
      },
      "geometry": {
        "type": "Point",
        "coordinates": [
          -83.1548262,
          35.0310446
        ]
      },
      "id": "node/11079685497"
    },
    {
      "type": "Feature",
      "properties": {
        "@id": "node/11328157793",
        "direction": "170",
        "tourism": "viewpoint"
      },
      "geometry": {
        "type": "Point",
        "coordinates": [
          -82.7145644,
          35.0426975
        ]
      },
      "id": "node/11328157793"
    },
    {
      "type": "Feature",
      "properties": {
        "@id": "node/11507277519",
        "tourism": "viewpoint"
      },
      "geometry": {
        "type": "Point",
        "coordinates": [
          -82.6924951,
          35.0520538
        ]
      },
      "id": "node/11507277519"
    },
    {
      "type": "Feature",
      "properties": {
        "@id": "node/11693148391",
        "direction": "358",
        "tourism": "viewpoint"
      },
      "geometry": {
        "type": "Point",
        "coordinates": [
          -80.8930729,
          35.0722249
        ]
      },
      "id": "node/11693148391"
    },
    {
      "type": "Feature",
      "properties": {
        "@id": "node/11693148392",
        "direction": "145",
        "tourism": "viewpoint"
      },
      "geometry": {
        "type": "Point",
        "coordinates": [
          -80.8916871,
          35.0695413
        ]
      },
      "id": "node/11693148392"
    },
    {
      "type": "Feature",
      "properties": {
        "@id": "node/11773536326",
        "name": "Rainbow Falls",
        "tourism": "viewpoint"
      },
      "geometry": {
        "type": "Point",
        "coordinates": [
          -82.9649857,
          35.0903675
        ]
      },
      "id": "node/11773536326"
    },
    {
      "type": "Feature",
      "properties": {
        "@id": "node/12106544948",
        "direction": "281",
        "tourism": "viewpoint"
      },
      "geometry": {
        "type": "Point",
        "coordinates": [
          -80.8361945,
          35.2075297
        ]
      },
      "id": "node/12106544948"
    },
    {
      "type": "Feature",
      "properties": {
        "@id": "node/12106544968",
        "direction": "257",
        "tourism": "viewpoint"
      },
      "geometry": {
        "type": "Point",
        "coordinates": [
          -80.8361471,
          35.2086448
        ]
      },
      "id": "node/12106544968"
    },
    {
      "type": "Feature",
      "properties": {
        "@id": "node/12117683109",
        "direction": "180",
        "tourism": "viewpoint"
      },
      "geometry": {
        "type": "Point",
        "coordinates": [
          -82.9917926,
          35.1743706
        ]
      },
      "id": "node/12117683109"
    },
    {
      "type": "Feature",
      "properties": {
        "@id": "node/12303059021",
        "direction": "150",
        "tourism": "viewpoint"
      },
      "geometry": {
        "type": "Point",
        "coordinates": [
          -82.5841232,
          35.0901532
        ]
      },
      "id": "node/12303059021"
    },
    {
      "type": "Feature",
      "properties": {
        "@id": "node/12394314070",
        "direction": "255",
        "tourism": "viewpoint"
      },
      "geometry": {
        "type": "Point",
        "coordinates": [
          -79.7457534,
          33.8753361
        ]
      },
      "id": "node/12394314070"
    },
    {
      "type": "Feature",
      "properties": {
        "@id": "node/12472956330",
        "tourism": "viewpoint"
      },
      "geometry": {
        "type": "Point",
        "coordinates": [
          -80.4375972,
          33.5389666
        ]
      },
      "id": "node/12472956330"
    },
    {
      "type": "Feature",
      "properties": {
        "@id": "node/12747899014",
        "direction": "345",
        "tourism": "viewpoint"
      },
      "geometry": {
        "type": "Point",
        "coordinates": [
          -82.6128541,
          35.1752933
        ]
      },
      "id": "node/12747899014"
    },
    {
      "type": "Feature",
      "properties": {
        "@id": "node/12999318754",
        "direction": "180",
        "tourism": "viewpoint"
      },
      "geometry": {
        "type": "Point",
        "coordinates": [
          -82.6278406,
          35.1055453
        ]
      },
      "id": "node/12999318754"
    },
    {
      "type": "Feature",
      "properties": {
        "@id": "node/12999318755",
        "direction": "200",
        "tourism": "viewpoint"
      },
      "geometry": {
        "type": "Point",
        "coordinates": [
          -82.6280207,
          35.1054744
        ]
      },
      "id": "node/12999318755"
    },
    {
      "type": "Feature",
      "properties": {
        "@id": "node/13089301514",
        "tourism": "viewpoint"
      },
      "geometry": {
        "type": "Point",
        "coordinates": [
          -81.8875743,
          34.9501096
        ]
      },
      "id": "node/13089301514"
    },
    {
      "type": "Feature",
      "properties": {
        "@id": "node/13277833333",
        "tourism": "viewpoint"
      },
      "geometry": {
        "type": "Point",
        "coordinates": [
          -79.9680379,
          32.8726948
        ]
      },
      "id": "node/13277833333"
    },
    {
      "type": "Feature",
      "properties": {
        "@id": "node/13716241083",
        "direction": "210",
        "tourism": "viewpoint"
      },
      "geometry": {
        "type": "Point",
        "coordinates": [
          -79.8864335,
          32.7897059
        ]
      },
      "id": "node/13716241083"
    },
    {
      "type": "Feature",
      "properties": {
        "@id": "node/13772777396",
        "direction": "225",
        "tourism": "viewpoint"
      },
      "geometry": {
        "type": "Point",
        "coordinates": [
          -83.1307876,
          34.9298111
        ]
      },
      "id": "node/13772777396"
    }
  ]
}