{
  "type": "FeatureCollection",
  "generator": "overpass-turbo",
  "copyright": "The data included in this document is from www.openstreetmap.org. The data is made available under ODbL.",
  "timestamp": "2026-06-27T23:46:44Z",
  "features": [
    {
      "type": "Feature",
      "properties": {
        "@id": "way/5068379",
        "alt_name": "Brunots Island",
        "gnis:feature_id": "1200064",
        "name": "Brunot Island",
        "place": "island",
        "wikidata": "Q4979458",
        "@geometry": "center"
      },
      "geometry": {
        "type": "Point",
        "coordinates": [
          -80.0435882,
          40.4632402
        ]
      },
      "id": "way/5068379"
    },
    {
      "type": "Feature",
      "properties": {
        "@id": "relation/9935096",
        "ele": "198",
        "gnis:feature_id": "1548998",
        "name": "Wheeling Island",
        "place": "island",
        "type": "multipolygon",
        "wikidata": "Q7992302",
        "wikipedia": "en:Wheeling Island",
        "@geometry": "center"
      },
      "geometry": {
        "type": "Point",
        "coordinates": [
          -80.7330332,
          40.0717236
        ]
      },
      "id": "relation/9935096"
    },
    {
      "type": "Feature",
      "properties": {
        "@id": "relation/16686239",
        "ele": "90",
        "gnis:feature_id": "1748954",
        "name": "Jerdone Island",
        "place": "island",
        "type": "multipolygon",
        "wikidata": "Q49644471",
        "@geometry": "center"
      },
      "geometry": {
        "type": "Point",
        "coordinates": [
          -77.7461194,
          38.0063943
        ]
      },
      "id": "relation/16686239"
    },
    {
      "type": "Feature",
      "properties": {
        "@id": "relation/17782242",
        "gnis:feature_id": "1193009",
        "name": "Neville Island",
        "place": "island",
        "type": "multipolygon",
        "wikidata": "Q20991070",
        "@geometry": "center"
      },
      "geometry": {
        "type": "Point",
        "coordinates": [
          -80.114347,
          40.5062625
        ]
      },
      "id": "relation/17782242"
    },
    {
      "type": "Feature",
      "properties": {
        "@id": "relation/19680050",
        "landuse": "meadow",
        "place": "island",
        "type": "multipolygon",
        "way": "inner",
        "@geometry": "center"
      },
      "geometry": {
        "type": "Point",
        "coordinates": [
          -82.4166182,
          39.9788166
        ]
      },
      "id": "relation/19680050"
    },
    {
      "type": "Feature",
      "properties": {
        "@id": "way/28353150",
        "place": "island",
        "@geometry": "center"
      },
      "geometry": {
        "type": "Point",
        "coordinates": [
          -77.7925986,
          39.2606202
        ]
      },
      "id": "way/28353150"
    },
    {
      "type": "Feature",
      "properties": {
        "@id": "way/28412613",
        "gnis:feature_id": "1536098",
        "name": "Blennerhassett Island",
        "place": "island",
        "wikidata": "Q4926073",
        "@geometry": "center"
      },
      "geometry": {
        "type": "Point",
        "coordinates": [
          -81.6274363,
          39.2721095
        ]
      },
      "id": "way/28412613"
    },
    {
      "type": "Feature",
      "properties": {
        "@id": "way/28434404",
        "ele": "187",
        "gnis:feature_id": "1552066",
        "name": "Middle Island",
        "place": "island",
        "wikidata": "Q6841471",
        "wikipedia": "en:Middle Island (West Virginia)",
        "@geometry": "center"
      },
      "geometry": {
        "type": "Point",
        "coordinates": [
          -81.1999907,
          39.4032253
        ]
      },
      "id": "way/28434404"
    },
    {
      "type": "Feature",
      "properties": {
        "@id": "way/31276507",
        "ele": "185",
        "gnis:feature_id": "1550537",
        "name": "Buckley Island",
        "old_name": "Kerrs Island;Meigs Island",
        "place": "island",
        "wikidata": "Q4983358",
        "wikipedia": "en:Buckley Island",
        "@geometry": "center"
      },
      "geometry": {
        "type": "Point",
        "coordinates": [
          -81.4275066,
          39.39711
        ]
      },
      "id": "way/31276507"
    },
    {
      "type": "Feature",
      "properties": {
        "@id": "way/31409660",
        "ele": "177",
        "gnis:feature_id": "1083973",
        "name": "Buffington Island",
        "place": "island",
        "source": "Yahoo",
        "wikidata": "Q4985973",
        "wikipedia": "en:Buffington Island",
        "@geometry": "center"
      },
      "geometry": {
        "type": "Point",
        "coordinates": [
          -81.7720104,
          38.9892407
        ]
      },
      "id": "way/31409660"
    },
    {
      "type": "Feature",
      "properties": {
        "@id": "way/31537033",
        "ele": "190",
        "gnis:feature_id": "1553465",
        "name": "Williamson Island",
        "place": "island",
        "wikidata": "Q8021224",
        "wikipedia": "en:Williamson Island",
        "@geometry": "center"
      },
      "geometry": {
        "type": "Point",
        "coordinates": [
          -80.9590948,
          39.5927668
        ]
      },
      "id": "way/31537033"
    },
    {
      "type": "Feature",
      "properties": {
        "@id": "way/31539354",
        "ele": "191",
        "gnis:feature_id": "1552412",
        "name": "Paden Island",
        "place": "island",
        "wikidata": "Q3888722",
        "wikipedia": "en:Paden Island",
        "@geometry": "center"
      },
      "geometry": {
        "type": "Point",
        "coordinates": [
          -80.9265573,
          39.6127155
        ]
      },
      "id": "way/31539354"
    },
    {
      "type": "Feature",
      "properties": {
        "@id": "way/31782697",
        "gnis:feature_id": "1536437",
        "name": "Browns Island",
        "place": "island",
        "wikidata": "Q4976660",
        "@geometry": "center"
      },
      "geometry": {
        "type": "Point",
        "coordinates": [
          -80.6097431,
          40.4226704
        ]
      },
      "id": "way/31782697"
    },
    {
      "type": "Feature",
      "properties": {
        "@id": "way/136300987",
        "ele": "57",
        "gnis:feature_id": "1466220",
        "name": "Elk Island",
        "place": "island",
        "@geometry": "center"
      },
      "geometry": {
        "type": "Point",
        "coordinates": [
          -78.1124924,
          37.7141101
        ]
      },
      "id": "way/136300987"
    },
    {
      "type": "Feature",
      "properties": {
        "@id": "way/196171486",
        "ele": "131",
        "gnis:feature_id": "1464156",
        "name": "Burwell Island",
        "place": "island",
        "wikidata": "Q49634178",
        "@geometry": "center"
      },
      "geometry": {
        "type": "Point",
        "coordinates": [
          -77.9866105,
          39.0565828
        ]
      },
      "id": "way/196171486"
    },
    {
      "type": "Feature",
      "properties": {
        "@id": "way/310862356",
        "forestry": "yes",
        "name": "Peanut Butter Island",
        "place": "island",
        "@geometry": "center"
      },
      "geometry": {
        "type": "Point",
        "coordinates": [
          -79.5468944,
          39.764349
        ]
      },
      "id": "way/310862356"
    },
    {
      "type": "Feature",
      "properties": {
        "@id": "way/314939895",
        "place": "island",
        "@geometry": "center"
      },
      "geometry": {
        "type": "Point",
        "coordinates": [
          -80.0904272,
          40.2567807
        ]
      },
      "id": "way/314939895"
    },
    {
      "type": "Feature",
      "properties": {
        "@id": "way/314940697",
        "place": "island",
        "@geometry": "center"
      },
      "geometry": {
        "type": "Point",
        "coordinates": [
          -80.1391761,
          40.2809192
        ]
      },
      "id": "way/314940697"
    },
    {
      "type": "Feature",
      "properties": {
        "@id": "way/322472532",
        "gnis:feature_id": "1079781",
        "name": "McConnells Island",
        "place": "island",
        "@geometry": "center"
      },
      "geometry": {
        "type": "Point",
        "coordinates": [
          -81.8484002,
          39.643856
        ]
      },
      "id": "way/322472532"
    },
    {
      "type": "Feature",
      "properties": {
        "@id": "way/408300028",
        "natural": "grassland",
        "place": "island",
        "@geometry": "center"
      },
      "geometry": {
        "type": "Point",
        "coordinates": [
          -79.0743693,
          39.1167656
        ]
      },
      "id": "way/408300028"
    },
    {
      "type": "Feature",
      "properties": {
        "@id": "way/408902431",
        "place": "island",
        "@geometry": "center"
      },
      "geometry": {
        "type": "Point",
        "coordinates": [
          -78.9705743,
          39.4254546
        ]
      },
      "id": "way/408902431"
    },
    {
      "type": "Feature",
      "properties": {
        "@id": "way/429222889",
        "place": "island",
        "@geometry": "center"
      },
      "geometry": {
        "type": "Point",
        "coordinates": [
          -79.23314,
          40.00335
        ]
      },
      "id": "way/429222889"
    },
    {
      "type": "Feature",
      "properties": {
        "@id": "way/445885370",
        "place": "island",
        "@geometry": "center"
      },
      "geometry": {
        "type": "Point",
        "coordinates": [
          -78.03788,
          39.460242
        ]
      },
      "id": "way/445885370"
    },
    {
      "type": "Feature",
      "properties": {
        "@id": "way/475034734",
        "place": "island",
        "@geometry": "center"
      },
      "geometry": {
        "type": "Point",
        "coordinates": [
          -81.2555526,
          40.5014393
        ]
      },
      "id": "way/475034734"
    },
    {
      "type": "Feature",
      "properties": {
        "@id": "way/481742966",
        "place": "island",
        "@geometry": "center"
      },
      "geometry": {
        "type": "Point",
        "coordinates": [
          -78.6385776,
          40.0338827
        ]
      },
      "id": "way/481742966"
    },
    {
      "type": "Feature",
      "properties": {
        "@id": "way/601115086",
        "landuse": "meadow",
        "place": "island",
        "way": "inner",
        "@geometry": "center"
      },
      "geometry": {
        "type": "Point",
        "coordinates": [
          -82.4160332,
          39.9700656
        ]
      },
      "id": "way/601115086"
    },
    {
      "type": "Feature",
      "properties": {
        "@id": "way/610591146",
        "place": "island",
        "@geometry": "center"
      },
      "geometry": {
        "type": "Point",
        "coordinates": [
          -79.2745039,
          40.262232
        ]
      },
      "id": "way/610591146"
    },
    {
      "type": "Feature",
      "properties": {
        "@id": "way/610854007",
        "place": "island",
        "@geometry": "center"
      },
      "geometry": {
        "type": "Point",
        "coordinates": [
          -79.2842668,
          40.2596737
        ]
      },
      "id": "way/610854007"
    },
    {
      "type": "Feature",
      "properties": {
        "@id": "way/610854008",
        "place": "island",
        "@geometry": "center"
      },
      "geometry": {
        "type": "Point",
        "coordinates": [
          -79.2838907,
          40.260084
        ]
      },
      "id": "way/610854008"
    },
    {
      "type": "Feature",
      "properties": {
        "@id": "way/690614195",
        "place": "island",
        "@geometry": "center"
      },
      "geometry": {
        "type": "Point",
        "coordinates": [
          -79.560492,
          39.8060966
        ]
      },
      "id": "way/690614195"
    },
    {
      "type": "Feature",
      "properties": {
        "@id": "way/746833550",
        "place": "island",
        "@geometry": "center"
      },
      "geometry": {
        "type": "Point",
        "coordinates": [
          -81.9264928,
          40.6276477
        ]
      },
      "id": "way/746833550"
    },
    {
      "type": "Feature",
      "properties": {
        "@id": "way/746833551",
        "place": "island",
        "@geometry": "center"
      },
      "geometry": {
        "type": "Point",
        "coordinates": [
          -81.9262487,
          40.6276202
        ]
      },
      "id": "way/746833551"
    },
    {
      "type": "Feature",
      "properties": {
        "@id": "way/792762632",
        "place": "island",
        "@geometry": "center"
      },
      "geometry": {
        "type": "Point",
        "coordinates": [
          -79.5543407,
          40.2032071
        ]
      },
      "id": "way/792762632"
    },
    {
      "type": "Feature",
      "properties": {
        "@id": "way/806274747",
        "place": "island",
        "@geometry": "center"
      },
      "geometry": {
        "type": "Point",
        "coordinates": [
          -79.2586324,
          39.9683712
        ]
      },
      "id": "way/806274747"
    },
    {
      "type": "Feature",
      "properties": {
        "@id": "way/921493530",
        "ele": "189",
        "gnis:feature_id": "1039569",
        "name": "Dana Island",
        "place": "island",
        "wikidata": "Q34654952",
        "@geometry": "center"
      },
      "geometry": {
        "type": "Point",
        "coordinates": [
          -81.605405,
          39.5471608
        ]
      },
      "id": "way/921493530"
    },
    {
      "type": "Feature",
      "properties": {
        "@id": "way/925261485",
        "place": "island",
        "@geometry": "center"
      },
      "geometry": {
        "type": "Point",
        "coordinates": [
          -80.1107496,
          39.4101482
        ]
      },
      "id": "way/925261485"
    },
    {
      "type": "Feature",
      "properties": {
        "@id": "way/925936497",
        "place": "island",
        "@geometry": "center"
      },
      "geometry": {
        "type": "Point",
        "coordinates": [
          -78.6665686,
          39.3930252
        ]
      },
      "id": "way/925936497"
    },
    {
      "type": "Feature",
      "properties": {
        "@id": "way/1119080653",
        "place": "island",
        "@geometry": "center"
      },
      "geometry": {
        "type": "Point",
        "coordinates": [
          -79.231883,
          40.0069607
        ]
      },
      "id": "way/1119080653"
    },
    {
      "type": "Feature",
      "properties": {
        "@id": "way/1184124703",
        "place": "island",
        "@geometry": "center"
      },
      "geometry": {
        "type": "Point",
        "coordinates": [
          -81.4302249,
          40.5095689
        ]
      },
      "id": "way/1184124703"
    },
    {
      "type": "Feature",
      "properties": {
        "@id": "way/1264314162",
        "natural": "beach",
        "place": "island",
        "surface": "sand",
        "@geometry": "center"
      },
      "geometry": {
        "type": "Point",
        "coordinates": [
          -80.0857131,
          40.4289968
        ]
      },
      "id": "way/1264314162"
    },
    {
      "type": "Feature",
      "properties": {
        "@id": "way/1277873004",
        "place": "island",
        "surface": "sand",
        "@geometry": "center"
      },
      "geometry": {
        "type": "Point",
        "coordinates": [
          -80.1559522,
          40.4715733
        ]
      },
      "id": "way/1277873004"
    },
    {
      "type": "Feature",
      "properties": {
        "@id": "way/1277873007",
        "place": "island",
        "surface": "sand",
        "@geometry": "center"
      },
      "geometry": {
        "type": "Point",
        "coordinates": [
          -80.1525071,
          40.4722894
        ]
      },
      "id": "way/1277873007"
    },
    {
      "type": "Feature",
      "properties": {
        "@id": "way/1277873010",
        "place": "island",
        "surface": "sand",
        "@geometry": "center"
      },
      "geometry": {
        "type": "Point",
        "coordinates": [
          -80.1517784,
          40.4727883
        ]
      },
      "id": "way/1277873010"
    },
    {
      "type": "Feature",
      "properties": {
        "@id": "way/1281883809",
        "natural": "beach",
        "place": "island",
        "@geometry": "center"
      },
      "geometry": {
        "type": "Point",
        "coordinates": [
          -80.0833186,
          40.4122478
        ]
      },
      "id": "way/1281883809"
    },
    {
      "type": "Feature",
      "properties": {
        "@id": "way/1281883831",
        "natural": "beach",
        "place": "island",
        "@geometry": "center"
      },
      "geometry": {
        "type": "Point",
        "coordinates": [
          -80.0872194,
          40.404322
        ]
      },
      "id": "way/1281883831"
    },
    {
      "type": "Feature",
      "properties": {
        "@id": "way/1364894724",
        "place": "island",
        "@geometry": "center"
      },
      "geometry": {
        "type": "Point",
        "coordinates": [
          -78.7541833,
          38.5515564
        ]
      },
      "id": "way/1364894724"
    },
    {
      "type": "Feature",
      "properties": {
        "@id": "way/1367623714",
        "place": "island",
        "@geometry": "center"
      },
      "geometry": {
        "type": "Point",
        "coordinates": [
          -80.1952256,
          40.4781891
        ]
      },
      "id": "way/1367623714"
    },
    {
      "type": "Feature",
      "properties": {
        "@id": "way/1374258040",
        "place": "island",
        "@geometry": "center"
      },
      "geometry": {
        "type": "Point",
        "coordinates": [
          -81.3969641,
          39.9103274
        ]
      },
      "id": "way/1374258040"
    },
    {
      "type": "Feature",
      "properties": {
        "@id": "way/1394453437",
        "ele": "271",
        "gnis:feature_id": "1700908",
        "name": "Watkins Island",
        "place": "island",
        "@geometry": "center"
      },
      "geometry": {
        "type": "Point",
        "coordinates": [
          -82.4834685,
          39.9287399
        ]
      },
      "id": "way/1394453437"
    },
    {
      "type": "Feature",
      "properties": {
        "@id": "way/1432680291",
        "place": "island",
        "@geometry": "center"
      },
      "geometry": {
        "type": "Point",
        "coordinates": [
          -79.136485,
          37.8512413
        ]
      },
      "id": "way/1432680291"
    },
    {
      "type": "Feature",
      "properties": {
        "@id": "way/1444088974",
        "natural": "wood",
        "place": "island",
        "@geometry": "center"
      },
      "geometry": {
        "type": "Point",
        "coordinates": [
          -80.5100778,
          38.3853813
        ]
      },
      "id": "way/1444088974"
    },
    {
      "type": "Feature",
      "properties": {
        "@id": "way/1444088979",
        "natural": "wood",
        "place": "island",
        "@geometry": "center"
      },
      "geometry": {
        "type": "Point",
        "coordinates": [
          -80.5045688,
          38.3851106
        ]
      },
      "id": "way/1444088979"
    },
    {
      "type": "Feature",
      "properties": {
        "@id": "way/1444088982",
        "natural": "wood",
        "place": "island",
        "@geometry": "center"
      },
      "geometry": {
        "type": "Point",
        "coordinates": [
          -80.4726067,
          38.3801261
        ]
      },
      "id": "way/1444088982"
    },
    {
      "type": "Feature",
      "properties": {
        "@id": "way/1444088984",
        "natural": "wood",
        "place": "island",
        "@geometry": "center"
      },
      "geometry": {
        "type": "Point",
        "coordinates": [
          -80.4561154,
          38.3799209
        ]
      },
      "id": "way/1444088984"
    },
    {
      "type": "Feature",
      "properties": {
        "@id": "way/1444088985",
        "natural": "wood",
        "place": "island",
        "@geometry": "center"
      },
      "geometry": {
        "type": "Point",
        "coordinates": [
          -80.4558232,
          38.3794297
        ]
      },
      "id": "way/1444088985"
    },
    {
      "type": "Feature",
      "properties": {
        "@id": "way/1444088986",
        "natural": "wood",
        "place": "island",
        "@geometry": "center"
      },
      "geometry": {
        "type": "Point",
        "coordinates": [
          -80.4564205,
          38.3800353
        ]
      },
      "id": "way/1444088986"
    },
    {
      "type": "Feature",
      "properties": {
        "@id": "way/1475332542",
        "place": "island",
        "@geometry": "center"
      },
      "geometry": {
        "type": "Point",
        "coordinates": [
          -82.1013902,
          39.5619908
        ]
      },
      "id": "way/1475332542"
    },
    {
      "type": "Feature",
      "properties": {
        "@id": "way/1526648918",
        "place": "island",
        "@geometry": "center"
      },
      "geometry": {
        "type": "Point",
        "coordinates": [
          -81.8603057,
          40.2932056
        ]
      },
      "id": "way/1526648918"
    },
    {
      "type": "Feature",
      "properties": {
        "@id": "way/1526648919",
        "place": "island",
        "@geometry": "center"
      },
      "geometry": {
        "type": "Point",
        "coordinates": [
          -81.860084,
          40.2932663
        ]
      },
      "id": "way/1526648919"
    }
  ]
}