{
  "type": "FeatureCollection",
  "generator": "overpass-turbo",
  "copyright": "The data included in this document is from www.openstreetmap.org. The data is made available under ODbL.",
  "timestamp": "2026-06-28T01:20:00Z",
  "features": [
    {
      "type": "Feature",
      "properties": {
        "@id": "node/110014121",
        "highway": "trailhead"
      },
      "geometry": {
        "type": "Point",
        "coordinates": [
          -80.801835,
          32.144289
        ]
      },
      "id": "node/110014121"
    },
    {
      "type": "Feature",
      "properties": {
        "@id": "node/113024000",
        "highway": "trailhead"
      },
      "geometry": {
        "type": "Point",
        "coordinates": [
          -82.479037,
          35.085758
        ]
      },
      "id": "node/113024000"
    },
    {
      "type": "Feature",
      "properties": {
        "@id": "node/287790397",
        "highway": "trailhead",
        "name": "Eisenhower Park Augusta Canal Trailhead"
      },
      "geometry": {
        "type": "Point",
        "coordinates": [
          -82.0048578,
          33.5127091
        ]
      },
      "id": "node/287790397"
    },
    {
      "type": "Feature",
      "properties": {
        "@id": "node/1735338675",
        "highway": "trailhead",
        "name": "Mary Black Rail Trail"
      },
      "geometry": {
        "type": "Point",
        "coordinates": [
          -81.8952813,
          34.9318713
        ]
      },
      "id": "node/1735338675"
    },
    {
      "type": "Feature",
      "properties": {
        "@id": "node/1987739460",
        "highway": "trailhead"
      },
      "geometry": {
        "type": "Point",
        "coordinates": [
          -82.2808091,
          35.1307524
        ]
      },
      "id": "node/1987739460"
    },
    {
      "type": "Feature",
      "properties": {
        "@id": "node/2921258164",
        "highway": "trailhead",
        "name": "Palmetto Trail: Capital City Passage Trailhead"
      },
      "geometry": {
        "type": "Point",
        "coordinates": [
          -81.0677443,
          34.0332258
        ]
      },
      "id": "node/2921258164"
    },
    {
      "type": "Feature",
      "properties": {
        "@id": "node/3297518663",
        "highway": "trailhead"
      },
      "geometry": {
        "type": "Point",
        "coordinates": [
          -82.4788604,
          35.0866687
        ]
      },
      "id": "node/3297518663"
    },
    {
      "type": "Feature",
      "properties": {
        "@id": "node/3375853049",
        "highway": "trailhead",
        "name": "Lake Olmstead Trailhead"
      },
      "geometry": {
        "type": "Point",
        "coordinates": [
          -82.0046336,
          33.4926206
        ]
      },
      "id": "node/3375853049"
    },
    {
      "type": "Feature",
      "properties": {
        "@id": "node/4657847907",
        "highway": "trailhead",
        "name": "Hunt Club Trail"
      },
      "geometry": {
        "type": "Point",
        "coordinates": [
          -81.8271154,
          34.9572275
        ]
      },
      "id": "node/4657847907"
    },
    {
      "type": "Feature",
      "properties": {
        "@id": "node/5615907676",
        "highway": "trailhead",
        "name": "Sowell Trail"
      },
      "geometry": {
        "type": "Point",
        "coordinates": [
          -82.9534884,
          35.1881486
        ]
      },
      "id": "node/5615907676"
    },
    {
      "type": "Feature",
      "properties": {
        "@id": "node/5680738781",
        "highway": "trailhead",
        "name": "Opossum Creek Falls Trail"
      },
      "geometry": {
        "type": "Point",
        "coordinates": [
          -83.3042475,
          34.7734225
        ]
      },
      "id": "node/5680738781"
    },
    {
      "type": "Feature",
      "properties": {
        "@id": "node/6167713012",
        "highway": "trailhead",
        "name": "Lake Olmsteads Augusta Canal Trailhead"
      },
      "geometry": {
        "type": "Point",
        "coordinates": [
          -81.9972955,
          33.4947672
        ]
      },
      "id": "node/6167713012"
    },
    {
      "type": "Feature",
      "properties": {
        "@id": "node/6167713026",
        "highway": "trailhead",
        "name": "Mill Village Augusta Canal Trailhead"
      },
      "geometry": {
        "type": "Point",
        "coordinates": [
          -81.9948164,
          33.487914
        ]
      },
      "id": "node/6167713026"
    },
    {
      "type": "Feature",
      "properties": {
        "@id": "node/6329887347",
        "highway": "trailhead",
        "name": "Browns Creek Trails Trailhead"
      },
      "geometry": {
        "type": "Point",
        "coordinates": [
          -78.5856391,
          34.6140461
        ]
      },
      "id": "node/6329887347"
    },
    {
      "type": "Feature",
      "properties": {
        "@id": "node/6338307447",
        "highway": "trailhead",
        "name": "Milliken XC course 5k & 8k Start"
      },
      "geometry": {
        "type": "Point",
        "coordinates": [
          -81.9514186,
          34.9869437
        ]
      },
      "id": "node/6338307447"
    },
    {
      "type": "Feature",
      "properties": {
        "@id": "node/6416828879",
        "highway": "trailhead"
      },
      "geometry": {
        "type": "Point",
        "coordinates": [
          -83.1722959,
          33.3487648
        ]
      },
      "id": "node/6416828879"
    },
    {
      "type": "Feature",
      "properties": {
        "@id": "node/6505158993",
        "highway": "trailhead"
      },
      "geometry": {
        "type": "Point",
        "coordinates": [
          -80.8354933,
          35.1658866
        ]
      },
      "id": "node/6505158993"
    },
    {
      "type": "Feature",
      "properties": {
        "@id": "node/6828726561",
        "addr:city": "Spartanburg",
        "addr:housenumber": "211",
        "addr:state": "SC",
        "addr:street": "Sydnor Road",
        "highway": "trailhead",
        "name": "Cottonwood Trail Fernwood Pool Entrance",
        "operator": "SPACE"
      },
      "geometry": {
        "type": "Point",
        "coordinates": [
          -81.8997021,
          34.9517941
        ]
      },
      "id": "node/6828726561"
    },
    {
      "type": "Feature",
      "properties": {
        "@id": "node/6865031230",
        "highway": "trailhead"
      },
      "geometry": {
        "type": "Point",
        "coordinates": [
          -82.6608526,
          34.8976741
        ]
      },
      "id": "node/6865031230"
    },
    {
      "type": "Feature",
      "properties": {
        "@id": "node/6887094738",
        "alt_name": "Kelsey Creek Trail",
        "highway": "trailhead",
        "name": "Palmetto Trail"
      },
      "geometry": {
        "type": "Point",
        "coordinates": [
          -81.8651087,
          34.8953743
        ]
      },
      "id": "node/6887094738"
    },
    {
      "type": "Feature",
      "properties": {
        "@id": "node/7324390389",
        "highway": "trailhead"
      },
      "geometry": {
        "type": "Point",
        "coordinates": [
          -82.2225005,
          33.4908563
        ]
      },
      "id": "node/7324390389"
    },
    {
      "type": "Feature",
      "properties": {
        "@id": "node/7453553098",
        "highway": "trailhead"
      },
      "geometry": {
        "type": "Point",
        "coordinates": [
          -82.852924,
          34.9585406
        ]
      },
      "id": "node/7453553098"
    },
    {
      "type": "Feature",
      "properties": {
        "@id": "node/7477443749",
        "highway": "trailhead",
        "name": "Palmetto Trail"
      },
      "geometry": {
        "type": "Point",
        "coordinates": [
          -80.8892666,
          33.9865005
        ]
      },
      "id": "node/7477443749"
    },
    {
      "type": "Feature",
      "properties": {
        "@id": "node/7515253776",
        "alt_name": "Willy Taco Way",
        "highway": "trailhead",
        "name": "River Birch Trail"
      },
      "geometry": {
        "type": "Point",
        "coordinates": [
          -81.9056935,
          34.9609586
        ]
      },
      "id": "node/7515253776"
    },
    {
      "type": "Feature",
      "properties": {
        "@id": "node/7573460758",
        "fee": "no",
        "highway": "trailhead",
        "name": "Clarendon Road Trailhead"
      },
      "geometry": {
        "type": "Point",
        "coordinates": [
          -80.7428617,
          32.4934359
        ]
      },
      "id": "node/7573460758"
    },
    {
      "type": "Feature",
      "properties": {
        "@id": "node/7573521128",
        "fee": "no",
        "highway": "trailhead",
        "name": "Broome Lane Trailhead"
      },
      "geometry": {
        "type": "Point",
        "coordinates": [
          -80.7015093,
          32.403051
        ]
      },
      "id": "node/7573521128"
    },
    {
      "type": "Feature",
      "properties": {
        "@id": "node/7573521139",
        "fee": "no",
        "highway": "trailhead",
        "name": "Westvine Drive Trailhead"
      },
      "geometry": {
        "type": "Point",
        "coordinates": [
          -80.7021651,
          32.3881074
        ]
      },
      "id": "node/7573521139"
    },
    {
      "type": "Feature",
      "properties": {
        "@id": "node/7654232961",
        "highway": "trailhead",
        "name": "Gate House & Locks Trailhead"
      },
      "geometry": {
        "type": "Point",
        "coordinates": [
          -82.0388285,
          33.5502935
        ]
      },
      "id": "node/7654232961"
    },
    {
      "type": "Feature",
      "properties": {
        "@id": "node/7836141568",
        "access": "yes",
        "fee": "no",
        "highway": "trailhead",
        "name": "North Myrtle Beach Nature Trail",
        "operator": "City of North Myrtle Beach"
      },
      "geometry": {
        "type": "Point",
        "coordinates": [
          -78.7146027,
          33.8400988
        ]
      },
      "id": "node/7836141568"
    },
    {
      "type": "Feature",
      "properties": {
        "@id": "node/7885373331",
        "highway": "trailhead",
        "name": "Chattooga Cliffside Trail"
      },
      "geometry": {
        "type": "Point",
        "coordinates": [
          -83.1220699,
          35.0648123
        ]
      },
      "id": "node/7885373331"
    },
    {
      "type": "Feature",
      "properties": {
        "@id": "node/8672433460",
        "highway": "trailhead"
      },
      "geometry": {
        "type": "Point",
        "coordinates": [
          -80.8325217,
          35.1736554
        ]
      },
      "id": "node/8672433460"
    },
    {
      "type": "Feature",
      "properties": {
        "@id": "node/8731456974",
        "highway": "trailhead",
        "name": "Entrance to Trail"
      },
      "geometry": {
        "type": "Point",
        "coordinates": [
          -80.719784,
          34.9961431
        ]
      },
      "id": "node/8731456974"
    },
    {
      "type": "Feature",
      "properties": {
        "@id": "node/8764796964",
        "highway": "trailhead",
        "name": "Secret Falls Trailhead"
      },
      "geometry": {
        "type": "Point",
        "coordinates": [
          -83.1666524,
          35.0086975
        ]
      },
      "id": "node/8764796964"
    },
    {
      "type": "Feature",
      "properties": {
        "@id": "node/8789669965",
        "description": "trailhead to Hiking Loop/Red Trail",
        "highway": "trailhead"
      },
      "geometry": {
        "type": "Point",
        "coordinates": [
          -83.1745342,
          33.3513267
        ]
      },
      "id": "node/8789669965"
    },
    {
      "type": "Feature",
      "properties": {
        "@id": "node/8789669966",
        "description": "trailhead to Hiking Loop/Red Trail",
        "highway": "trailhead"
      },
      "geometry": {
        "type": "Point",
        "coordinates": [
          -83.17412,
          33.3520082
        ]
      },
      "id": "node/8789669966"
    },
    {
      "type": "Feature",
      "properties": {
        "@id": "node/8789669997",
        "fixme": "needs a .GPX trace for this trail.",
        "highway": "trailhead",
        "name": "McLean's Loop"
      },
      "geometry": {
        "type": "Point",
        "coordinates": [
          -83.1732375,
          33.3526497
        ]
      },
      "id": "node/8789669997"
    },
    {
      "type": "Feature",
      "properties": {
        "@id": "node/8789670016",
        "fixme": "need .GPX trace on McLean's Loop",
        "highway": "trailhead",
        "name": "McLean's Loop"
      },
      "geometry": {
        "type": "Point",
        "coordinates": [
          -83.1692591,
          33.3554392
        ]
      },
      "id": "node/8789670016"
    },
    {
      "type": "Feature",
      "properties": {
        "@id": "node/8815524411",
        "highway": "trailhead",
        "name": "Headgates Pedestrain Bridge Trailhead"
      },
      "geometry": {
        "type": "Point",
        "coordinates": [
          -82.0381125,
          33.5482212
        ]
      },
      "id": "node/8815524411"
    },
    {
      "type": "Feature",
      "properties": {
        "@id": "node/8896556080",
        "highway": "trailhead"
      },
      "geometry": {
        "type": "Point",
        "coordinates": [
          -80.985877,
          34.9918937
        ]
      },
      "id": "node/8896556080"
    },
    {
      "type": "Feature",
      "properties": {
        "@id": "node/9135409158",
        "access": "yes",
        "fee": "no",
        "highway": "trailhead",
        "name": "Carriage Lane Trailhead"
      },
      "geometry": {
        "type": "Point",
        "coordinates": [
          -83.3516436,
          33.9361443
        ]
      },
      "id": "node/9135409158"
    },
    {
      "type": "Feature",
      "properties": {
        "@id": "node/9641964898",
        "highway": "trailhead",
        "name": "FATS Trailhead South"
      },
      "geometry": {
        "type": "Point",
        "coordinates": [
          -82.0800564,
          33.6079548
        ]
      },
      "id": "node/9641964898"
    },
    {
      "type": "Feature",
      "properties": {
        "@id": "node/9870479537",
        "access": "yes",
        "addr:city": "Lake Toxaway",
        "addr:housenumber": "A",
        "addr:postcode": "28747",
        "addr:state": "NC",
        "addr:street": "FS 4674A",
        "fee": "no",
        "highway": "trailhead",
        "name": "Cold Mountain Gap trailhead",
        "operator": "USFS"
      },
      "geometry": {
        "type": "Point",
        "coordinates": [
          -82.9988724,
          35.1577785
        ]
      },
      "id": "node/9870479537"
    },
    {
      "type": "Feature",
      "properties": {
        "@id": "node/9948026395",
        "highway": "trailhead",
        "name": "Wilkie Trail"
      },
      "geometry": {
        "type": "Point",
        "coordinates": [
          -82.6389019,
          35.1719594
        ]
      },
      "id": "node/9948026395"
    },
    {
      "type": "Feature",
      "properties": {
        "@id": "node/10287855680",
        "access": "yes",
        "fee": "no",
        "highway": "trailhead",
        "name": "Lindsay Pettus Greenway-Trail Access at Barr Street Learning Center"
      },
      "geometry": {
        "type": "Point",
        "coordinates": [
          -80.7650195,
          34.7275634
        ]
      },
      "id": "node/10287855680"
    },
    {
      "type": "Feature",
      "properties": {
        "@id": "node/10287855694",
        "highway": "trailhead",
        "name": "Lindsay Pettus Greenway Neighborhood Access Point-Almetta Street"
      },
      "geometry": {
        "type": "Point",
        "coordinates": [
          -80.7659722,
          34.7292776
        ]
      },
      "id": "node/10287855694"
    },
    {
      "type": "Feature",
      "properties": {
        "@id": "node/10287855696",
        "highway": "trailhead",
        "name": "Lindsay Pettus Greenway-Trail Access at Main Street"
      },
      "geometry": {
        "type": "Point",
        "coordinates": [
          -80.7757573,
          34.72951
        ]
      },
      "id": "node/10287855696"
    },
    {
      "type": "Feature",
      "properties": {
        "@id": "node/10609588416",
        "access": "yes",
        "fee": "no",
        "highway": "trailhead",
        "name": "Longleaf Pine Trail",
        "operator": "NC State Parks"
      },
      "geometry": {
        "type": "Point",
        "coordinates": [
          -78.8947724,
          35.1695522
        ]
      },
      "id": "node/10609588416"
    },
    {
      "type": "Feature",
      "properties": {
        "@id": "node/10929675988",
        "highway": "trailhead"
      },
      "geometry": {
        "type": "Point",
        "coordinates": [
          -80.9080604,
          34.0920052
        ]
      },
      "id": "node/10929675988"
    },
    {
      "type": "Feature",
      "properties": {
        "@id": "node/11084700986",
        "highway": "trailhead",
        "name": "Kelsey Creek Trail"
      },
      "geometry": {
        "type": "Point",
        "coordinates": [
          -81.8762626,
          34.9089481
        ]
      },
      "id": "node/11084700986"
    },
    {
      "type": "Feature",
      "properties": {
        "@id": "node/11085042285",
        "highway": "trailhead",
        "name": "Euchee Creek Greenway Columbia Road Trailhead"
      },
      "geometry": {
        "type": "Point",
        "coordinates": [
          -82.2303211,
          33.5169929
        ]
      },
      "id": "node/11085042285"
    },
    {
      "type": "Feature",
      "properties": {
        "@id": "node/11085042286",
        "highway": "trailhead",
        "name": "Euchee Creek Greenway Patriots Park Trailhead"
      },
      "geometry": {
        "type": "Point",
        "coordinates": [
          -82.2302873,
          33.5230455
        ]
      },
      "id": "node/11085042286"
    },
    {
      "type": "Feature",
      "properties": {
        "@id": "node/11729762619",
        "highway": "trailhead"
      },
      "geometry": {
        "type": "Point",
        "coordinates": [
          -79.0674299,
          33.504001
        ]
      },
      "id": "node/11729762619"
    },
    {
      "type": "Feature",
      "properties": {
        "@id": "node/11754150589",
        "highway": "trailhead",
        "name": "Trailhead Sewee Shell Mound Interpretive Trail"
      },
      "geometry": {
        "type": "Point",
        "coordinates": [
          -79.6093392,
          33.0010877
        ]
      },
      "id": "node/11754150589"
    },
    {
      "type": "Feature",
      "properties": {
        "@id": "node/12320548872",
        "highway": "trailhead"
      },
      "geometry": {
        "type": "Point",
        "coordinates": [
          -82.2630239,
          35.0859752
        ]
      },
      "id": "node/12320548872"
    },
    {
      "type": "Feature",
      "properties": {
        "@id": "node/12874586574",
        "highway": "trailhead"
      },
      "geometry": {
        "type": "Point",
        "coordinates": [
          -79.4659654,
          34.322924
        ]
      },
      "id": "node/12874586574"
    },
    {
      "type": "Feature",
      "properties": {
        "@id": "node/13013615141",
        "highway": "trailhead",
        "name": "River Birch Trail"
      },
      "geometry": {
        "type": "Point",
        "coordinates": [
          -81.8998384,
          34.9524684
        ]
      },
      "id": "node/13013615141"
    },
    {
      "type": "Feature",
      "properties": {
        "@id": "node/13013615142",
        "highway": "trailhead",
        "name": "Cottonwood Trail Beechwood Entrance",
        "operator": "SPACE"
      },
      "geometry": {
        "type": "Point",
        "coordinates": [
          -81.891848,
          34.9529459
        ]
      },
      "id": "node/13013615142"
    },
    {
      "type": "Feature",
      "properties": {
        "@id": "node/13013615143",
        "highway": "trailhead",
        "name": "Cottonwood Trail Woodburn Rd Entrance"
      },
      "geometry": {
        "type": "Point",
        "coordinates": [
          -81.8900044,
          34.9479228
        ]
      },
      "id": "node/13013615143"
    },
    {
      "type": "Feature",
      "properties": {
        "@id": "node/13013625514",
        "highway": "trailhead",
        "name": "Three Creeks Trail"
      },
      "geometry": {
        "type": "Point",
        "coordinates": [
          -81.9637466,
          34.9418471
        ]
      },
      "id": "node/13013625514"
    },
    {
      "type": "Feature",
      "properties": {
        "@id": "node/13013628846",
        "highway": "trailhead"
      },
      "geometry": {
        "type": "Point",
        "coordinates": [
          -81.8343709,
          34.8606741
        ]
      },
      "id": "node/13013628846"
    },
    {
      "type": "Feature",
      "properties": {
        "@id": "node/13013631758",
        "highway": "trailhead",
        "name": "Drayton Mills Trail"
      },
      "geometry": {
        "type": "Point",
        "coordinates": [
          -81.9093334,
          34.9689424
        ]
      },
      "id": "node/13013631758"
    },
    {
      "type": "Feature",
      "properties": {
        "@id": "node/13013651525",
        "highway": "trailhead",
        "name": "Mary Black Rail Trail"
      },
      "geometry": {
        "type": "Point",
        "coordinates": [
          -81.9214962,
          34.947501
        ]
      },
      "id": "node/13013651525"
    },
    {
      "type": "Feature",
      "properties": {
        "@id": "node/13013651526",
        "highway": "trailhead",
        "name": "Mary Black Rail Trail"
      },
      "geometry": {
        "type": "Point",
        "coordinates": [
          -81.914891,
          34.9454773
        ]
      },
      "id": "node/13013651526"
    },
    {
      "type": "Feature",
      "properties": {
        "@id": "node/13013651527",
        "highway": "trailhead"
      },
      "geometry": {
        "type": "Point",
        "coordinates": [
          -81.9018384,
          34.9369783
        ]
      },
      "id": "node/13013651527"
    },
    {
      "type": "Feature",
      "properties": {
        "@id": "node/13013673733",
        "highway": "trailhead",
        "name": "Glendale Shoals Trail"
      },
      "geometry": {
        "type": "Point",
        "coordinates": [
          -81.8384613,
          34.9422587
        ]
      },
      "id": "node/13013673733"
    },
    {
      "type": "Feature",
      "properties": {
        "@id": "node/13020057125",
        "fee": "no",
        "highway": "trailhead",
        "name": "Upper Chinquapin Greenway",
        "operator": "SPACE"
      },
      "geometry": {
        "type": "Point",
        "coordinates": [
          -81.9538596,
          34.9805678
        ]
      },
      "id": "node/13020057125"
    },
    {
      "type": "Feature",
      "properties": {
        "@id": "node/13020075979",
        "highway": "trailhead",
        "name": "Upper Chinquapin Greenway"
      },
      "geometry": {
        "type": "Point",
        "coordinates": [
          -81.962629,
          34.9842198
        ]
      },
      "id": "node/13020075979"
    },
    {
      "type": "Feature",
      "properties": {
        "@id": "node/13020076097",
        "highway": "trailhead"
      },
      "geometry": {
        "type": "Point",
        "coordinates": [
          -81.9607998,
          34.9814297
        ]
      },
      "id": "node/13020076097"
    },
    {
      "type": "Feature",
      "properties": {
        "@id": "node/13020076098",
        "highway": "trailhead",
        "name": "Upper Chinquapin Greenway"
      },
      "geometry": {
        "type": "Point",
        "coordinates": [
          -81.9635789,
          34.9845821
        ]
      },
      "id": "node/13020076098"
    },
    {
      "type": "Feature",
      "properties": {
        "@id": "node/13207675550",
        "highway": "trailhead",
        "name": "FATS Trailhead North"
      },
      "geometry": {
        "type": "Point",
        "coordinates": [
          -82.1141132,
          33.6145036
        ]
      },
      "id": "node/13207675550"
    },
    {
      "type": "Feature",
      "properties": {
        "@id": "node/13462535011",
        "highway": "trailhead"
      },
      "geometry": {
        "type": "Point",
        "coordinates": [
          -81.782903,
          33.5900296
        ]
      },
      "id": "node/13462535011"
    },
    {
      "type": "Feature",
      "properties": {
        "@id": "node/13781274449",
        "highway": "trailhead"
      },
      "geometry": {
        "type": "Point",
        "coordinates": [
          -79.0626462,
          33.5094809
        ]
      },
      "id": "node/13781274449"
    }
  ]
}