{
  "type": "FeatureCollection",
  "generator": "overpass-turbo",
  "copyright": "The data included in this document is from www.openstreetmap.org. The data is made available under ODbL.",
  "timestamp": "2026-06-28T00:17:11Z",
  "features": [
    {
      "type": "Feature",
      "properties": {
        "@id": "node/496141022",
        "access": "yes",
        "amenity": "parking",
        "fee": "yes",
        "layer": "-1",
        "parking": "underground"
      },
      "geometry": {
        "type": "Point",
        "coordinates": [
          -84.3914307,
          33.762074
        ]
      },
      "id": "node/496141022"
    },
    {
      "type": "Feature",
      "properties": {
        "@id": "node/496141023",
        "access": "yes",
        "amenity": "parking",
        "fee": "yes",
        "layer": "-1",
        "parking": "underground"
      },
      "geometry": {
        "type": "Point",
        "coordinates": [
          -84.3914221,
          33.7611535
        ]
      },
      "id": "node/496141023"
    },
    {
      "type": "Feature",
      "properties": {
        "@id": "node/569509283",
        "amenity": "parking",
        "fee": "yes",
        "parking": "multi-storey"
      },
      "geometry": {
        "type": "Point",
        "coordinates": [
          -84.2941882,
          33.7757709
        ]
      },
      "id": "node/569509283"
    },
    {
      "type": "Feature",
      "properties": {
        "@id": "node/1435023783",
        "amenity": "parking",
        "layer": "-1",
        "name": "Whitaker Street Garage",
        "parking": "underground"
      },
      "geometry": {
        "type": "Point",
        "coordinates": [
          -81.093181,
          32.0806034
        ]
      },
      "id": "node/1435023783"
    },
    {
      "type": "Feature",
      "properties": {
        "@id": "node/1718841473",
        "amenity": "parking",
        "parking": "multi-storey"
      },
      "geometry": {
        "type": "Point",
        "coordinates": [
          -84.3951795,
          33.7939997
        ]
      },
      "id": "node/1718841473"
    },
    {
      "type": "Feature",
      "properties": {
        "@id": "node/3696222528",
        "amenity": "parking",
        "layer": "-1",
        "parking": "underground"
      },
      "geometry": {
        "type": "Point",
        "coordinates": [
          -81.092899,
          32.0803223
        ]
      },
      "id": "node/3696222528"
    },
    {
      "type": "Feature",
      "properties": {
        "@id": "node/4508142307",
        "access": "customers",
        "amenity": "parking",
        "fee": "yes",
        "name": "Terminal North Gold Lot",
        "parking": "multi-storey"
      },
      "geometry": {
        "type": "Point",
        "coordinates": [
          -84.44503,
          33.6420831
        ]
      },
      "id": "node/4508142307"
    },
    {
      "type": "Feature",
      "properties": {
        "@id": "node/6772053307",
        "access": "private",
        "amenity": "parking",
        "layer": "-1",
        "parking": "underground"
      },
      "geometry": {
        "type": "Point",
        "coordinates": [
          -84.9948223,
          32.4708598
        ]
      },
      "id": "node/6772053307"
    },
    {
      "type": "Feature",
      "properties": {
        "@id": "node/8229871453",
        "amenity": "parking",
        "parking": "multi-storey"
      },
      "geometry": {
        "type": "Point",
        "coordinates": [
          -84.3869034,
          33.7917387
        ]
      },
      "id": "node/8229871453"
    },
    {
      "type": "Feature",
      "properties": {
        "@id": "node/8815849460",
        "amenity": "parking",
        "layer": "-1",
        "maxheight": "6'9\"",
        "parking": "underground"
      },
      "geometry": {
        "type": "Point",
        "coordinates": [
          -83.3773895,
          33.957386
        ]
      },
      "id": "node/8815849460"
    },
    {
      "type": "Feature",
      "properties": {
        "@id": "node/9133410605",
        "amenity": "parking",
        "layer": "-1",
        "parking": "underground"
      },
      "geometry": {
        "type": "Point",
        "coordinates": [
          -81.0553577,
          33.9938401
        ]
      },
      "id": "node/9133410605"
    },
    {
      "type": "Feature",
      "properties": {
        "@id": "node/9554259325",
        "access": "yes",
        "addr:city": "Columbus",
        "addr:housenumber": "919",
        "addr:postcode": "31901",
        "addr:state": "GA",
        "addr:street": "Broadway",
        "amenity": "parking",
        "parking": "multi-storey",
        "surface": "asphalt"
      },
      "geometry": {
        "type": "Point",
        "coordinates": [
          -84.9940133,
          32.463822
        ]
      },
      "id": "node/9554259325"
    },
    {
      "type": "Feature",
      "properties": {
        "@id": "node/10909795503",
        "amenity": "parking",
        "parking": "multi-storey"
      },
      "geometry": {
        "type": "Point",
        "coordinates": [
          -83.3704508,
          33.9586612
        ]
      },
      "id": "node/10909795503"
    },
    {
      "type": "Feature",
      "properties": {
        "@id": "node/10909799519",
        "amenity": "parking",
        "parking": "multi-storey"
      },
      "geometry": {
        "type": "Point",
        "coordinates": [
          -83.3696657,
          33.957621
        ]
      },
      "id": "node/10909799519"
    },
    {
      "type": "Feature",
      "properties": {
        "@id": "node/10976409943",
        "amenity": "parking",
        "fee": "no",
        "operator": "Upson Regional Medical Center",
        "park_ride": "no",
        "parking": "multi-storey",
        "supervised": "no",
        "surface": "paved",
        "wheelchair": "yes"
      },
      "geometry": {
        "type": "Point",
        "coordinates": [
          -84.3371129,
          32.8855951
        ]
      },
      "id": "node/10976409943"
    },
    {
      "type": "Feature",
      "properties": {
        "@id": "node/12175460499",
        "amenity": "parking",
        "parking": "multi-storey"
      },
      "geometry": {
        "type": "Point",
        "coordinates": [
          -81.0350619,
          33.9980074
        ]
      },
      "id": "node/12175460499"
    },
    {
      "type": "Feature",
      "properties": {
        "@id": "node/12645519572",
        "amenity": "parking",
        "parking": "multi-storey"
      },
      "geometry": {
        "type": "Point",
        "coordinates": [
          -84.3647525,
          33.7716714
        ]
      },
      "id": "node/12645519572"
    },
    {
      "type": "Feature",
      "properties": {
        "@id": "node/12645519573",
        "amenity": "parking",
        "parking": "multi-storey"
      },
      "geometry": {
        "type": "Point",
        "coordinates": [
          -84.3650038,
          33.7717787
        ]
      },
      "id": "node/12645519573"
    },
    {
      "type": "Feature",
      "properties": {
        "@id": "node/13129911615",
        "access": "permit",
        "amenity": "parking",
        "capacity:disabled": "yes",
        "fee": "yes",
        "lit": "yes",
        "name": "Hue Midtown Parking",
        "opening_hours": "24/7",
        "parking": "multi-storey",
        "smoothness": "excellent",
        "surface": "concrete"
      },
      "geometry": {
        "type": "Point",
        "coordinates": [
          -84.3882491,
          33.7858344
        ]
      },
      "id": "node/13129911615"
    },
    {
      "type": "Feature",
      "properties": {
        "@id": "node/13129911619",
        "access": "permit",
        "alt_name": "Whole Foods Market Parking",
        "amenity": "parking",
        "capacity:disabled": "yes",
        "fee": "yes",
        "height": "2.59",
        "lit": "yes",
        "name": "22 14th Street NW Parking",
        "opening_hours": "24/7",
        "parking": "multi-storey",
        "smoothness": "excellent",
        "surface": "concrete"
      },
      "geometry": {
        "type": "Point",
        "coordinates": [
          -84.3884349,
          33.785841
        ]
      },
      "id": "node/13129911619"
    },
    {
      "type": "Feature",
      "properties": {
        "@id": "node/13129911622",
        "access": "permit",
        "alt_name": "Whole Foods Market Parking",
        "amenity": "parking",
        "capacity:disabled": "yes",
        "fee": "yes",
        "height": "2.59",
        "lit": "yes",
        "name": "22 14th Street NW Parking",
        "opening_hours": "24/7",
        "parking": "multi-storey",
        "smoothness": "excellent",
        "surface": "concrete"
      },
      "geometry": {
        "type": "Point",
        "coordinates": [
          -84.3891145,
          33.7859504
        ]
      },
      "id": "node/13129911622"
    },
    {
      "type": "Feature",
      "properties": {
        "@id": "node/13282425956",
        "amenity": "parking",
        "parking": "multi-storey"
      },
      "geometry": {
        "type": "Point",
        "coordinates": [
          -84.3939115,
          33.7573773
        ]
      },
      "id": "node/13282425956"
    },
    {
      "type": "Feature",
      "properties": {
        "@id": "node/13712403911",
        "amenity": "parking",
        "parking": "multi-storey"
      },
      "geometry": {
        "type": "Point",
        "coordinates": [
          -83.3701429,
          33.9582747
        ]
      },
      "id": "node/13712403911"
    },
    {
      "type": "Feature",
      "properties": {
        "@id": "node/13712403912",
        "amenity": "parking",
        "parking": "multi-storey"
      },
      "geometry": {
        "type": "Point",
        "coordinates": [
          -83.3693375,
          33.9576866
        ]
      },
      "id": "node/13712403912"
    },
    {
      "type": "Feature",
      "properties": {
        "@id": "node/13736460108",
        "access": "private",
        "amenity": "parking",
        "parking": "multi-storey"
      },
      "geometry": {
        "type": "Point",
        "coordinates": [
          -84.445083,
          33.8970167
        ]
      },
      "id": "node/13736460108"
    },
    {
      "type": "Feature",
      "properties": {
        "@id": "node/13925378628",
        "amenity": "parking",
        "parking": "multi-storey"
      },
      "geometry": {
        "type": "Point",
        "coordinates": [
          -84.4486816,
          33.8681559
        ]
      },
      "id": "node/13925378628"
    },
    {
      "type": "Feature",
      "properties": {
        "@id": "node/13949080098",
        "amenity": "parking",
        "parking": "multi-storey"
      },
      "geometry": {
        "type": "Point",
        "coordinates": [
          -85.4982068,
          33.9960114
        ]
      },
      "id": "node/13949080098"
    }
  ]
}