{
  "type": "FeatureCollection",
  "generator": "overpass-turbo",
  "copyright": "The data included in this document is from www.openstreetmap.org. The data is made available under ODbL.",
  "timestamp": "2026-06-27T22:29:31Z",
  "features": [
    {
      "type": "Feature",
      "properties": {
        "@id": "relation/5672883",
        "ele": "133",
        "gnis:ST_alpha": "KY",
        "gnis:county_name": "Jefferson",
        "gnis:created": "09/20/1979",
        "gnis:feature_id": "503398",
        "gnis:feature_type": "island",
        "name": "Shippingport Island",
        "place": "island",
        "type": "multipolygon",
        "wikidata": "Q7498084",
        "@geometry": "center"
      },
      "geometry": {
        "type": "Point",
        "coordinates": [
          -85.7794692,
          38.2727996
        ]
      },
      "id": "relation/5672883"
    },
    {
      "type": "Feature",
      "properties": {
        "@id": "relation/13729183",
        "name": "Long Island",
        "name:chr": "ᎠᎼᏰᎵ ᎫᎾᎯᏔ",
        "place": "island",
        "type": "multipolygon",
        "wikidata": "Q6672650",
        "wikipedia": "en:Long Island (Tennessee)",
        "@geometry": "center"
      },
      "geometry": {
        "type": "Point",
        "coordinates": [
          -82.5643718,
          36.5305437
        ]
      },
      "id": "relation/13729183"
    },
    {
      "type": "Feature",
      "properties": {
        "@id": "relation/15467159",
        "ele": "101",
        "gnis:feature_id": "490477",
        "name": "Cumberland Island",
        "place": "island",
        "type": "multipolygon",
        "@geometry": "center"
      },
      "geometry": {
        "type": "Point",
        "coordinates": [
          -88.4209024,
          37.1329698
        ]
      },
      "id": "relation/15467159"
    },
    {
      "type": "Feature",
      "properties": {
        "@id": "relation/15896062",
        "place": "island",
        "type": "multipolygon",
        "@geometry": "center"
      },
      "geometry": {
        "type": "Point",
        "coordinates": [
          -85.6715309,
          38.2358298
        ]
      },
      "id": "relation/15896062"
    },
    {
      "type": "Feature",
      "properties": {
        "@id": "relation/16106662",
        "ele": "107",
        "gnis:feature_id": "503692",
        "name": "Slim Island",
        "place": "island",
        "type": "multipolygon",
        "@geometry": "center"
      },
      "geometry": {
        "type": "Point",
        "coordinates": [
          -87.9282849,
          37.8746461
        ]
      },
      "id": "relation/16106662"
    },
    {
      "type": "Feature",
      "properties": {
        "@id": "relation/19641643",
        "ele": "116",
        "gnis:feature_id": "496763",
        "name": "Little Hurricane Island",
        "place": "island",
        "type": "multipolygon",
        "@geometry": "center"
      },
      "geometry": {
        "type": "Point",
        "coordinates": [
          -87.1653996,
          37.8268591
        ]
      },
      "id": "relation/19641643"
    },
    {
      "type": "Feature",
      "properties": {
        "@id": "way/24656461",
        "ele": "98",
        "gnis:feature_id": "500076",
        "name": "Owens Island",
        "place": "island",
        "@geometry": "center"
      },
      "geometry": {
        "type": "Point",
        "coordinates": [
          -88.5799159,
          37.0779161
        ]
      },
      "id": "way/24656461"
    },
    {
      "type": "Feature",
      "properties": {
        "@id": "way/24656523",
        "ele": "103",
        "gnis:feature_id": "512871",
        "name": "Hurricane Island",
        "place": "island",
        "@geometry": "center"
      },
      "geometry": {
        "type": "Point",
        "coordinates": [
          -88.2724893,
          37.4454035
        ]
      },
      "id": "way/24656523"
    },
    {
      "type": "Feature",
      "properties": {
        "@id": "way/28721733",
        "ele": "101",
        "gnis:feature_id": "721892",
        "name": "Marquette Island",
        "natural": "wood",
        "place": "island",
        "@geometry": "center"
      },
      "geometry": {
        "type": "Point",
        "coordinates": [
          -89.5086905,
          37.2645334
        ]
      },
      "id": "way/28721733"
    },
    {
      "type": "Feature",
      "properties": {
        "@id": "way/29182247",
        "gnis:feature_id": "517190",
        "name": "Island Number 8",
        "place": "island",
        "wikidata": "Q49643757",
        "@geometry": "center"
      },
      "geometry": {
        "type": "Point",
        "coordinates": [
          -89.3461433,
          36.605086
        ]
      },
      "id": "way/29182247"
    },
    {
      "type": "Feature",
      "properties": {
        "@id": "way/29213817",
        "ele": "110",
        "gnis:feature_id": "727726",
        "name": "Tower Rock",
        "place": "island",
        "@geometry": "center"
      },
      "geometry": {
        "type": "Point",
        "coordinates": [
          -89.5147352,
          37.6316911
        ]
      },
      "id": "way/29213817"
    },
    {
      "type": "Feature",
      "properties": {
        "@id": "way/31953716",
        "place": "island",
        "source": "Yahoo",
        "@geometry": "center"
      },
      "geometry": {
        "type": "Point",
        "coordinates": [
          -87.2255562,
          37.8423401
        ]
      },
      "id": "way/31953716"
    },
    {
      "type": "Feature",
      "properties": {
        "@id": "way/31953749",
        "ele": "110",
        "gnis:feature_id": "517149",
        "name": "French Island Number 1",
        "place": "island",
        "source": "Yahoo",
        "@geometry": "center"
      },
      "geometry": {
        "type": "Point",
        "coordinates": [
          -87.236061,
          37.8513618
        ]
      },
      "id": "way/31953749"
    },
    {
      "type": "Feature",
      "properties": {
        "@id": "way/31953772",
        "ele": "113",
        "gnis:feature_id": "517150",
        "name": "French Island Number 2",
        "place": "island",
        "source": "Yahoo",
        "@geometry": "center"
      },
      "geometry": {
        "type": "Point",
        "coordinates": [
          -87.2460818,
          37.861882
        ]
      },
      "id": "way/31953772"
    },
    {
      "type": "Feature",
      "properties": {
        "@id": "way/32002966",
        "ele": "111",
        "gnis:feature_id": "494040",
        "name": "Henderson Island",
        "name:lt": "Hendersono sala",
        "place": "island",
        "source": "Yahoo",
        "@geometry": "center"
      },
      "geometry": {
        "type": "Point",
        "coordinates": [
          -87.6284311,
          37.8220047
        ]
      },
      "id": "way/32002966"
    },
    {
      "type": "Feature",
      "properties": {
        "@id": "way/32002996",
        "name": "Deadman's Island",
        "natural": "wood",
        "place": "island",
        "source": "Yahoo",
        "@geometry": "center"
      },
      "geometry": {
        "type": "Point",
        "coordinates": [
          -87.6590029,
          37.8220841
        ]
      },
      "id": "way/32002996"
    },
    {
      "type": "Feature",
      "properties": {
        "@id": "way/32029298",
        "ele": "110",
        "gnis:feature_id": "498901",
        "name": "Mount Vernon Towhead Island",
        "natural": "wood",
        "place": "island",
        "source": "Yahoo",
        "wikidata": "Q49660257",
        "@geometry": "center"
      },
      "geometry": {
        "type": "Point",
        "coordinates": [
          -87.8754888,
          37.9180871
        ]
      },
      "id": "way/32029298"
    },
    {
      "type": "Feature",
      "properties": {
        "@id": "way/32074509",
        "ele": "107",
        "gnis:feature_id": "505375",
        "name": "Towhead Island",
        "natural": "wood",
        "place": "island",
        "source": "Yahoo",
        "@geometry": "center"
      },
      "geometry": {
        "type": "Point",
        "coordinates": [
          -87.934293,
          37.8870074
        ]
      },
      "id": "way/32074509"
    },
    {
      "type": "Feature",
      "properties": {
        "@id": "way/32207461",
        "name": "Wabash Island",
        "place": "island",
        "source": "Yahoo",
        "@geometry": "center"
      },
      "geometry": {
        "type": "Point",
        "coordinates": [
          -88.0178272,
          37.7816119
        ]
      },
      "id": "way/32207461"
    },
    {
      "type": "Feature",
      "properties": {
        "@id": "way/32207655",
        "place": "island",
        "source": "Yahoo",
        "@geometry": "center"
      },
      "geometry": {
        "type": "Point",
        "coordinates": [
          -88.1545984,
          37.6558061
        ]
      },
      "id": "way/32207655"
    },
    {
      "type": "Feature",
      "properties": {
        "@id": "way/32474296",
        "ele": "100",
        "gnis:feature_id": "504613",
        "name": "Sturgeon Island",
        "place": "island",
        "source": "Yahoo",
        "@geometry": "center"
      },
      "geometry": {
        "type": "Point",
        "coordinates": [
          -88.0876116,
          37.5384477
        ]
      },
      "id": "way/32474296"
    },
    {
      "type": "Feature",
      "properties": {
        "@id": "way/32474601",
        "ele": "104",
        "gnis:feature_id": "511275",
        "name": "Cave in Rock Island",
        "place": "island",
        "source": "Yahoo",
        "@geometry": "center"
      },
      "geometry": {
        "type": "Point",
        "coordinates": [
          -88.1464717,
          37.4626971
        ]
      },
      "id": "way/32474601"
    },
    {
      "type": "Feature",
      "properties": {
        "@id": "way/77449668",
        "ele": "96",
        "name": "Angelo Towhead",
        "natural": "wood",
        "place": "island",
        "source": "bing",
        "@geometry": "center"
      },
      "geometry": {
        "type": "Point",
        "coordinates": [
          -89.1737528,
          36.981436
        ]
      },
      "id": "way/77449668"
    },
    {
      "type": "Feature",
      "properties": {
        "@id": "way/96025080",
        "gnis:feature_id": "1287191",
        "name": "Hawkins Island",
        "place": "island",
        "wikidata": "Q49640572",
        "@geometry": "center"
      },
      "geometry": {
        "type": "Point",
        "coordinates": [
          -82.6762035,
          36.5077765
        ]
      },
      "id": "way/96025080"
    },
    {
      "type": "Feature",
      "properties": {
        "@id": "way/138219997",
        "place": "island",
        "@geometry": "center"
      },
      "geometry": {
        "type": "Point",
        "coordinates": [
          -89.5609395,
          37.5783589
        ]
      },
      "id": "way/138219997"
    },
    {
      "type": "Feature",
      "properties": {
        "@id": "way/306175096",
        "place": "island",
        "@geometry": "center"
      },
      "geometry": {
        "type": "Point",
        "coordinates": [
          -88.7564243,
          37.8621085
        ]
      },
      "id": "way/306175096"
    },
    {
      "type": "Feature",
      "properties": {
        "@id": "way/411964386",
        "place": "island",
        "@geometry": "center"
      },
      "geometry": {
        "type": "Point",
        "coordinates": [
          -83.6572307,
          37.6912916
        ]
      },
      "id": "way/411964386"
    },
    {
      "type": "Feature",
      "properties": {
        "@id": "way/420483426",
        "landuse": "forest",
        "place": "island",
        "@geometry": "center"
      },
      "geometry": {
        "type": "Point",
        "coordinates": [
          -87.2444741,
          38.9497798
        ]
      },
      "id": "way/420483426"
    },
    {
      "type": "Feature",
      "properties": {
        "@id": "way/463466433",
        "ele": "453",
        "gnis:feature_id": "1640533",
        "name": "Osceola Island",
        "natural": "wood",
        "place": "island",
        "wikidata": "Q49666440",
        "@geometry": "center"
      },
      "geometry": {
        "type": "Point",
        "coordinates": [
          -82.106984,
          36.5246261
        ]
      },
      "id": "way/463466433"
    },
    {
      "type": "Feature",
      "properties": {
        "@id": "way/529301089",
        "name": "Lowgap Island",
        "place": "island",
        "@geometry": "center"
      },
      "geometry": {
        "type": "Point",
        "coordinates": [
          -85.0209383,
          36.9118085
        ]
      },
      "id": "way/529301089"
    },
    {
      "type": "Feature",
      "properties": {
        "@id": "way/530443726",
        "place": "island",
        "@geometry": "center"
      },
      "geometry": {
        "type": "Point",
        "coordinates": [
          -85.0562171,
          36.9318291
        ]
      },
      "id": "way/530443726"
    },
    {
      "type": "Feature",
      "properties": {
        "@id": "way/617234257",
        "place": "island",
        "@geometry": "center"
      },
      "geometry": {
        "type": "Point",
        "coordinates": [
          -85.2193204,
          38.2323174
        ]
      },
      "id": "way/617234257"
    },
    {
      "type": "Feature",
      "properties": {
        "@id": "way/617234258",
        "place": "island",
        "@geometry": "center"
      },
      "geometry": {
        "type": "Point",
        "coordinates": [
          -85.21975,
          38.2320401
        ]
      },
      "id": "way/617234258"
    },
    {
      "type": "Feature",
      "properties": {
        "@id": "way/617234259",
        "place": "island",
        "@geometry": "center"
      },
      "geometry": {
        "type": "Point",
        "coordinates": [
          -85.2198559,
          38.2313456
        ]
      },
      "id": "way/617234259"
    },
    {
      "type": "Feature",
      "properties": {
        "@id": "way/617234260",
        "place": "island",
        "@geometry": "center"
      },
      "geometry": {
        "type": "Point",
        "coordinates": [
          -85.2202043,
          38.2309644
        ]
      },
      "id": "way/617234260"
    },
    {
      "type": "Feature",
      "properties": {
        "@id": "way/620949695",
        "name": "Vawter Island",
        "natural": "scrub",
        "place": "island",
        "@geometry": "center"
      },
      "geometry": {
        "type": "Point",
        "coordinates": [
          -85.6063156,
          38.9827811
        ]
      },
      "id": "way/620949695"
    },
    {
      "type": "Feature",
      "properties": {
        "@id": "way/728882960",
        "ele": "104",
        "gnis:feature_id": "407158",
        "name": "Devils Island",
        "natural": "wetland",
        "place": "island",
        "salt": "no",
        "tidal": "no",
        "wetland": "swamp",
        "@geometry": "center"
      },
      "geometry": {
        "type": "Point",
        "coordinates": [
          -89.4453649,
          37.3507429
        ]
      },
      "id": "way/728882960"
    },
    {
      "type": "Feature",
      "properties": {
        "@id": "way/820071620",
        "place": "island",
        "@geometry": "center"
      },
      "geometry": {
        "type": "Point",
        "coordinates": [
          -88.3821251,
          37.7268006
        ]
      },
      "id": "way/820071620"
    },
    {
      "type": "Feature",
      "properties": {
        "@id": "way/820071639",
        "place": "island",
        "@geometry": "center"
      },
      "geometry": {
        "type": "Point",
        "coordinates": [
          -88.3313778,
          37.7327456
        ]
      },
      "id": "way/820071639"
    },
    {
      "type": "Feature",
      "properties": {
        "@id": "way/820071641",
        "place": "island",
        "@geometry": "center"
      },
      "geometry": {
        "type": "Point",
        "coordinates": [
          -88.3287076,
          37.7325483
        ]
      },
      "id": "way/820071641"
    },
    {
      "type": "Feature",
      "properties": {
        "@id": "way/826354424",
        "place": "island",
        "@geometry": "center"
      },
      "geometry": {
        "type": "Point",
        "coordinates": [
          -88.6708486,
          37.940595
        ]
      },
      "id": "way/826354424"
    },
    {
      "type": "Feature",
      "properties": {
        "@id": "way/837541963",
        "ele": "100",
        "gnis:feature_id": "517066",
        "name": "Stewart Island",
        "place": "island",
        "@geometry": "center"
      },
      "geometry": {
        "type": "Point",
        "coordinates": [
          -88.4639696,
          37.2227981
        ]
      },
      "id": "way/837541963"
    },
    {
      "type": "Feature",
      "properties": {
        "@id": "way/901847948",
        "place": "island",
        "@geometry": "center"
      },
      "geometry": {
        "type": "Point",
        "coordinates": [
          -84.7870353,
          36.9602528
        ]
      },
      "id": "way/901847948"
    },
    {
      "type": "Feature",
      "properties": {
        "@id": "way/903180744",
        "place": "island",
        "@geometry": "center"
      },
      "geometry": {
        "type": "Point",
        "coordinates": [
          -84.7881003,
          36.9724127
        ]
      },
      "id": "way/903180744"
    },
    {
      "type": "Feature",
      "properties": {
        "@id": "way/903982532",
        "name": "Potato Knoll",
        "place": "island",
        "@geometry": "center"
      },
      "geometry": {
        "type": "Point",
        "coordinates": [
          -84.6735125,
          37.0436555
        ]
      },
      "id": "way/903982532"
    },
    {
      "type": "Feature",
      "properties": {
        "@id": "way/965103171",
        "place": "island",
        "@geometry": "center"
      },
      "geometry": {
        "type": "Point",
        "coordinates": [
          -85.9968933,
          37.9935217
        ]
      },
      "id": "way/965103171"
    },
    {
      "type": "Feature",
      "properties": {
        "@id": "way/1040364733",
        "place": "island",
        "@geometry": "center"
      },
      "geometry": {
        "type": "Point",
        "coordinates": [
          -86.5132601,
          39.1289118
        ]
      },
      "id": "way/1040364733"
    },
    {
      "type": "Feature",
      "properties": {
        "@id": "way/1157286819",
        "place": "island",
        "@geometry": "center"
      },
      "geometry": {
        "type": "Point",
        "coordinates": [
          -84.8973959,
          37.5440801
        ]
      },
      "id": "way/1157286819"
    },
    {
      "type": "Feature",
      "properties": {
        "@id": "way/1262295949",
        "ele": "189",
        "gnis:feature_id": "504885",
        "name": "Sycamore Island",
        "place": "island",
        "@geometry": "center"
      },
      "geometry": {
        "type": "Point",
        "coordinates": [
          -86.0060396,
          37.5723144
        ]
      },
      "id": "way/1262295949"
    },
    {
      "type": "Feature",
      "properties": {
        "@id": "way/1286035792",
        "name": "Horton Island",
        "place": "island",
        "@geometry": "center"
      },
      "geometry": {
        "type": "Point",
        "coordinates": [
          -82.9375309,
          36.5728175
        ]
      },
      "id": "way/1286035792"
    },
    {
      "type": "Feature",
      "properties": {
        "@id": "way/1286888530",
        "place": "island",
        "@geometry": "center"
      },
      "geometry": {
        "type": "Point",
        "coordinates": [
          -82.9547255,
          36.5789894
        ]
      },
      "id": "way/1286888530"
    },
    {
      "type": "Feature",
      "properties": {
        "@id": "way/1333294198",
        "place": "island",
        "@geometry": "center"
      },
      "geometry": {
        "type": "Point",
        "coordinates": [
          -89.4265045,
          38.9390126
        ]
      },
      "id": "way/1333294198"
    },
    {
      "type": "Feature",
      "properties": {
        "@id": "way/1382700747",
        "place": "island",
        "@geometry": "center"
      },
      "geometry": {
        "type": "Point",
        "coordinates": [
          -86.9958484,
          37.8735293
        ]
      },
      "id": "way/1382700747"
    },
    {
      "type": "Feature",
      "properties": {
        "@id": "way/1410211734",
        "place": "island",
        "@geometry": "center"
      },
      "geometry": {
        "type": "Point",
        "coordinates": [
          -88.0426995,
          37.22252
        ]
      },
      "id": "way/1410211734"
    }
  ]
}